********************************************************************************
              CENTRO DE INSTRUMENTACION Y REGISTRO SISMICO  A.C.

    Anaxagoras 814, Col. Narvarte, Benito Juarez, C.P. 03020 Mexico, D.F.
           Tels. 5687 45 42/ 5687 45  82             Fax. 5669 25 12
********************************************************************************
ARCHIVO ESTANDAR DE ACELERACION:
VERSION DEL FORMATO                    : 2.0
NOMBRE DEL ARCHIVO                     : AU4620140508170016
FECHA Y HORA DE CREACION               : 22/MAY/14, 13:42
REF. CATALOGO ACELEROGRAMAS, SMIS 1996 : REGISTRO No.     /PAG.


================================================================================
DATOS DE LA ESTACION:
NOMBRE DE LA ESTACION                  : ESC. SEC. TÉC. NO. 14
CLAVE DE LA ESTACION                   : AU46
LOCALIZACION DE LA ESTACION            : Del. Benito Juárez, Col. del Valle,    
                                       : Entre Angel Urraza y Coyoacán.         
                                       :                                        
                                       :                                        
                                       : 
COORDENADAS DE LA ESTACION             : 19.3832 LAT. N
                                       : 99.1681 LONG. W
ALTITUD (msnm)                         : 2233
TIPO DE SUELO                          : Transición                          
                                       :                           
                                       : 
INSTITUCION RESPONSABLE                : CIRES
                                       : 

================================================================================
DATOS DEL ACELEROGRAFO:
MODELO DEL ACELEROGRAFO                : RADESD
NUMERO DE SERIE DEL ACELEROGRAFO       : 236
NUMERO DE CANALES                      : 3
ORIENTACION C1-C6 (rumbo;orientacion)  : /N00E/+V/N90W
ORIENTACION C7-C12 (rumbo;orientacion) : 
VEL. DE MUESTREO, C1-C6 (muestras/s)   : /100/100/100
VEL. DE MUESTREO, C7-C12 (muestras/s)  : 
ESC. COMPLETA DE SENSORES, C1-C6, (g)  : /0.5/0.5/0.5
ESC. COMPLETA DE SENSORES, C7-C12, (g) : 
FREC. NAT. DE SENSORES, C1-C6, (Hz)    : /33/30/30
FREC. NAT. DE SENSORES, C7-C12, (Hz)   : 
AMORTIGUAMIENTO DE SENSORES, C1-C6     : /0.735/0.733/0.730
AMORTIGUAMIENTO DE SENSORES, C7-C12    : 
INTERVALO DE MUESTREO, C1-C6, (s)      : /0.01/0.01/0.01
INTERVALO DE MUESTREO, C7-C12, (s)     : 
UMBRAL DE DISPARO, C1-C6, (Gal)        : /2.39/5.99/2.99
UMBRAL DE DISPARO, C7-C12, (Gal)       : 
MEMORIA DE PREEVENTO (s)               : 44.0
TIEMPO DE POSEVENTO (s)                : 64.0


================================================================================
DATOS DEL SISMO:
FECHA DEL SISMO (GMT)                  : 08/MAY/14
HORA EPICENTRO (GMT)                   : 17:00:16.0
MAGNITUD(ES)                           : /Mc=6.4
COORDENADAS DEL EPICENTRO              : 17.11 LAT. N
                                       : 100.87 LONG. W
PROFUNDIDAD FOCAL (km)                 : 17
FUENTE DE LOS DATOS EPICENTRALES       : SSN
                                       : INSTITUTO DE GEOFISICA, UNAM

================================================================================
DATOS DE ESTE REGISTRO:
HORA DE LA PRIMERA MUESTRA (GMT)       : 17:01:33.00
EXACTITUD DEL TIEMPO (s)               : 0.01
DURACION DEL REGISTRO (s), C1-C6       : /191.4/191.4/191.4
DURACION DEL REGISTRO (s), C7-C12      : 
NUM. TOTAL DE MUESTRAS, C1-C6          : /19140/19140/19140
NUM. TOTAL DE MUESTRAS, C7-C12         : 
ACEL. MAX. (Gal), C1-C6                : /16.38169/4.29867/21.049
ACEL. MAX., C1-C6, EN LA MUESTRA       : /5989/6676/5768
ACEL. MAX. (Gal), C7-C12               : 
ACEL. MAX., C7-C12, EN LA MUESTRA      : 
UNIDADES DE LOS DATOS                  : Gal (cm/s/s)
FACTOR DE DECIMACION                   : 1
FORMATO DATOS (FORTRAN,10 campos/dato) : 3F10.5


================================================================================
CALIDAD DEL ACELEROGRAMA:
REGISTRO DIGITAL COMPLETO CON TIEMPO ABSOLUTO CORRECTO.


================================================================================
COMENTARIOS:














================================================================================
DATOS DE ACELERACION:
---------+---------+---------+---------+---------+---------+---------+---------+
   CANAL-1   CANAL-2   CANAL-3   CANAL-4   CANAL-5   CANAL-6   CANAL-7   CANAL-8
      N00E        +V      N90W
---------+---------+---------+---------+---------+---------+---------+---------+
[...]
  -6.20634  -0.81211  -0.00502
  -6.08663  -0.96175  -0.24444
  -5.99684  -1.18621  -0.54371
  -5.92203  -1.36577  -0.72328
  -5.72750  -1.41066  -0.97766
  -5.53297  -1.41066  -1.21708
  -5.20376  -1.54534  -1.32183
  -4.82967  -1.68001  -1.45650
  -4.38076  -1.70994  -1.54628
  -4.11141  -1.66505  -1.69592
  -3.75228  -1.51541  -1.86052
  -3.34826  -1.33584  -2.20469
  -2.94424  -1.17124  -2.41418
  -2.54022  -0.94679  -2.47404
  -2.16612  -0.73729  -2.24958
  -1.79203  -0.43802  -1.84556
  -1.55261  -0.33327  -1.36672
  -1.34311  -0.40809  -0.94773
  -1.04384  -0.48291  -0.43896
  -0.69967  -0.48291  -0.01998
  -0.47522  -0.51284   0.35411
  -0.26572  -0.51284   0.92274
   0.06348  -0.60262   1.44647
   0.36275  -0.72233   2.00013
   0.60217  -0.78218   2.28444
   0.87152  -0.91686   2.41911
   1.29051  -1.11139   2.46401
   1.64964  -1.38073   2.40415
   2.02373  -1.59023   2.08991
   2.45768  -1.73986   1.61107
   2.86170  -1.79972   1.11727
   3.05623  -1.79972   0.66835
   3.28069  -1.78476   0.14462
   3.68471  -1.81468  -0.42400
   4.14859  -1.81468  -1.12730
   4.55261  -1.78476  -1.62110
   4.73217  -1.75483  -1.93534
   4.86685  -1.78476  -2.41418
   5.10627  -1.69497  -2.83317
   5.31576  -1.75483  -3.19230
   5.39058  -1.73986  -3.41675
   5.46540  -1.59023  -3.40179
   5.40554  -1.44059  -3.25215
   5.18108  -1.27599  -3.16237
   5.03145  -1.14131  -3.04266
   4.98656  -0.96175  -2.81820
   4.89677  -0.78218  -2.56382
   4.80699  -0.78218  -2.27951
   4.73217  -0.81211  -2.02512
   4.58253  -0.91686  -1.92038
   4.43290  -1.12635  -1.78570
   4.22340  -1.39570  -1.56125
   4.05880  -1.50044  -1.39664
   3.86427  -1.39570  -1.26197
   3.56500  -1.26102  -1.09737
   3.14601  -1.26102  -0.91780
   2.65221  -1.20117  -0.94773
   2.11351  -0.99168  -0.75320
   1.47007  -0.72233  -0.51378
   0.76678  -0.55773  -0.40904
   0.12333  -0.43802  -0.46889
  -0.47522  -0.24349  -0.66342
  -0.93909   0.02586  -0.66342
  -1.31319   0.34010  -0.60357
  -1.61246   0.59448  -0.61853
  -1.83692   0.60945  -0.64846
  -1.80699   0.62441  -0.54371
  -1.89677   0.50470  -0.27436
  -2.10627   0.37003   0.02491
  -2.12123   0.28024   0.15959
  -2.10627   0.16053   0.39901
  -2.39058  -0.13874   0.68332
  -2.52525  -0.37816   0.95267
  -2.48036  -0.42305   1.07238
  -2.58511  -0.55773   1.29683
  -2.77964  -0.73729   1.56618
  -2.89935  -1.03657   1.65596
  -2.91431  -1.32088   1.70085
  -2.68985  -1.45555   1.71582
  -2.79460  -1.47052   1.44647
  -2.94424  -1.51541   1.04245
  -2.95920  -1.48548   0.65339
  -3.03402  -1.38073   0.17455
  -3.06395  -1.12635  -0.16962
  -3.04898  -0.97671  -0.31925
  -2.97416  -1.02160  -0.46889
  -2.60007  -0.93182  -0.61853
  -2.16612  -0.64751  -0.81306
  -1.89677  -0.54276  -0.96270
  -1.46282  -0.70737  -1.08241
  -0.81938  -0.67744  -1.11233
  -0.04127  -0.49787  -1.09737
   0.73685  -0.18363  -1.26197
   1.58978  -0.06392  -1.45650
   2.57739  -0.03400  -1.84556
   3.57996  -0.00407  -2.11491
   4.55261   0.07075  -2.42914
   5.33072   0.26528  -2.77331
   5.94424   0.32513  -3.11748
   6.28840   0.28024  -3.43172
   6.51286   0.17550  -3.74596
   6.81213   0.10068  -3.79085
   7.05155   0.14557  -3.74596
   7.23112   0.13061  -3.58135
   7.44061  -0.04896  -3.50654
   7.66507  -0.33327  -3.47661
   7.99427  -0.55773  -3.40179
   8.29355  -0.64751  -3.25215
   8.35340  -0.72233  -2.99777
   8.41326  -0.97671  -2.65360
   8.50304  -1.18621  -2.54885
   8.62275  -1.32088  -2.50396
   8.78735  -1.26102  -2.33936
   8.80231  -1.12635  -2.05505
   8.63771  -1.00664  -1.74081
   8.42822  -1.05153  -1.39664
   8.17384  -1.05153  -1.14226
   7.81471  -0.99168  -0.91780
   7.41069  -0.69240  -0.73824
   6.96177  -0.25845  -0.37911
   6.49790   0.17550  -0.04991
   6.13877   0.54959   0.06980
   5.67489   0.89376   0.06980
   5.30079   1.41749   0.24937
   4.94166   1.92626   0.56361
   4.70224   2.33028   0.89281
   4.32815   2.58466   1.25194
   4.10369   2.76423   1.65596
   3.89420   2.94379   2.07495
   3.53507   3.09343   2.44904
   3.13105   3.07847   2.85306
   2.86170   2.92883   3.34687
   2.62228   2.77919   3.82571
   2.42775   2.49488   4.11002
   2.36790   2.15071   4.24469
   2.41279   1.89633   4.12498
   2.32301   1.68684   3.93045
   2.18833   1.47734   3.82571
   2.05366   1.23792   3.67607
   1.75438   0.89376   3.36183
   1.61971   0.51966   3.21219
   1.51496   0.38499   3.31694
   1.14087   0.42988   3.52643
   0.66203   0.26528   3.69103
   0.37772   0.04082   3.84067
   0.06348   0.08571   3.79578
  -0.31062   0.19046   3.72096
  -0.72960   0.28024   3.69103
  -1.04384   0.31017   3.42169
  -1.20844   0.45981   3.06256
  -1.40297   0.54959   2.62861
  -1.53764   0.53463   2.03006
  -1.38801   0.37003   1.55122
  -1.08873   0.20542   1.25194
  -0.80442  -0.00407   1.04245
  -0.68471  -0.15371   0.90777
  -0.52011  -0.27342   0.90777
  -0.34054  -0.19860   1.11727
  -0.29565  -0.04896   1.26690
  -0.32558   0.07075   1.52129
  -0.22083   0.25032   1.68589
  -0.10112   0.68426   1.58114
   0.01859   1.01347   1.40158
   0.09341   1.14814   1.13223
   0.28794   1.08829   0.69828
   0.51239   1.04339   0.24937
   0.73685   0.99850  -0.07983
   0.88649   0.98354  -0.39407
   1.05109   0.86383  -0.79809
   1.23065   0.41492  -1.11233
   1.50000   0.07075  -1.27693
   1.51496  -0.13874  -1.29190
   1.67956  -0.36320  -1.15722
   1.69453  -0.39313  -0.99262
   1.51496  -0.37816  -0.82802
   1.38029  -0.25845  -0.67838
   1.29051   0.22039  -0.64846
   1.17080   0.90872  -0.69335
   1.03612   1.44742  -0.76817
   1.02116   1.94122  -0.94773
   1.12591   2.43502  -1.24701
   1.33540   3.01861  -1.45650
   1.60475   3.45256  -1.81563
   1.97884   3.60220  -2.18972
   2.35293   3.48249  -2.44411
   2.84674   3.25803  -2.56382
   3.34054   3.00365  -2.56382
   3.78946   2.77919  -2.42914
   4.08873   2.52481  -2.36929
   4.26830   2.16568  -2.38425
   4.49275   1.83647  -2.32440
   4.62743   1.73173  -2.27951
   4.68728   1.73173  -2.33936
   4.86685   1.82151  -2.51893
   5.09130   2.01604  -2.78827
   5.19605   2.12079  -3.07259
   5.22598   2.04597  -3.41675
   5.46540   2.01604  -3.61128
   5.74971   2.00108  -3.80581
   6.07891   1.82151  -3.91056
   6.39315   1.47734  -3.88063
   6.55775   1.16310  -3.80581
   6.72235   0.93865  -3.64121
   6.88695   0.81894  -3.50654
   6.94681   0.68426  -3.29704
   6.93184   0.66930  -3.16237
   6.72235   0.63937  -3.13244
   6.36322   0.62441  -3.04266
   5.88438   0.65434  -2.98280
   5.48036   0.71419  -2.95288
   5.07634   0.90872  -2.83317
   4.55261   0.99850  -2.54885
   3.93909   0.98354  -2.14483
   3.52011   0.92368  -1.63607
   3.11609   0.81894  -1.09737
   2.71206   0.48974  -0.52875
   2.21826   0.16053   0.03988
   1.51496  -0.16867   0.54864
   0.84159  -0.63255   1.11727
   0.16823  -1.26102   1.76071
  -0.53507  -1.88950   2.26948
  -1.41793  -2.41323   2.65853
  -2.31576  -2.74244   2.91292
  -3.33329  -2.95193   3.04759
  -4.12637  -3.11653   3.22716
  -4.97931  -3.19135   3.46658
  -5.66764  -3.02675   3.78082
  -6.37094  -2.69755   4.11002
  -6.89467  -2.30849   4.45419
  -7.41840  -1.82965   4.78339
  -7.95710  -1.42563   5.02281
  -8.46586  -0.99168   5.29216
  -9.06442  -0.51284   5.51661
  -9.69289   0.05579   5.81589
 -10.38123   0.63937   6.11516
 -10.96481   1.13318   6.36955
 -11.45862   1.52224   6.39947
 -11.92249   1.77662   6.33962
 -12.31155   1.95618   6.36955
 -12.62579   2.03100   6.36955
 -12.70061   2.18064   6.29473
 -12.65572   2.30035   6.21991
 -12.61083   2.42006   6.20495
 -12.43126   2.44999   6.18998
 -12.19184   2.37517   6.14509
 -11.92249   2.42006   6.08524
 -11.77286   2.33028   6.05531
 -11.86264   2.16568   6.01042
 -11.90753   2.09086   6.01042
 -12.08709   2.03100   6.16005
 -12.31155   1.79158   6.36955
 -12.61083   1.50727   6.62393
 -12.91010   1.25289   6.80350
 -13.17945   1.01347   6.99802
 -13.37398   0.77405   7.05788
 -13.61340   0.54959   7.01299
 -13.74807   0.29521   6.90824
 -13.67325   0.14557   6.69875
 -13.62836   0.02586   6.47429
 -13.56851  -0.06392   6.33962
 -13.47872  -0.04896   6.20495
 -13.38894   0.13061   5.96553
 -13.38894   0.23535   5.78596
 -13.55354   0.20542   5.77100
 -13.70318   0.08571   5.84582
 -13.88275  -0.15371   5.93560
 -14.03238  -0.57269   6.02538
 -14.15209  -0.97671   6.08524
 -14.30173  -1.44059   5.90567
 -14.37655  -2.00921   5.66625
 -14.31670  -2.48805   5.38194
 -14.28677  -2.83222   4.99288
 -14.18202  -3.07164   4.34944
 -14.13713  -3.17639   3.55636
 -13.95756  -3.08660   2.40415
 -13.73311  -2.93697   1.13223
 -13.53858  -2.71251  -0.03494
 -13.52362  -2.50302  -1.00759
 -13.43383  -2.26360  -1.92038
 -13.25427  -2.05410  -2.63864
 -13.04478  -1.90447  -3.35690
 -12.70061  -1.93439  -3.97041
 -12.13199  -1.85957  -4.59889
 -11.53344  -1.60519  -5.34708
 -10.72539  -1.33584  -6.05037
  -9.70786  -1.15628  -6.69382
  -8.70528  -1.17124  -7.50186
  -7.59797  -1.23110  -8.26501
  -6.28116  -1.18621  -8.86356
  -5.03916  -1.02160  -9.59679
  -3.91688  -1.12635 -10.53950
  -2.61503  -1.30592 -11.48222
  -1.22340  -1.39570 -12.24537
   0.15326  -1.39570 -12.97860
   1.33540  -1.41066 -13.56218
   2.51754  -1.54534 -14.13081
   3.84931  -1.70994 -14.72936
   5.21101  -1.72490 -15.32791
   6.45300  -1.53037 -15.89653
   7.56032  -1.24606 -16.39033
   8.69757  -0.99168 -16.59983
   9.80489  -0.69240 -16.73450
  10.79249  -0.46795 -16.86917
  11.76514  -0.21356 -16.88414
  12.49836  -0.00407 -16.82428
  13.24655   0.14557 -16.55493
  13.84510  -0.03400 -16.12099
  14.23416  -0.19860 -15.58229
  14.47358  -0.57269 -14.96878
  14.63818  -1.00664 -14.28044
  14.86264  -1.26102 -13.69686
  14.86264  -1.33584 -13.26291
  14.53343  -1.50044 -12.82896
  14.08452  -1.70994 -12.29026
  13.75532  -1.75483 -11.39244
  13.48597  -1.54534 -10.22526
  12.91735  -1.41066  -9.29751
  12.28887  -1.29095  -8.33983
  11.70528  -1.14131  -7.23251
  11.09177  -0.91686  -6.06534
  10.67278  -0.58766  -4.91313
  10.25380  -0.33327  -3.73099
   9.68518  -0.21356  -2.35433
   9.11655  -0.30334  -0.87291
   8.47311  -0.46795   0.66835
   7.82967  -0.61758   2.35926
   6.91688  -0.73729   4.03520
   5.74971  -0.94679   5.65129
   4.43290  -1.33584   7.16263
   3.07119  -1.62015   8.55426
   1.76935  -1.78476   9.88603
   0.48246  -1.90447  11.09809
  -0.78946  -2.03914  12.02585
  -1.98656  -2.03914  12.86382
  -3.04898  -2.02418  13.55215
  -3.96177  -1.91943  14.21056
  -4.68003  -1.65008  14.77918
  -5.26362  -1.45555  15.28795
  -5.80232  -1.27599  15.99124
  -6.35597  -1.08146  16.69454
  -6.84978  -0.88693  17.38287
  -7.22387  -0.70737  18.16099
  -7.56804  -0.63255  19.07378
  -7.82242  -0.45298  19.73218
  -7.94213  -0.18363  20.30081
  -8.01695   0.04082  20.73476
  -8.03192   0.19046  21.04900
  -8.03192   0.51966  21.00410
  -8.03192   0.75908  20.67490
  -7.89724   0.89376  20.33074
  -7.67279   1.05836  19.76211
  -7.49322   1.23792  18.93911
  -7.34358   1.38756  17.92157
  -7.02934   1.37260  16.82922
  -6.64029   1.32771  15.79672
  -6.04174   1.34267  14.97371
  -5.44319   1.22296  14.30034
  -4.76982   1.05836  13.59704
  -3.99170   0.75908  12.95360
  -3.24351   0.57952  12.14556
  -2.40554   0.47477  11.23277
  -1.52268   0.53463  10.33494
  -0.56500   0.63937   9.36230
   0.19815   0.89376   8.19513
   0.99123   1.20800   6.84839
   1.78431   1.47734   5.42683
   2.57739   1.74669   3.97534
   3.38543   1.98611   2.73335
   4.13362   2.12079   1.58114
   4.89677   2.15071   0.47383
   5.71978   2.15071  -0.60357
   6.55775   2.07589  -1.65103
   7.33587   1.89633  -2.63864
   8.17384   1.70180  -3.46164
   9.05670   1.64195  -4.12005
   9.76000   1.64195  -4.71860
  10.22387   1.47734  -5.37701
  10.71768   1.41749  -6.21498
  11.01695   1.28281  -7.18762
  11.18155   1.14814  -8.10041
  11.45090   1.17807  -8.90845
  11.57061   1.35763  -9.74642
  11.43594   1.38756 -10.46468
  11.30126   1.19303 -11.01834
  11.36112   1.13318 -11.51215
  11.49579   1.13318 -11.91617
  11.52572   1.08829 -12.27530
  11.51076   0.93865 -12.39501
  11.34615   0.87879 -12.60450
  11.12170   0.90872 -13.02349
  10.89724   1.02843 -13.44247
  10.68775   1.20800 -13.81657
  10.56804   1.44742 -14.08591
  10.43336   1.65691 -14.17570
  10.19394   1.77662 -14.28044
   9.73007   1.77662 -14.23555
   9.31108   1.77662 -14.07095
   8.96692   1.71676 -13.71182
   8.57786   1.64195 -13.26291
   7.96434   1.29778 -12.64939
   7.27601   0.96858 -12.21544
   6.66250   0.69923 -11.99099
   6.13877   0.39995 -11.72164
   5.46540  -0.01903 -11.42236
   4.64239  -0.36320 -11.16798
   3.75953  -0.72233 -10.80885
   2.92156  -1.09642 -10.56943
   2.18833  -1.44059 -10.28512
   1.48504  -1.73986  -9.83621
   0.96130  -1.99425  -9.23766
   0.43757  -2.02418  -8.65407
   0.03355  -1.96432  -8.05552
  -0.07120  -1.85957  -7.29237
  -0.19091  -1.62015  -6.60403
  -0.41536  -1.51541  -5.94563
  -0.17594  -1.32088  -5.18248
   0.06348  -0.90189  -4.50911
  -0.14601  -0.82708  -3.98538
  -0.22083  -0.85700  -3.43172
  -0.17594  -0.90189  -3.01273
  -0.13105  -0.91686  -2.65360
  -0.11609  -1.02160  -2.12987
  -0.04127  -0.91686  -1.69592
  -0.01134  -0.79715  -1.29190
  -0.10112  -0.69240  -0.93277
  -0.04127  -0.54276  -0.61853
   0.18319  -0.21356  -0.36415
   0.30290   0.11564  -0.18458
   0.34779   0.38499   0.03988
   0.58721   0.75908   0.30922
   0.91641   1.11821   0.62346
   1.17080   1.29778   0.92274
   1.61971   1.46238   1.23698
   2.00877   1.79158   1.38661
   2.06862   1.88137   1.61107
   2.29308   1.82151   1.97020
   2.75696   1.80655   2.16473
   2.96645   1.77662   2.29940
   2.92156   1.56713   2.62861
   2.89163   1.29778   2.82314
   2.84674   1.01347   2.88299
   2.63725   0.96858   2.85306
   2.33797   0.92368   2.74832
   2.18833   0.92368   2.55379
   2.21826   1.10325   2.43408
   2.18833   1.31274   2.43408
   2.08359   1.34267   2.52386
   2.18833   1.32771   2.64357
   2.30804   1.44742   2.73335
   2.32301   1.58209   2.86803
   2.21826   1.49231   3.07752
   2.05366   1.17807   3.21219
   1.91898   0.74412   3.45161
   1.97884   0.34010   3.72096
   1.96388   0.01090   3.82571
   1.82920  -0.33327   3.81074
   1.60475  -0.70737   3.63118
   1.35036  -0.93182   3.24212
   1.15583  -1.14131   2.76328
   1.00620  -1.24606   2.31437
   0.81167  -1.27599   1.97020
   0.73685  -1.27599   1.56618
   0.54232  -1.20117   1.04245
   0.07844  -1.26102   0.38404
  -0.34054  -1.41066  -0.25940
  -0.66975  -1.56030  -0.73824
  -1.02888  -1.66505  -1.21708
  -1.43290  -1.65008  -1.69592
  -1.97159  -1.57526  -2.23462
  -2.64496  -1.62015  -2.78827
  -3.18366  -1.76979  -3.17733
  -3.52782  -1.72490  -3.62625
  -3.93185  -1.62015  -4.03027
  -4.30594  -1.70994  -4.16494
  -4.62018  -1.90447  -4.38940
  -4.82967  -2.03914  -4.58393
  -4.82967  -2.23367  -4.47918
  -4.62018  -2.41323  -4.40436
  -4.44061  -2.72747  -4.25472
  -4.27601  -3.07164  -4.10509
  -4.15630  -3.40084  -3.85070
  -3.99170  -3.56544  -3.59632
  -3.99170  -3.65523  -3.40179
  -4.11141  -3.65523  -3.25215
  -4.29098  -3.67019  -3.01273
  -4.53040  -3.61033  -2.71346
  -4.75485  -3.34099  -2.54885
  -4.91945  -2.96689  -2.30943
  -5.00924  -2.74244  -1.87549
  -4.85960  -2.36834  -1.39664
  -4.50047  -1.84461  -0.88788
  -4.03659  -1.27599  -0.45393
  -3.43804  -0.70737  -0.09480
  -2.71978  -0.22852   0.26433
  -2.01648   0.23535   0.65339
  -1.19348   0.71419   1.02748
