********************************************************************************
               CENTRO DE INSTRUMENTACION Y REGISTRO SISMICO  A.C.  
                       Coordinacion de Servicios Tecnicos
     Anaxagoras 814, Col. Narvarte, Benito Juarez, C.P. 03020 Mexico, D.F.
            Tels. 687 45 42/ 687 45  82             Fax. 669 25 12
********************************************************************************
ARCHIVO ESTANDAR DE ACELERACION:
VERSION DEL FORMATO                    : 2.0
NOMBRE DEL ARCHIVO                     : AU460401.011
FECHA Y HORA DE CREACION               : 08/NOV/04, 10:00
REF. CATALOGO ACELEROGRAMAS, SMIS 1996 : REGISTRO No.     /PAG.


================================================================================
DATOS DE LA ESTACION:
NOMBRE DE LA ESTACION                  : ANGEL URRAZA
CLAVE DE LA ESTACION                   : AU46
LOCALIZACION DE LA ESTACION            : Esc Sec Tec # 14, 5 de Mayo Av
                                       : Coyoacan y Angel Urraza, Col de
                                       : Valle, Benito Juarez
                                       :
                                       :
COORDENADAS DE LA ESTACION             : 19.383 LAT. N 
                                       : 99.168 LONG. W 
ALTITUD (msnm)                         : 2233
TIPO DE SUELO                          : TRANSICION
                                       : 
                                       : 
INSTITUCION RESPONSABLE                : CIRES
                                       :

================================================================================
DATOS DEL ACELEROGRAFO:
MODELO DEL ACELEROGRAFO                : RAD-851
NUMERO DE SERIE DEL ACELEROGRAFO       : 236
NUMERO DE CANALES                      : 3
ORIENTACION C1-C6 (rumbo;orientacion)  : /N00E/+V/N90W
ORIENTACION C7-C12 (rumbo;orientacion) :
VEL. DE MUESTREO, C1-C6 (muestras/s)   : /100/100/100
VEL. DE MUESTREO, C7-C12 (muestras/s)  :
ESC. COMPLETA DE SENSORES, C1-C6, (g)  : /0.5/0.5/0.5
ESC. COMPLETA DE SENSORES, C7-C12, (g) :
FREC. NAT. DE SENSORES, C1-C6, (Hz)    : /33/30/30
FREC. NAT. DE SENSORES, C7-C12, (Hz)   :
AMORTIGUAMIENTO DE SENSORES, C1-C6     : /0.735/0.733/0.730
AMORTIGUAMIENTO DE SENSORES, C7-C12    :
INTERVALO DE MUESTREO, C1-C6, (s)      : /0.01/0.01/0.01
INTERVALO DE MUESTREO, C7-C12, (s)     :
UMBRAL DE DISPARO, C1-C6, (Gal)        : /1.71/2.44/1.71
UMBRAL DE DISPARO, C7-C12, (Gal)       :
MEMORIA DE PREEVENTO (s)               : 24
TIEMPO DE POSEVENTO (s)                : 64


================================================================================
DATOS DEL SISMO:
FECHA DEL SISMO (GMT)                  : 01/ENE/04
HORA EPICENTRO (GMT)                   : 23:31:49:0
MAGNITUD(ES)                           : /Ms=6.3
COORDENADAS DEL EPICENTRO              : 17.31 LAT. N
                                       : -101.42 LONG. W
PROFUNDIDAD FOCAL (km)                 : 10.0
FUENTE DE LOS DATOS EPICENTRALES       : SSN
                                       : INSTITUTO DE GEOFISICA, UNAM

================================================================================
DATOS DE ESTE REGISTRO:
HORA DE LA PRIMERA MUESTRA (GMT)       : 23:34:26.00
EXACTITUD DEL TIEMPO (s)               : 0.01
DURACION DEL REGISTRO (s), C1-C6       : /110.75/110.75/110.75
DURACION DEL REGISTRO (s), C7-C12      :
NUM. TOTAL DE MUESTRAS, C1-C6          : /11075/11075/11075
NUM. TOTAL DE MUESTRAS, C7-C12         :
ACEL. MAX. (Gal), C1-C6                : /3.60142/-0.87542/-3.20668
ACEL. MAX., C1-C6, EN LA MUESTRA       :
ACEL. MAX. (Gal), C7-C12               :
ACEL. MAX., C7-C12, EN LA MUESTRA      :
UNIDADES DE LOS DATOS                  : Gal (cm/s/s)
FACTOR DE DECIMACION                   : 1
FORMATO DATOS (FORTRAN,10 campos/dato) : 3F10.5


================================================================================
CALIDAD DEL ACELEROGRAMA:
REGISTRO DIGITAL COMPLETO CON TIEMPO ABSOLUTO CORRECTO.


================================================================================
COMENTARIOS:














================================================================================
DATOS DE ACELERACION:
---------+---------+---------+---------+---------+---------+---------+---------+
   CANAL-1   CANAL-2   CANAL-3   CANAL-4   CANAL-5   CANAL-6   CANAL-7   CANAL-8
      N00E        +V      N90W
---------+---------+---------+---------+---------+---------+---------+---------+
[...]
   0.01014   0.08226   0.14519
   0.01014   0.08226   0.14519
   0.01014   0.08226   0.14519
   0.01014   0.08226   0.14519
   0.01014   0.08226   0.38461
   0.01014   0.08226   0.38461
  -0.22928   0.08226   0.38461
  -0.22928   0.08226   0.38461
  -0.22928   0.08226   0.14519
   0.01014   0.08226   0.14519
  -0.22928   0.08226   0.38461
  -0.22928  -0.15716   0.38461
  -0.22928  -0.15716   0.38461
  -0.22928   0.08226   0.38461
  -0.22928   0.08226   0.38461
  -0.22928  -0.15716   0.38461
   0.01014  -0.15716   0.62402
   0.01014  -0.15716   0.62402
   0.24956  -0.15716   0.62402
   0.24956  -0.15716   0.62402
   0.24956   0.08226   0.86344
   0.24956  -0.15716   0.62402
   0.24956  -0.15716   0.62402
   0.24956  -0.15716   0.86344
   0.48898  -0.15716   0.86344
   0.24956  -0.15716   0.86344
   0.24956  -0.15716   0.86344
   0.24956  -0.15716   0.86344
   0.24956   0.08226   0.86344
   0.24956  -0.15716   0.86344
   0.24956   0.08226   0.86344
   0.48898   0.08226   0.62402
   0.24956   0.08226   0.62402
   0.24956   0.08226   0.62402
   0.24956   0.08226   0.38461
   0.48898   0.08226   0.62402
   0.48898   0.08226   0.62402
   0.48898   0.08226   0.62402
   0.48898   0.08226   0.62402
   0.48898   0.08226   0.62402
   0.48898  -0.15716   0.38461
   0.48898  -0.15716   0.38461
   0.48898   0.08226   0.38461
   0.48898  -0.15716   0.14519
   0.48898  -0.39658   0.14519
   0.24956  -0.15716   0.14519
   0.24956  -0.15716  -0.09423
   0.48898  -0.39658  -0.09423
   0.24956  -0.15716  -0.09423
   0.24956  -0.15716  -0.09423
   0.01014  -0.15716  -0.09423
   0.01014  -0.15716  -0.09423
   0.01014  -0.15716  -0.09423
   0.01014  -0.39658  -0.33365
   0.01014  -0.15716  -0.09423
   0.01014  -0.15716  -0.09423
   0.01014  -0.39658  -0.33365
   0.01014  -0.39658  -0.09423
   0.01014  -0.15716  -0.09423
   0.01014  -0.15716  -0.09423
   0.01014  -0.15716  -0.09423
   0.01014   0.08226  -0.09423
  -0.22928   0.08226  -0.33365
  -0.22928   0.08226  -0.33365
   0.01014   0.08226  -0.57307
  -0.22928   0.08226  -0.57307
  -0.22928   0.08226  -0.57307
  -0.22928   0.32168  -0.57307
  -0.22928   0.32168  -0.57307
  -0.22928   0.32168  -0.81249
  -0.22928   0.32168  -0.57307
  -0.22928   0.32168  -0.81249
  -0.22928   0.32168  -0.57307
   0.01014   0.08226  -0.57307
  -0.22928   0.32168  -0.57307
   0.01014   0.08226  -0.57307
   0.24956   0.08226  -0.57307
   0.24956  -0.15716  -0.57307
   0.24956   0.08226  -0.57307
   0.48898   0.08226  -0.81249
   0.24956   0.08226  -0.57307
   0.24956   0.08226  -0.57307
   0.48898   0.08226  -0.81249
   0.48898   0.08226  -0.81249
   0.48898   0.08226  -0.81249
   0.48898   0.08226  -0.57307
   0.48898  -0.15716  -1.05191
   0.48898   0.08226  -0.81249
   0.48898  -0.15716  -0.81249
   0.48898  -0.15716  -0.57307
   0.48898  -0.15716  -0.57307
   0.24956   0.08226  -0.57307
   0.24956  -0.15716  -0.57307
   0.24956  -0.15716  -0.57307
   0.24956  -0.15716  -0.33365
   0.48898  -0.15716  -0.57307
   0.48898  -0.15716  -0.33365
   0.48898   0.08226  -0.33365
   0.48898  -0.15716  -0.33365
   0.48898   0.08226  -0.33365
   0.48898   0.08226  -0.33365
   0.48898   0.08226  -0.33365
   0.48898   0.08226  -0.33365
   0.24956   0.08226  -0.09423
   0.48898   0.08226  -0.33365
   0.24956   0.08226  -0.09423
   0.24956   0.08226  -0.09423
   0.01014   0.08226   0.14519
   0.24956   0.08226   0.14519
   0.01014   0.08226   0.38461
   0.01014   0.08226   0.38461
   0.01014   0.32168   0.62402
  -0.22928   0.32168   0.86344
   0.01014   0.08226   0.86344
   0.01014   0.08226   0.86344
  -0.22928   0.08226   1.10286
  -0.22928   0.32168   1.10286
  -0.22928   0.32168   1.10286
  -0.22928   0.08226   1.10286
   0.01014   0.08226   1.10286
  -0.22928   0.08226   0.86344
  -0.22928   0.08226   0.86344
  -0.22928  -0.15716   0.86344
  -0.22928  -0.15716   0.62402
  -0.46870  -0.15716   0.62402
  -0.46870   0.08226   0.62402
  -0.46870   0.08226   0.62402
  -0.46870   0.08226   0.62402
  -0.70812   0.32168   0.62402
  -0.46870   0.08226   0.86344
  -0.70812   0.32168   0.86344
  -0.70812   0.32168   0.62402
  -0.46870   0.32168   0.62402
  -0.70812   0.32168   0.62402
  -0.70812   0.32168   0.86344
  -0.46870   0.32168   0.62402
  -0.70812   0.32168   0.62402
  -0.46870   0.08226   0.38461
  -0.70812   0.08226   0.38461
  -0.70812   0.08226   0.62402
  -0.70812   0.08226   0.38461
  -0.70812   0.08226   0.38461
  -0.70812   0.08226   0.62402
  -0.70812  -0.15716   0.62402
  -0.94754   0.08226   0.62402
  -0.94754   0.08226   0.38461
  -0.70812   0.08226   0.38461
  -0.70812   0.32168   0.38461
  -0.70812   0.32168   0.38461
  -0.70812   0.32168   0.38461
  -0.70812   0.08226   0.14519
  -0.70812   0.32168   0.14519
  -0.70812   0.32168   0.14519
  -0.46870   0.32168   0.14519
  -0.22928   0.32168   0.14519
  -0.22928   0.32168   0.14519
   0.01014   0.32168   0.14519
  -0.22928   0.56109   0.14519
   0.01014   0.32168   0.14519
   0.01014   0.32168   0.14519
   0.01014   0.32168  -0.09423
   0.24956   0.32168  -0.09423
   0.24956   0.32168  -0.33365
   0.24956   0.32168  -0.09423
   0.24956   0.32168  -0.09423
   0.24956   0.56109  -0.33365
   0.24956   0.32168  -0.09423
   0.24956   0.32168  -0.33365
   0.48898   0.08226  -0.33365
   0.72840   0.08226  -0.57307
   0.72840   0.08226  -0.33365
   0.96781   0.08226  -0.33365
   0.72840   0.08226  -0.33365
   0.96781  -0.15716  -0.57307
   1.20723  -0.15716  -0.57307
   0.96781  -0.15716  -0.57307
   0.96781  -0.15716  -0.57307
   0.96781  -0.39658  -0.81249
   0.96781  -0.15716  -0.81249
   1.20723  -0.39658  -0.81249
   0.96781  -0.15716  -0.57307
   0.96781  -0.15716  -0.81249
   1.20723  -0.15716  -0.81249
   1.20723  -0.39658  -0.81249
   1.20723  -0.15716  -0.81249
   1.20723  -0.15716  -0.57307
   1.20723  -0.15716  -0.81249
   1.20723  -0.15716  -0.81249
   0.96781   0.08226  -0.81249
   0.96781   0.08226  -0.81249
   0.96781   0.08226  -0.81249
   0.72840   0.08226  -1.05191
   0.72840   0.08226  -1.29133
   0.72840   0.08226  -1.05191
   0.48898   0.08226  -0.81249
   0.48898  -0.15716  -1.05191
   0.48898  -0.15716  -1.05191
   0.24956  -0.15716  -1.05191
   0.24956   0.08226  -0.81249
   0.01014   0.08226  -1.05191
   0.01014  -0.15716  -0.81249
  -0.22928   0.08226  -0.57307
  -0.46870   0.08226  -0.57307
  -0.46870   0.08226  -0.57307
  -0.46870   0.08226  -0.57307
  -0.46870   0.08226  -0.57307
  -0.70812   0.08226  -0.57307
  -0.70812   0.32168  -0.81249
  -0.70812   0.32168  -0.81249
  -0.70812   0.32168  -0.33365
  -0.70812   0.32168  -0.57307
  -0.70812   0.32168  -0.57307
  -0.70812   0.32168  -0.57307
  -0.70812   0.32168  -0.33365
  -0.70812   0.32168  -0.09423
  -0.94754   0.32168  -0.09423
  -0.70812   0.08226  -0.09423
  -1.18696   0.08226   0.14519
  -1.18696   0.08226   0.38461
  -1.42637   0.08226   0.14519
  -1.42637  -0.15716   0.38461
  -1.66579  -0.15716   0.14519
  -1.90521  -0.15716   0.38461
  -1.66579   0.08226   0.14519
  -1.66579  -0.15716   0.14519
  -1.66579  -0.15716   0.38461
  -1.66579  -0.15716   0.38461
  -1.42637  -0.15716   0.38461
  -1.42637  -0.15716   0.62402
  -1.18696   0.08226   0.62402
  -1.18696   0.08226   0.62402
  -1.42637   0.08226   0.62402
  -1.18696   0.32168   0.62402
  -0.94754   0.32168   0.62402
  -0.94754   0.32168   0.86344
  -0.94754   0.56109   0.86344
  -0.94754   0.56109   0.62402
  -0.70812   0.32168   0.62402
  -0.70812   0.32168   0.62402
  -0.46870   0.08226   0.86344
  -0.46870   0.08226   0.86344
  -0.22928   0.08226   1.10286
  -0.22928   0.08226   1.10286
  -0.22928  -0.15716   1.10286
  -0.22928   0.08226   1.34228
  -0.22928  -0.15716   1.34228
   0.01014  -0.15716   1.34228
  -0.22928  -0.39658   1.34228
  -0.22928  -0.15716   1.10286
  -0.22928   0.08226   1.10286
   0.01014  -0.15716   1.10286
   0.01014  -0.15716   1.10286
   0.24956  -0.39658   1.10286
   0.01014  -0.39658   1.10286
   0.24956  -0.39658   1.10286
   0.24956  -0.39658   1.10286
   0.48898  -0.39658   1.34228
   0.24956  -0.15716   1.34228
   0.48898  -0.15716   1.58170
   0.48898  -0.39658   1.58170
   0.48898  -0.15716   1.58170
   0.48898  -0.15716   1.58170
   0.48898  -0.39658   1.34228
   0.48898  -0.15716   1.34228
   0.48898  -0.15716   1.34228
   0.48898  -0.39658   1.10286
   0.48898  -0.39658   0.86344
   0.48898  -0.15716   1.10286
   0.72840  -0.39658   1.10286
   0.48898  -0.15716   1.10286
   0.72840  -0.39658   1.10286
   0.48898  -0.39658   1.10286
   0.48898  -0.39658   1.10286
   0.48898  -0.39658   1.10286
   0.48898  -0.39658   1.10286
   0.48898  -0.39658   1.10286
   0.24956  -0.15716   1.34228
   0.48898  -0.39658   1.10286
   0.24956  -0.15716   1.34228
   0.24956  -0.15716   1.10286
   0.24956  -0.15716   1.10286
   0.01014  -0.15716   1.34228
   0.01014  -0.15716   1.10286
  -0.22928  -0.39658   1.10286
  -0.22928  -0.15716   1.10286
  -0.22928  -0.15716   1.10286
  -0.46870  -0.15716   1.10286
  -0.46870  -0.15716   0.86344
  -0.46870  -0.15716   0.86344
  -0.46870  -0.39658   0.86344
  -0.94754  -0.15716   1.10286
  -0.70812  -0.39658   0.62402
  -0.94754  -0.15716   0.62402
  -0.94754  -0.39658   0.62402
  -1.18696  -0.15716   0.62402
  -1.18696  -0.39658   0.38461
  -1.18696  -0.15716   0.38461
  -1.42637  -0.15716   0.14519
  -1.42637  -0.15716   0.14519
  -1.66579  -0.15716   0.14519
  -1.66579  -0.15716  -0.33365
  -1.42637   0.08226  -0.33365
  -1.42637   0.08226  -0.33365
  -1.66579   0.08226  -0.33365
  -1.66579   0.08226  -0.81249
  -1.66579   0.08226  -0.81249
  -1.66579   0.08226  -0.81249
  -1.66579  -0.15716  -0.81249
  -1.66579  -0.15716  -1.05191
  -1.90521  -0.15716  -1.05191
  -1.90521  -0.15716  -1.05191
  -1.90521  -0.15716  -1.05191
  -1.90521  -0.39658  -1.05191
  -1.90521  -0.15716  -1.29133
  -1.90521  -0.39658  -1.29133
  -1.66579  -0.15716  -1.29133
  -1.66579  -0.15716  -1.29133
  -1.18696  -0.15716  -1.53075
  -1.18696  -0.15716  -1.53075
  -0.94754   0.08226  -1.77017
  -0.70812   0.32168  -2.00958
  -0.46870   0.32168  -1.77017
  -0.22928   0.32168  -2.00958
  -0.22928   0.32168  -2.00958
   0.24956   0.08226  -2.00958
   0.24956   0.32168  -2.00958
   0.48898   0.08226  -2.00958
   0.48898   0.08226  -2.00958
   0.48898   0.08226  -2.00958
   0.72840  -0.15716  -2.00958
   0.96781  -0.15716  -1.77017
   1.20723  -0.15716  -1.77017
   1.20723  -0.15716  -1.53075
   1.44665  -0.15716  -1.77017
   1.68607  -0.39658  -1.77017
   1.92549  -0.39658  -1.77017
   1.92549  -0.39658  -1.53075
   2.16491  -0.39658  -1.53075
   2.16491  -0.39658  -1.53075
   2.64375  -0.39658  -1.53075
   2.64375  -0.39658  -1.29133
   2.64375  -0.15716  -1.29133
   3.12259  -0.15716  -1.05191
   3.12259  -0.15716  -1.05191
   3.12259  -0.15716  -0.81249
   3.36200  -0.15716  -0.81249
   3.36200   0.08226  -0.57307
   3.36200   0.08226  -0.57307
   3.36200   0.08226  -0.33365
   3.60142   0.08226  -0.09423
   3.60142   0.32168  -0.09423
   3.60142   0.08226  -0.09423
   3.36200   0.32168  -0.09423
   3.60142   0.56109  -0.09423
   3.60142   0.56109  -0.09423
   3.60142   0.56109  -0.09423
   3.60142   0.56109   0.14519
   3.36200   0.56109   0.14519
   3.36200   0.32168   0.14519
   3.36200   0.32168   0.14519
   3.12259   0.08226   0.38461
   2.88317  -0.15716   0.14519
   2.88317  -0.15716   0.14519
   2.64375  -0.15716   0.14519
   2.40433  -0.39658   0.14519
   2.40433  -0.39658   0.14519
   1.92549  -0.39658   0.14519
   1.68607  -0.15716  -0.09423
   1.68607  -0.39658  -0.09423
   1.44665  -0.15716  -0.09423
   1.20723  -0.15716  -0.33365
   0.96781  -0.15716  -0.33365
   0.72840   0.08226  -0.33365
   0.48898   0.32168  -0.33365
   0.48898   0.32168  -0.33365
   0.01014   0.32168  -0.33365
   0.01014   0.32168  -0.33365
  -0.46870   0.32168  -0.33365
  -0.46870   0.08226  -0.57307
  -0.94754   0.32168  -0.33365
  -0.94754   0.08226  -0.33365
  -0.94754   0.08226  -0.33365
  -1.18696   0.08226  -0.33365
  -1.18696   0.08226  -0.33365
  -1.42637   0.08226  -0.09423
  -1.66579   0.08226  -0.09423
  -1.66579   0.08226  -0.09423
  -1.66579   0.32168  -0.33365
  -1.90521   0.32168  -0.33365
  -1.90521   0.32168  -0.33365
  -2.14463   0.56109  -0.33365
  -1.90521   0.56109  -0.33365
  -1.90521   0.80051  -0.57307
  -1.90521   0.56109  -0.57307
  -1.90521   0.80051  -0.57307
  -1.90521   0.80051  -0.81249
  -1.90521   0.56109  -0.57307
  -1.66579   0.56109  -0.57307
  -1.66579   0.56109  -0.57307
  -1.66579   0.32168  -0.57307
  -1.66579   0.32168  -0.57307
  -1.66579   0.08226  -0.57307
  -1.66579   0.32168  -0.57307
  -1.66579   0.32168  -0.57307
  -1.42637   0.32168  -0.57307
  -1.42637   0.32168  -0.57307
  -1.18696   0.32168  -0.33365
  -0.94754   0.32168  -0.33365
  -0.94754   0.32168  -0.57307
  -0.94754   0.32168  -0.33365
  -0.70812   0.08226  -0.33365
  -0.46870   0.32168  -0.09423
  -0.46870   0.32168  -0.09423
  -0.22928   0.08226  -0.09423
   0.01014  -0.15716  -0.09423
   0.01014  -0.15716   0.14519
   0.01014   0.08226   0.14519
   0.24956  -0.15716   0.38461
   0.24956  -0.15716   0.14519
   0.24956  -0.15716   0.38461
   0.24956  -0.15716   0.38461
   0.48898  -0.15716   0.38461
   0.72840  -0.15716   0.62402
   0.72840  -0.39658   0.62402
   0.72840  -0.39658   0.62402
   0.96781  -0.39658   0.62402
   0.96781  -0.63600   0.62402
   0.96781  -0.39658   0.86344
   0.96781  -0.39658   0.86344
   1.20723  -0.39658   0.86344
   0.96781  -0.63600   1.10286
   0.96781  -0.39658   1.10286
   0.96781  -0.39658   1.10286
   0.96781  -0.39658   1.10286
   0.96781  -0.39658   1.10286
   0.72840  -0.39658   1.34228
   0.72840  -0.15716   1.34228
   0.48898  -0.15716   1.34228
   0.48898  -0.15716   1.34228
   0.48898  -0.15716   1.34228
   0.48898   0.08226   1.58170
   0.24956   0.08226   1.34228
   0.24956   0.08226   1.34228
   0.24956   0.08226   1.10286
   0.24956   0.08226   1.34228
   0.01014   0.08226   1.10286
  -0.22928   0.32168   1.10286
  -0.22928   0.08226   0.86344
  -0.22928   0.32168   1.10286
  -0.22928   0.32168   0.86344
  -0.46870   0.08226   0.86344
  -0.46870   0.08226   0.62402
  -0.70812   0.08226   0.62402
  -0.46870  -0.15716   0.62402
  -0.70812   0.08226   0.62402
  -0.70812   0.08226   0.62402
  -0.70812   0.08226   0.62402
  -0.70812   0.08226   0.62402
  -0.94754   0.32168   0.38461
  -0.94754   0.08226   0.38461
  -0.70812   0.32168   0.14519
  -0.94754   0.32168   0.14519
  -0.70812   0.32168  -0.09423
  -0.70812   0.32168  -0.09423
  -0.70812   0.32168  -0.33365
  -0.70812   0.08226  -0.33365
  -0.70812   0.08226  -0.57307
  -0.70812   0.08226  -0.57307
  -0.70812  -0.15716  -0.57307
  -0.70812  -0.15716  -0.57307
  -0.70812  -0.15716  -0.33365
  -0.70812  -0.15716  -0.33365
  -0.70812  -0.39658  -0.33365
  -0.70812  -0.39658  -0.33365
  -0.70812  -0.63600  -0.09423
  -0.70812  -0.39658  -0.09423
  -0.46870  -0.63600  -0.33365
  -0.46870  -0.63600  -0.09423
  -0.46870  -0.63600  -0.33365
  -0.22928  -0.63600  -0.33365
  -0.22928  -0.39658  -0.33365
  -0.22928  -0.39658  -0.09423
  -0.22928  -0.39658  -0.09423
   0.01014  -0.39658  -0.09423
   0.01014  -0.39658  -0.09423
   0.01014  -0.39658   0.14519
  -0.22928  -0.39658   0.38461
   0.01014  -0.39658   0.38461
   0.01014  -0.15716   0.38461
  -0.22928   0.08226   0.38461
  -0.22928   0.08226   0.62402
  -0.22928  -0.15716   0.38461
  -0.22928   0.08226   0.62402
  -0.22928  -0.15716   0.38461
  -0.22928  -0.15716   0.62402
  -0.46870  -0.15716   0.86344
  -0.46870  -0.15716   0.62402
  -0.70812  -0.15716   0.62402
  -0.70812  -0.15716   0.86344
  -0.70812  -0.39658   0.86344
