********************************************************************************
              CENTRO DE INSTRUMENTACION Y REGISTRO SISMICO  A.C.

    Anaxagoras 814, Col. Narvarte, Benito Juarez, C.P. 03020 Mexico, D.F.
           Tels. 5687 45 42/ 5687 45  82             Fax. 5669 25 12
********************************************************************************
ARCHIVO ESTANDAR DE ACELERACION:
VERSION DEL FORMATO                    : 2.0
NOMBRE DEL ARCHIVO                     : AU4620100630072227
FECHA Y HORA DE CREACION               : 20/JUL/10, 12:41
REF. CATALOGO ACELEROGRAMAS, SMIS 1996 : REGISTRO No.     /PAG.


================================================================================
DATOS DE LA ESTACION:
NOMBRE DE LA ESTACION                  : ESC. SEC. TÉC. NO. 14
CLAVE DE LA ESTACION                   : AU46
LOCALIZACION DE LA ESTACION            : Del. Benito Juárez, Col. del Valle,    
                                       : Entre Angel Urraza y Coyoacán.         
                                       :                                        
                                       :                                        
                                       : 
COORDENADAS DE LA ESTACION             : 19.3832 LAT. N
                                       : 99.1681 LONG. W
ALTITUD (msnm)                         : 2233
TIPO DE SUELO                          : Transición                          
                                       :                           
                                       : 
INSTITUCION RESPONSABLE                : CIRES
                                       : 

================================================================================
DATOS DEL ACELEROGRAFO:
MODELO DEL ACELEROGRAFO                : RADESD
NUMERO DE SERIE DEL ACELEROGRAFO       : 236
NUMERO DE CANALES                      : 3
ORIENTACION C1-C6 (rumbo;orientacion)  : /N00E/+V/N90W
ORIENTACION C7-C12 (rumbo;orientacion) : 
VEL. DE MUESTREO, C1-C6 (muestras/s)   : /100/100/100
VEL. DE MUESTREO, C7-C12 (muestras/s)  : 
ESC. COMPLETA DE SENSORES, C1-C6, (g)  : /0.5/0.5/0.5
ESC. COMPLETA DE SENSORES, C7-C12, (g) : 
FREC. NAT. DE SENSORES, C1-C6, (Hz)    : /33/30/30
FREC. NAT. DE SENSORES, C7-C12, (Hz)   : 
AMORTIGUAMIENTO DE SENSORES, C1-C6     : /0.735/0.733/0.730
AMORTIGUAMIENTO DE SENSORES, C7-C12    : 
INTERVALO DE MUESTREO, C1-C6, (s)      : /0.01/0.01/0.01
INTERVALO DE MUESTREO, C7-C12, (s)     : 
UMBRAL DE DISPARO, C1-C6, (Gal)        : /2.39/5.51/5.27
UMBRAL DE DISPARO, C7-C12, (Gal)       : 
MEMORIA DE PREEVENTO (s)               : 56.0
TIEMPO DE POSEVENTO (s)                : 64.0


================================================================================
DATOS DEL SISMO:
FECHA DEL SISMO (GMT)                  : 30/JUN/10
HORA EPICENTRO (GMT)                   : 07:22:27.0
MAGNITUD(ES)                           : /Mc=6.0
COORDENADAS DEL EPICENTRO              : 16.22 LAT. N
                                       : 98.03 LONG. W
PROFUNDIDAD FOCAL (km)                 : 8
FUENTE DE LOS DATOS EPICENTRALES       : SSN
                                       : INSTITUTO DE GEOFISICA, UNAM

================================================================================
DATOS DE ESTE REGISTRO:
HORA DE LA PRIMERA MUESTRA (GMT)       : 07:24:13.00
EXACTITUD DEL TIEMPO (s)               : 0.01
DURACION DEL REGISTRO (s), C1-C6       : /130.0/130.0/130.0
DURACION DEL REGISTRO (s), C7-C12      : 
NUM. TOTAL DE MUESTRAS, C1-C6          : /13000/13000/13000
NUM. TOTAL DE MUESTRAS, C7-C12         : 
ACEL. MAX. (Gal), C1-C6                : /4.90134/1.11491/6.66559
ACEL. MAX., C1-C6, EN LA MUESTRA       : /5806/6246/5668
ACEL. MAX. (Gal), C7-C12               : 
ACEL. MAX., C7-C12, EN LA MUESTRA      : 
UNIDADES DE LOS DATOS                  : Gal (cm/s/s)
FACTOR DE DECIMACION                   : 1
FORMATO DATOS (FORTRAN,10 campos/dato) : 3F10.5


================================================================================
CALIDAD DEL ACELEROGRAMA:
REGISTRO DIGITAL COMPLETO CON TIEMPO ABSOLUTO CORRECTO.


================================================================================
COMENTARIOS:














================================================================================
DATOS DE ACELERACION:
---------+---------+---------+---------+---------+---------+---------+---------+
   CANAL-1   CANAL-2   CANAL-3   CANAL-4   CANAL-5   CANAL-6   CANAL-7   CANAL-8
      N00E        +V      N90W
---------+---------+---------+---------+---------+---------+---------+---------+
[...]
   0.12649   0.80046  -0.44066
   0.36591   0.56104  -0.91950
   0.36591   0.32161  -1.15892
   0.36591   0.56104  -1.15892
   0.84475   0.32161  -1.39834
   0.84475   0.32161  -1.63776
   0.84475   0.32161  -1.87718
   0.84475   0.32161  -1.87718
   1.08417   0.32161  -2.11660
   0.84475   0.32161  -2.11660
   1.08417   0.08219  -2.11660
   1.32359   0.08219  -2.35602
   1.32359   0.08219  -2.35602
   1.32359   0.08219  -2.35602
   1.32359   0.08219  -2.59544
   1.56301   0.08219  -2.83486
   1.56301  -0.15723  -2.83486
   1.56301   0.08219  -3.07428
   1.56301   0.08219  -3.07428
   1.56301  -0.15723  -3.07428
   1.56301  -0.15723  -3.07428
   1.56301  -0.15723  -3.07428
   1.56301  -0.39665  -3.07428
   1.08417  -0.39665  -3.07428
   1.08417  -0.39665  -3.07428
   0.84475  -0.39665  -3.07428
   0.60533  -0.39665  -3.07428
   0.36591  -0.39665  -3.07428
   0.12649  -0.63607  -3.07428
  -0.11293  -0.63607  -3.07428
  -0.35235  -0.63607  -2.83486
  -0.35235  -0.63607  -2.83486
  -0.59177  -0.63607  -2.59544
  -0.59177  -0.63607  -2.59544
  -0.83119  -0.87549  -2.35602
  -0.83119  -0.63607  -2.11660
  -1.07061  -0.63607  -1.87718
  -1.31003  -0.87549  -1.63776
  -1.31003  -0.63607  -1.39834
  -1.54945  -0.63607  -1.15892
  -1.54945  -0.87549  -0.91950
  -1.54945  -0.87549  -0.68008
  -1.54945  -0.63607  -0.44066
  -1.54945  -0.63607  -0.44066
  -1.54945  -0.63607  -0.20124
  -1.31003  -0.63607   0.03818
  -1.07061  -0.63607   0.27760
  -1.07061  -0.39665   0.27760
  -1.07061  -0.39665   0.51702
  -1.07061  -0.15723   0.75644
  -0.83119  -0.39665   0.75644
  -0.59177  -0.15723   0.99586
  -0.59177   0.08219   1.23528
  -0.35235   0.08219   1.23528
  -0.35235   0.08219   1.47470
  -0.35235   0.08219   1.71412
  -0.11293   0.08219   1.71412
   0.12649   0.08219   1.71412
   0.36591   0.32161   1.71412
   0.36591   0.08219   1.95354
   0.60533   0.08219   1.95354
   0.84475   0.08219   1.95354
   0.84475   0.08219   1.95354
   1.08417  -0.15723   2.19296
   1.08417   0.08219   2.19296
   1.32359   0.08219   2.19296
   1.56301   0.08219   1.95354
   1.56301   0.08219   2.19296
   1.56301   0.08219   2.19296
   1.56301   0.08219   1.95354
   1.80243   0.08219   1.71412
   1.80243   0.08219   1.47470
   1.80243  -0.15723   1.23528
   1.80243  -0.15723   0.99586
   1.56301  -0.15723   0.75644
   1.56301  -0.15723   0.51702
   1.56301  -0.39665   0.27760
   1.32359  -0.39665   0.03818
   1.08417  -0.39665  -0.20124
   1.32359  -0.63607  -0.44066
   1.08417  -0.63607  -0.68008
   0.84475  -0.39665  -0.68008
   0.60533  -0.39665  -0.91950
   0.84475  -0.15723  -0.91950
   0.60533  -0.15723  -1.15892
   0.36591   0.08219  -1.15892
   0.12649   0.08219  -1.39834
  -0.11293   0.32161  -1.39834
  -0.11293   0.32161  -1.39834
  -0.11293   0.08219  -1.87718
  -0.35235   0.08219  -1.63776
  -0.35235   0.08219  -1.87718
  -0.59177   0.08219  -1.87718
  -0.59177   0.08219  -2.11660
  -0.59177   0.08219  -2.11660
  -0.59177  -0.15723  -2.11660
  -0.83119  -0.15723  -2.35602
  -0.83119   0.08219  -2.11660
  -1.07061  -0.15723  -2.11660
  -1.07061   0.08219  -2.35602
  -1.31003   0.08219  -2.35602
  -1.54945   0.08219  -2.11660
  -1.54945   0.08219  -1.87718
  -1.54945   0.08219  -1.87718
  -1.54945   0.08219  -1.63776
  -1.54945   0.08219  -1.39834
  -1.31003   0.08219  -1.15892
  -1.07061   0.08219  -0.91950
  -1.31003   0.08219  -0.68008
  -1.31003   0.32161  -0.44066
  -1.07061   0.32161  -0.44066
  -1.07061   0.32161  -0.20124
  -0.83119   0.32161   0.03818
  -0.83119   0.32161   0.27760
  -0.83119   0.32161   0.27760
  -1.07061   0.08219   0.51702
  -1.07061   0.08219   0.75644
  -1.07061  -0.15723   0.75644
  -0.83119  -0.15723   0.99586
  -1.07061  -0.15723   0.99586
  -0.83119  -0.39665   1.23528
  -0.83119  -0.15723   1.23528
  -0.83119  -0.15723   1.23528
  -0.59177  -0.39665   1.23528
  -0.59177  -0.39665   1.47470
  -0.11293  -0.39665   1.47470
   0.12649  -0.15723   1.47470
   0.36591  -0.15723   1.71412
   0.60533  -0.15723   1.95354
   0.84475   0.08219   1.95354
   1.08417   0.08219   2.19296
   1.08417   0.32161   2.43238
   1.08417   0.08219   2.43238
   1.32359   0.08219   2.67180
   1.32359   0.08219   2.67180
   1.32359   0.32161   2.91122
   1.32359   0.08219   2.91122
   1.32359  -0.15723   2.91122
   1.32359  -0.15723   2.91122
   1.32359  -0.15723   2.91122
   1.32359  -0.15723   3.15064
   1.08417  -0.15723   3.15064
   1.32359  -0.15723   3.39006
   1.32359  -0.15723   3.39006
   1.08417  -0.15723   3.15064
   1.08417  -0.39665   3.39006
   1.08417  -0.15723   3.39006
   1.08417  -0.15723   3.39006
   1.08417  -0.15723   3.15064
   0.84475  -0.15723   2.91122
   0.84475  -0.15723   2.67180
   0.84475   0.08219   2.67180
   0.60533  -0.15723   2.43238
   0.36591   0.08219   2.19296
   0.36591   0.08219   1.95354
   0.36591   0.08219   1.71412
   0.36591   0.32161   1.71412
   0.36591   0.32161   1.47470
   0.12649   0.32161   1.23528
  -0.11293   0.56104   1.23528
  -0.11293   0.56104   1.23528
  -0.11293   0.80046   0.99586
  -0.11293   0.80046   0.75644
  -0.11293   0.80046   0.51702
  -0.35235   1.03988   0.51702
  -0.35235   0.80046   0.03818
  -0.35235   0.80046  -0.20124
  -0.35235   0.56104  -0.68008
  -0.35235   0.56104  -0.91950
  -0.35235   0.32161  -1.15892
  -0.35235   0.32161  -1.39834
  -0.35235   0.32161  -1.39834
  -0.35235   0.08219  -1.87718
  -0.35235   0.08219  -2.11660
  -0.35235   0.08219  -2.11660
  -0.35235   0.08219  -2.35602
  -0.59177   0.08219  -2.35602
  -0.35235   0.08219  -2.59544
  -0.59177   0.08219  -2.59544
  -0.59177   0.32161  -2.83486
  -0.35235   0.32161  -2.83486
  -0.11293   0.56104  -2.83486
  -0.35235   0.56104  -2.83486
  -0.35235   0.56104  -2.83486
  -0.35235   0.56104  -2.83486
  -0.35235   0.32161  -2.83486
  -0.11293   0.32161  -2.83486
  -0.11293   0.32161  -3.07428
   0.12649   0.32161  -2.83486
   0.12649   0.08219  -2.83486
   0.12649   0.08219  -2.59544
   0.12649  -0.15723  -2.59544
   0.12649  -0.15723  -2.35602
   0.36591  -0.15723  -2.35602
   0.36591   0.08219  -1.87718
   0.12649  -0.39665  -1.87718
   0.36591  -0.39665  -1.63776
   0.36591  -0.39665  -1.63776
   0.60533  -0.39665  -1.39834
   0.60533  -0.39665  -1.15892
   0.60533  -0.39665  -0.91950
   0.84475  -0.15723  -0.44066
   1.08417  -0.15723  -0.20124
   1.08417  -0.15723   0.03818
   1.32359   0.08219   0.51702
   1.56301   0.08219   0.75644
   1.56301   0.08219   1.23528
   1.56301   0.08219   1.47470
   1.80243   0.08219   1.47470
   1.80243   0.08219   1.71412
   1.80243   0.08219   1.71412
   1.56301   0.32161   1.71412
   1.56301   0.32161   1.95354
   1.56301   0.56104   1.95354
   1.56301   0.56104   1.95354
   1.56301   0.56104   1.71412
   1.56301   0.32161   1.95354
   1.56301   0.32161   1.95354
   1.56301   0.32161   1.95354
   1.80243   0.32161   1.95354
   1.80243   0.32161   1.95354
   1.56301   0.32161   1.95354
   1.56301   0.08219   1.71412
   1.56301   0.08219   1.71412
   1.32359   0.08219   1.71412
   1.08417   0.08219   1.47470
   1.08417   0.08219   1.23528
   0.84475   0.08219   0.99586
   0.84475   0.08219   0.99586
   0.60533   0.08219   0.75644
   0.60533   0.08219   0.51702
   0.60533   0.32161   0.27760
   0.36591   0.32161   0.03818
   0.36591   0.56104  -0.20124
   0.36591   0.80046  -0.44066
   0.12649   0.80046  -0.44066
  -0.11293   0.80046  -0.68008
  -0.35235   0.80046  -0.91950
  -0.35235   0.80046  -1.15892
  -0.59177   0.80046  -1.15892
  -0.83119   0.56104  -1.39834
  -1.07061   0.56104  -1.39834
  -1.31003   0.56104  -1.39834
  -1.54945   0.56104  -1.63776
  -1.54945   0.08219  -1.87718
  -1.78887   0.08219  -1.87718
  -2.02829   0.08219  -2.11660
  -2.26771  -0.15723  -2.11660
  -2.26771  -0.15723  -2.35602
  -2.50713  -0.39665  -2.35602
  -2.50713  -0.39665  -2.35602
  -2.98597  -0.39665  -2.35602
  -2.98597  -0.63607  -2.35602
  -3.22539  -0.39665  -2.11660
  -3.22539  -0.39665  -2.11660
  -3.22539  -0.39665  -2.11660
  -3.22539  -0.39665  -2.11660
  -3.22539  -0.15723  -2.11660
  -3.22539  -0.39665  -1.87718
  -2.98597  -0.39665  -1.87718
  -2.98597  -0.39665  -1.63776
  -2.98597  -0.15723  -1.39834
  -2.74655  -0.39665  -0.91950
  -2.74655  -0.39665  -0.91950
  -2.98597  -0.39665  -0.44066
  -2.74655  -0.39665  -0.44066
  -2.74655  -0.39665  -0.20124
  -2.74655  -0.39665  -0.20124
  -2.74655  -0.39665  -0.20124
  -2.50713  -0.63607   0.03818
  -2.26771  -0.39665   0.03818
  -1.78887  -0.39665   0.27760
  -1.31003  -0.39665   0.27760
  -0.83119  -0.39665   0.27760
  -0.35235  -0.15723   0.75644
   0.12649  -0.15723   0.75644
   0.60533  -0.15723   0.99586
   0.84475   0.08219   1.23528
   1.32359   0.08219   1.23528
   1.56301   0.32161   1.47470
   1.56301   0.32161   1.71412
   1.80243   0.32161   1.71412
   1.80243   0.56104   1.71412
   1.80243   0.56104   1.71412
   2.04185   0.56104   1.71412
   2.28127   0.32161   1.71412
   2.28127   0.32161   1.95354
   2.28127   0.32161   1.95354
   2.52069   0.32161   2.19296
   2.52069   0.32161   2.19296
   2.52069   0.32161   2.19296
   2.76011   0.32161   2.43238
   2.99953   0.08219   2.43238
   2.99953   0.08219   2.43238
   2.99953   0.08219   2.67180
   2.99953   0.08219   2.67180
   2.76011   0.32161   2.91122
   2.76011   0.08219   2.91122
   2.52069   0.08219   3.15064
   2.52069   0.32161   3.15064
   2.28127   0.08219   3.15064
   2.28127   0.08219   3.15064
   2.04185   0.08219   3.15064
   2.04185   0.08219   3.15064
   1.56301   0.08219   2.91122
   1.56301  -0.15723   2.91122
   1.08417  -0.15723   2.67180
   0.84475  -0.39665   2.43238
   0.60533  -0.39665   2.43238
   0.12649  -0.39665   2.43238
  -0.11293  -0.39665   2.19296
  -0.59177  -0.39665   1.95354
  -0.83119  -0.39665   1.71412
  -1.07061  -0.63607   1.47470
  -1.31003  -0.39665   1.23528
  -1.54945  -0.63607   0.99586
  -1.78887  -0.63607   0.75644
  -2.02829  -0.63607   0.27760
  -2.02829  -0.63607   0.03818
  -2.26771  -0.63607   0.03818
  -2.50713  -0.63607  -0.44066
  -2.50713  -0.63607  -0.68008
  -2.74655  -0.39665  -0.91950
  -2.98597  -0.39665  -1.15892
  -2.98597  -0.39665  -1.63776
  -3.22539  -0.39665  -1.87718
  -3.22539  -0.39665  -2.11660
  -3.46481  -0.39665  -2.35602
  -3.46481  -0.39665  -2.83486
  -3.46481  -0.39665  -3.07428
  -3.22539  -0.39665  -3.55312
  -3.22539  -0.63607  -3.79254
  -3.46481  -0.39665  -4.03196
  -2.98597  -0.63607  -4.27138
  -2.98597  -0.63607  -4.27138
  -2.98597  -0.63607  -4.51080
  -2.74655  -0.63607  -4.75023
  -2.50713  -0.63607  -4.98965
  -2.50713  -0.63607  -5.22907
  -2.26771  -0.63607  -5.46849
  -2.02829  -0.63607  -5.70791
  -2.02829  -0.39665  -5.70791
  -1.54945  -0.39665  -6.18675
  -1.54945  -0.39665  -6.18675
  -1.07061  -0.39665  -6.42617
  -1.07061  -0.39665  -6.42617
  -0.59177  -0.15723  -6.66559
  -0.35235  -0.15723  -6.66559
  -0.35235  -0.15723  -6.66559
   0.12649  -0.15723  -6.66559
   0.36591  -0.15723  -6.66559
   0.84475  -0.15723  -6.42617
   1.08417  -0.15723  -6.18675
   1.32359  -0.15723  -6.18675
   1.56301  -0.39665  -5.94733
   1.80243  -0.15723  -5.70791
   2.04185  -0.39665  -5.46849
   2.28127  -0.15723  -5.22907
   2.76011  -0.15723  -4.98965
   2.99953  -0.15723  -4.51080
   2.99953  -0.15723  -4.27138
   3.23895  -0.15723  -3.55312
   3.47837   0.08219  -3.07428
   3.47837   0.08219  -2.35602
   3.47837   0.08219  -1.87718
   3.47837   0.08219  -1.39834
   3.47837   0.32161  -0.68008
   3.23895   0.32161  -0.20124
   3.23895   0.56104   0.27760
   3.23895   0.32161   0.75644
   3.23895   0.32161   0.99586
   3.23895   0.32161   1.47470
   2.99953   0.56104   1.71412
   2.99953   0.56104   2.19296
   2.99953   0.56104   2.43238
   2.76011   0.32161   2.91122
   2.76011   0.32161   3.15064
   2.76011   0.32161   3.62948
   2.52069   0.32161   3.62948
   2.28127   0.32161   3.86890
   2.04185   0.32161   4.10832
   1.80243   0.08219   4.34774
   1.56301   0.08219   4.34774
   1.32359  -0.15723   4.58716
   1.32359   0.08219   4.82658
   1.32359  -0.15723   5.06600
   0.84475  -0.15723   5.30542
   0.84475  -0.15723   5.30542
   0.60533   0.08219   5.54484
   0.60533  -0.15723   5.78426
   0.60533  -0.15723   5.78426
   0.36591  -0.15723   5.78426
   0.36591  -0.39665   6.02368
   0.36591  -0.39665   5.78426
   0.12649  -0.39665   5.78426
   0.12649  -0.39665   5.78426
  -0.11293  -0.39665   5.54484
  -0.11293  -0.39665   5.54484
  -0.35235  -0.39665   5.30542
  -0.35235  -0.39665   5.06600
  -0.59177  -0.39665   5.06600
  -0.59177  -0.15723   4.58716
  -0.83119  -0.15723   4.82658
  -0.83119  -0.15723   4.34774
  -1.07061  -0.39665   4.34774
  -1.07061  -0.39665   3.86890
  -1.07061  -0.15723   3.86890
  -1.31003  -0.39665   3.39006
  -1.54945  -0.39665   3.15064
  -1.78887  -0.15723   3.15064
  -1.78887  -0.39665   2.67180
  -1.78887  -0.39665   2.43238
  -2.02829  -0.39665   2.19296
  -2.02829  -0.39665   2.19296
  -2.02829  -0.39665   1.71412
  -2.02829  -0.39665   1.47470
  -2.02829  -0.15723   0.99586
  -1.78887  -0.39665   0.75644
  -1.54945  -0.15723   0.51702
  -1.78887  -0.15723   0.27760
  -1.54945   0.08219   0.03818
  -1.54945   0.08219  -0.20124
  -1.31003   0.08219  -0.44066
  -1.31003   0.08219  -0.68008
  -1.31003   0.08219  -0.91950
  -1.31003   0.32161  -1.15892
  -1.07061   0.08219  -1.15892
  -1.07061   0.08219  -1.39834
  -0.83119   0.32161  -1.63776
  -0.83119   0.32161  -1.87718
  -0.59177   0.32161  -1.87718
  -0.35235   0.56104  -2.11660
  -0.11293   0.56104  -2.11660
   0.12649   0.32161  -2.59544
   0.36591   0.32161  -2.59544
   0.60533   0.32161  -2.59544
   0.84475   0.32161  -2.83486
   0.84475   0.32161  -2.83486
   1.08417   0.32161  -2.83486
   1.32359   0.32161  -3.07428
   1.56301   0.32161  -2.83486
   1.80243   0.32161  -2.83486
   1.80243   0.56104  -2.83486
   2.04185   0.32161  -2.83486
   1.80243   0.32161  -2.83486
   2.04185   0.32161  -2.83486
   2.28127   0.32161  -2.59544
   2.28127   0.32161  -2.35602
   2.52069   0.56104  -2.35602
   2.52069   0.32161  -2.11660
   2.76011   0.32161  -2.11660
   2.76011   0.32161  -1.63776
   2.76011   0.08219  -1.63776
   2.52069   0.08219  -1.39834
   2.52069   0.08219  -1.39834
   2.52069   0.08219  -1.15892
   2.52069  -0.15723  -0.91950
   2.28127  -0.15723  -0.68008
   2.04185   0.08219  -0.20124
   2.04185   0.08219   0.03818
   1.56301   0.08219   0.51702
   1.56301   0.08219   0.99586
   1.32359  -0.15723   1.23528
   0.84475   0.08219   1.47470
   0.60533  -0.15723   1.95354
   0.36591  -0.39665   2.43238
  -0.11293  -0.39665   2.67180
  -0.35235  -0.39665   2.67180
  -0.83119  -0.39665   2.91122
  -1.07061  -0.63607   2.91122
  -1.54945  -0.63607   3.15064
  -2.02829  -0.39665   3.39006
  -2.50713  -0.39665   3.39006
  -2.74655  -0.39665   3.62948
  -2.98597  -0.39665   3.62948
  -3.46481  -0.15723   3.62948
  -3.70424  -0.15723   3.62948
  -3.94366  -0.15723   3.62948
  -4.18308   0.08219   3.86890
  -4.42250   0.32161   3.62948
  -4.66192   0.32161   3.62948
  -4.66192   0.56104   3.39006
  -4.66192   0.56104   3.39006
  -4.66192   0.56104   3.15064
  -4.90134   0.56104   3.15064
  -4.66192   0.80046   2.91122
  -4.66192   0.56104   2.91122
  -4.66192   0.80046   2.67180
  -4.42250   0.56104   2.43238
  -4.18308   0.56104   2.19296
  -4.18308   0.56104   2.19296
  -3.94366   0.56104   1.95354
  -3.70424   0.56104   1.71412
  -3.46481   0.56104   1.47470
  -2.98597   0.56104   0.99586
  -2.74655   0.56104   0.51702
