********************************************************************************
              CENTRO DE INSTRUMENTACION Y REGISTRO SISMICO  A.C.

    Anaxagoras 814, Col. Narvarte, Benito Juarez, C.P. 03020 Mexico, D.F.
           Tels. 5687 45 42/ 5687 45  82             Fax. 5669 25 12
********************************************************************************
ARCHIVO ESTANDAR DE ACELERACION:
VERSION DEL FORMATO                    : 2.0
NOMBRE DEL ARCHIVO                     : AU4620120402173642
FECHA Y HORA DE CREACION               : 15/MAY/12, 09:41
REF. CATALOGO ACELEROGRAMAS, SMIS 1996 : REGISTRO No.     /PAG.


================================================================================
DATOS DE LA ESTACION:
NOMBRE DE LA ESTACION                  : ESC. SEC. TÉC. NO. 14
CLAVE DE LA ESTACION                   : AU46
LOCALIZACION DE LA ESTACION            : Del. Benito Juárez, Col. del Valle,    
                                       : Entre Angel Urraza y Coyoacán.         
                                       :                                        
                                       :                                        
                                       : 
COORDENADAS DE LA ESTACION             : 19.3832 LAT. N
                                       : 99.1681 LONG. W
ALTITUD (msnm)                         : 2233
TIPO DE SUELO                          : Transición                          
                                       :                           
                                       : 
INSTITUCION RESPONSABLE                : CIRES
                                       : 

================================================================================
DATOS DEL ACELEROGRAFO:
MODELO DEL ACELEROGRAFO                : RADESD
NUMERO DE SERIE DEL ACELEROGRAFO       : 236
NUMERO DE CANALES                      : 3
ORIENTACION C1-C6 (rumbo;orientacion)  : /N00E/+V/N90W
ORIENTACION C7-C12 (rumbo;orientacion) : 
VEL. DE MUESTREO, C1-C6 (muestras/s)   : /100/100/100
VEL. DE MUESTREO, C7-C12 (muestras/s)  : 
ESC. COMPLETA DE SENSORES, C1-C6, (g)  : /0.5/0.5/0.5
ESC. COMPLETA DE SENSORES, C7-C12, (g) : 
FREC. NAT. DE SENSORES, C1-C6, (Hz)    : /33/30/30
FREC. NAT. DE SENSORES, C7-C12, (Hz)   : 
AMORTIGUAMIENTO DE SENSORES, C1-C6     : /0.735/0.733/0.730
AMORTIGUAMIENTO DE SENSORES, C7-C12    : 
INTERVALO DE MUESTREO, C1-C6, (s)      : /0.01/0.01/0.01
INTERVALO DE MUESTREO, C7-C12, (s)     : 
UMBRAL DE DISPARO, C1-C6, (Gal)        : /1.68/4.31/1.92
UMBRAL DE DISPARO, C7-C12, (Gal)       : 
MEMORIA DE PREEVENTO (s)               : 56.0
TIEMPO DE POSEVENTO (s)                : 64.0


================================================================================
DATOS DEL SISMO:
FECHA DEL SISMO (GMT)                  : 02/ABR/12
HORA EPICENTRO (GMT)                   : 17:36:42.0
MAGNITUD(ES)                           : /Mc=6.0
COORDENADAS DEL EPICENTRO              : 16.27 LAT. N
                                       : 98.47 LONG. W
PROFUNDIDAD FOCAL (km)                 : 10
FUENTE DE LOS DATOS EPICENTRALES       : SSN
                                       : INSTITUTO DE GEOFISICA, UNAM

================================================================================
DATOS DE ESTE REGISTRO:
HORA DE LA PRIMERA MUESTRA (GMT)       : 17:38:18.00
EXACTITUD DEL TIEMPO (s)               : 0.01
DURACION DEL REGISTRO (s), C1-C6       : /179.0/179.0/179.0
DURACION DEL REGISTRO (s), C7-C12      : 
NUM. TOTAL DE MUESTRAS, C1-C6          : /17900/17900/17900
NUM. TOTAL DE MUESTRAS, C7-C12         : 
ACEL. MAX. (Gal), C1-C6                : /4.20696/1.1974/4.12443
ACEL. MAX., C1-C6, EN LA MUESTRA       : /6573/5849/6907
ACEL. MAX. (Gal), C7-C12               : 
ACEL. MAX., C7-C12, EN LA MUESTRA      : 
UNIDADES DE LOS DATOS                  : Gal (cm/s/s)
FACTOR DE DECIMACION                   : 1
FORMATO DATOS (FORTRAN,10 campos/dato) : 3F10.5


================================================================================
CALIDAD DEL ACELEROGRAMA:
REGISTRO DIGITAL COMPLETO CON TIEMPO ABSOLUTO CORRECTO.


================================================================================
COMENTARIOS:














================================================================================
DATOS DE ACELERACION:
---------+---------+---------+---------+---------+---------+---------+---------+
   CANAL-1   CANAL-2   CANAL-3   CANAL-4   CANAL-5   CANAL-6   CANAL-7   CANAL-8
      N00E        +V      N90W
---------+---------+---------+---------+---------+---------+---------+---------+
[...]
  -1.06028  -0.95797  -1.25139
  -0.58144  -0.95797  -1.01197
  -0.58144  -0.71855  -1.25139
  -0.34202  -0.47913  -1.01197
  -0.10260  -0.71855  -0.53313
   0.13682  -0.47913  -0.29371
   0.37624  -0.47913  -0.29371
   0.37624  -0.47913   0.18513
   0.61566  -0.47913   0.42455
   0.85508  -2.9E-40   0.66397
   0.85508  -0.23971   0.90339
   0.61566  -0.23971   1.14281
   0.37624  -2.9E-40   1.38223
   0.37624  -0.23971   1.38223
   0.13682  -0.23971   1.62165
   0.13682  -2.9E-40   1.86107
   0.13682   0.23913   2.10049
   0.13682  -2.9E-40   2.33991
   0.13682  -2.9E-40   2.57933
   0.61566  -2.9E-40   2.57933
   0.13682   0.23913   3.05817
   0.13682   0.23913   2.81875
   0.13682   0.23913   3.05817
   0.13682   0.23913   3.29759
   0.61566   0.47855   3.05817
   0.37624   0.71797   3.05817
   0.13682   0.23913   3.05817
   0.13682   0.23913   3.29759
   0.37624   0.47855   3.05817
   0.37624   0.47855   3.05817
   0.37624   0.23913   3.05817
   0.13682   0.23913   3.05817
   0.37624   0.23913   3.05817
  -0.10260   0.23913   2.81875
  -0.10260   0.47855   2.57933
  -0.10260   0.23913   2.57933
  -0.34202   0.23913   2.57933
  -0.10260   0.23913   2.33991
  -0.34202   0.47855   2.10049
  -0.34202   0.23913   1.86107
  -0.34202   0.23913   1.62165
  -0.58144   0.23913   1.38223
  -0.58144   0.23913   0.90339
  -0.58144  -2.9E-40   0.66397
  -0.82086  -2.9E-40   0.42455
  -0.82086  -2.9E-40   0.18513
  -1.06028  -2.9E-40  -0.29371
  -1.06028  -2.9E-40  -0.53313
  -1.06028  -0.23971  -0.53313
  -1.06028  -0.23971  -0.77255
  -1.06028  -0.47913  -0.77255
  -1.06028  -0.47913  -1.25139
  -0.82086  -0.23971  -1.49081
  -0.82086  -0.47913  -1.49081
  -0.82086  -0.47913  -1.73023
  -0.58144  -0.23971  -1.73023
  -0.34202  -0.23971  -1.96965
  -0.10260  -2.9E-40  -2.44849
  -0.34202   0.23913  -2.68791
  -0.10260   0.23913  -2.68791
   0.13682   0.23913  -2.92733
   0.13682   0.23913  -2.92733
   0.61566   0.23913  -2.92733
   0.37624   0.23913  -3.16675
   0.85508   0.23913  -3.16675
   0.85508   0.23913  -3.16675
   0.85508  -2.9E-40  -3.16675
   1.33392   0.23913  -3.40617
   1.33392   0.23913  -3.16675
   1.33392  -2.9E-40  -3.16675
   1.33392   0.23913  -3.16675
   1.57334  -2.9E-40  -3.16675
   1.57334  -2.9E-40  -3.16675
   1.57334  -0.23971  -2.92733
   1.57334  -2.9E-40  -2.92733
   1.81276  -2.9E-40  -2.92733
   1.57334  -2.9E-40  -2.68791
   1.57334  -2.9E-40  -2.68791
   1.57334  -0.23971  -2.44849
   1.81276  -0.23971  -2.44849
   1.81276  -2.9E-40  -2.44849
   1.81276  -0.23971  -2.20907
   1.81276  -0.23971  -1.96965
   1.81276  -0.23971  -1.96965
   2.05218  -0.23971  -1.96965
   1.81276  -2.9E-40  -1.73023
   1.81276  -0.23971  -1.73023
   1.81276  -0.23971  -1.73023
   1.81276  -0.23971  -1.49081
   1.57334  -0.47913  -1.25139
   1.09450  -0.47913  -1.25139
   0.85508  -0.71855  -1.25139
   0.37624  -0.71855  -1.01197
   0.13682  -0.47913  -0.77255
  -0.10260  -0.47913  -0.77255
  -0.58144  -0.47913  -0.53313
  -1.06028  -0.71855  -0.29371
  -1.29970  -0.71855  -0.05429
  -1.53912  -0.95797   0.18513
  -2.01796  -0.71855   0.18513
  -2.01796  -0.71855   0.18513
  -2.49680  -0.47913   0.42455
  -2.49680  -0.47913   0.66397
  -2.97564  -0.23971   0.90339
  -2.97564  -0.47913   1.14281
  -2.97564  -0.47913   1.14281
  -2.97564  -0.23971   1.14281
  -2.73622  -0.47913   0.90339
  -2.97564  -0.23971   1.14281
  -2.73622  -0.47913   1.38223
  -2.73622  -0.71855   1.38223
  -2.73622  -0.47913   1.38223
  -2.49680  -0.47913   1.38223
  -2.25738  -2.9E-40   1.38223
  -2.49680  -2.9E-40   1.38223
  -2.25738   0.23913   1.62165
  -2.01796  -2.9E-40   1.62165
  -2.01796   0.23913   1.62165
  -2.01796   0.23913   1.62165
  -1.77854   0.47855   1.62165
  -1.77854   0.47855   1.38223
  -1.77854   0.47855   1.14281
  -1.53912   0.47855   1.14281
  -1.29970   0.47855   0.90339
  -1.53912   0.71797   0.90339
  -1.29970   0.47855   0.90339
  -1.06028   0.23913   0.90339
  -0.82086   0.47855   0.66397
  -0.58144   0.47855   0.42455
  -0.34202   0.47855   0.66397
  -0.10260   0.47855   0.66397
   0.13682   0.47855   0.66397
   0.37624   0.23913   0.66397
   0.37624   0.47855   0.90339
   0.61566   0.23913   0.66397
   0.61566   0.23913   0.66397
   0.61566   0.23913   0.18513
   0.61566   0.23913   0.18513
   0.61566   0.23913   0.42455
   0.85508  -2.9E-40   0.18513
   0.85508   0.23913  -0.05429
   0.85508   0.23913  -0.05429
   0.61566   0.23913  -0.05429
   0.37624  -2.9E-40  -0.05429
   0.61566  -2.9E-40   0.18513
   0.85508  -2.9E-40   0.18513
   0.61566   0.23913   0.42455
   0.61566  -2.9E-40   0.66397
   0.61566  -0.23971   0.90339
   0.61566  -2.9E-40   1.14281
   0.85508   0.23913   1.14281
   0.61566   0.23913   1.38223
   0.85508  -2.9E-40   1.38223
   0.85508  -2.9E-40   1.62165
   1.33392  -0.23971   1.38223
   1.09450  -2.9E-40   1.38223
   0.61566   0.23913   1.38223
   0.61566  -2.9E-40   1.14281
   0.13682  -2.9E-40   1.38223
   0.37624  -0.23971   1.14281
   0.13682  -0.23971   0.90339
  -0.34202  -2.9E-40   0.90339
  -0.58144  -2.9E-40   0.90339
  -0.58144  -2.9E-40   0.90339
  -0.82086   0.23913   1.38223
  -1.06028   0.23913   1.62165
  -0.82086   0.23913   1.62165
  -0.82086   0.71797   1.86107
  -0.58144   0.47855   1.86107
  -0.82086   0.95739   2.10049
  -0.58144   0.47855   2.10049
  -0.34202   0.71797   2.57933
  -0.10260   0.71797   2.33991
   0.13682   0.71797   2.10049
   0.37624   0.47855   2.10049
   0.37624   0.47855   1.86107
   0.61566   0.47855   1.62165
   0.85508   0.23913   1.38223
   0.61566   0.23913   0.90339
   0.61566   0.47855   0.42455
   0.61566   0.47855   0.42455
   0.85508   0.47855  -0.05429
   0.85508   0.47855  -0.29371
   1.09450   0.71797  -0.53313
   1.09450   0.71797  -0.53313
   1.09450   0.71797  -0.53313
   1.09450   0.71797  -0.53313
   1.33392   0.71797  -0.53313
   1.33392   0.71797  -0.53313
   1.33392   0.71797  -0.29371
   1.33392   0.47855  -0.53313
   1.33392   0.47855  -0.29371
   1.57334   0.23913  -0.29371
   1.33392   0.23913  -0.29371
   1.33392   0.23913  -0.53313
   0.85508  -2.9E-40  -0.53313
   0.85508  -2.9E-40  -0.29371
   0.61566  -0.23971  -0.29371
   0.37624  -0.23971  -0.29371
   0.61566  -0.47913  -0.29371
   0.37624  -0.47913  -0.29371
   0.37624  -0.47913  -0.05429
   0.37624  -0.47913  -0.05429
   0.37624  -0.23971  -0.05429
   0.13682  -0.23971   0.18513
   0.37624  -2.9E-40   0.18513
   0.13682  -2.9E-40  -0.05429
  -0.10260  -2.9E-40   0.18513
  -0.10260  -0.23971  -0.05429
  -0.34202  -0.23971   0.42455
  -0.34202  -0.23971   0.42455
  -0.34202  -2.9E-40   0.18513
  -0.34202  -2.9E-40   0.18513
  -0.58144  -0.23971   0.42455
  -0.58144  -0.23971   0.42455
  -0.82086  -0.23971   0.42455
  -0.82086  -2.9E-40   0.18513
  -1.06028   0.23913   0.18513
  -1.06028   0.23913   0.18513
  -1.29970   0.23913  -0.05429
  -1.06028   0.23913  -0.05429
  -1.06028   0.47855  -0.05429
  -0.82086   0.47855  -0.05429
  -1.06028   0.47855  -0.05429
  -0.58144   0.47855  -0.29371
  -0.82086   0.47855  -0.29371
  -0.58144   0.47855  -0.53313
  -0.34202   0.47855  -0.53313
  -0.34202   0.47855  -0.29371
   0.13682   0.23913  -0.53313
  -0.10260   0.23913  -0.53313
   0.13682  -2.9E-40  -0.53313
   0.37624  -2.9E-40  -0.29371
   0.61566  -2.9E-40  -0.77255
   0.61566  -2.9E-40  -0.53313
   0.85508  -0.23971  -0.77255
   0.61566  -0.47913  -0.53313
   0.61566  -0.47913  -0.77255
   0.85508  -0.23971  -1.01197
   0.85508  -2.9E-40  -0.77255
   1.09450  -0.23971  -0.77255
   1.09450  -0.23971  -0.77255
   1.09450  -0.23971  -0.77255
   1.33392  -0.23971  -0.77255
   1.33392  -2.9E-40  -0.77255
   1.33392  -2.9E-40  -0.77255
   1.57334  -2.9E-40  -0.77255
   1.57334   0.23913  -0.77255
   1.81276  -2.9E-40  -0.53313
   1.57334  -2.9E-40  -0.77255
   1.81276  -2.9E-40  -0.53313
   1.81276  -0.23971  -0.77255
   1.81276  -2.9E-40  -0.77255
   1.81276  -0.23971  -0.77255
   1.81276  -2.9E-40  -0.53313
   1.81276  -0.23971  -0.53313
   1.57334  -0.23971  -0.53313
   1.57334  -2.9E-40  -0.05429
   1.81276  -0.23971   0.18513
   1.57334  -0.23971   0.42455
   1.81276  -2.9E-40   0.42455
   1.81276  -0.23971   0.66397
   1.57334  -0.23971   0.90339
   1.33392  -2.9E-40   1.14281
   1.57334  -2.9E-40   1.38223
   1.57334  -2.9E-40   1.62165
   1.33392   0.23913   1.86107
   1.09450   0.23913   1.62165
   0.85508   0.47855   1.62165
   0.85508   0.23913   1.62165
   0.85508   0.23913   1.86107
   0.85508   0.23913   1.86107
   0.85508   0.23913   1.62165
   0.61566   0.23913   1.62165
   0.61566  -2.9E-40   1.62165
   0.61566  -2.9E-40   1.38223
   0.85508  -0.23971   1.38223
   0.61566  -0.23971   1.14281
   0.61566  -0.47913   0.90339
   0.37624  -0.47913   0.90339
   0.37624  -0.47913   0.66397
   0.13682  -0.47913   0.42455
  -0.34202  -0.47913   0.42455
  -0.58144  -0.71855   0.42455
  -0.58144  -0.71855   0.66397
  -0.58144  -0.95797   0.18513
  -0.82086  -0.71855   0.18513
  -1.29970  -0.71855  -0.05429
  -1.53912  -0.71855  -0.05429
  -1.53912  -0.47913  -0.29371
  -1.77854  -0.23971  -0.29371
  -1.77854  -0.23971  -0.53313
  -1.77854  -0.23971  -0.77255
  -2.01796  -0.23971  -1.01197
  -2.49680   0.23913  -1.25139
  -2.73622  -2.9E-40  -1.49081
  -2.73622  -2.9E-40  -1.73023
  -3.21507  -0.23971  -1.49081
  -2.97564  -0.47913  -1.73023
  -3.21507  -0.47913  -1.96965
  -3.45449  -0.47913  -1.96965
  -3.45449  -0.71855  -1.73023
  -3.21507  -0.71855  -1.73023
  -3.21507  -0.95797  -1.73023
  -2.97564  -0.71855  -1.96965
  -2.97564  -0.71855  -1.96965
  -2.97564  -0.71855  -1.73023
  -2.97564  -0.71855  -1.73023
  -2.97564  -0.47913  -1.73023
  -2.97564  -0.23971  -1.49081
  -3.21507  -0.23971  -1.73023
  -2.97564  -2.9E-40  -1.49081
  -2.97564   0.23913  -1.49081
  -2.97564   0.23913  -1.25139
  -2.49680   0.47855  -1.25139
  -2.25738   0.47855  -0.77255
  -2.25738   0.71797  -0.77255
  -1.77854   0.71797  -0.77255
  -1.53912   0.71797  -0.29371
  -1.06028   0.71797  -0.29371
  -1.06028   0.71797  -0.05429
  -0.82086   0.71797  -0.05429
  -0.58144   0.71797   0.18513
  -0.34202   0.47855  -0.05429
  -0.10260   0.71797   0.42455
   0.13682   0.47855   0.18513
   0.61566   0.23913  -0.05429
   0.61566   0.23913  -0.05429
   1.09450   0.23913  -0.05429
   1.09450  -2.9E-40  -0.05429
   1.33392  -0.23971  -0.05429
   1.81276  -0.23971  -0.05429
   2.05218  -0.47913  -0.29371
   2.29160  -0.23971  -0.05429
   2.53102  -0.23971  -0.05429
   2.53102  -0.23971   0.18513
   2.53102  -2.9E-40  -0.05429
   3.00986  -2.9E-40  -0.05429
   3.00986   0.23913  -0.05429
   3.24928   0.23913  -0.05429
   3.24928   0.23913  -0.05429
   3.72812   0.23913  -0.29371
   3.96754   0.47855  -0.29371
   3.96754   0.23913  -0.29371
   3.96754  -2.9E-40  -0.29371
   3.96754  -2.9E-40  -0.05429
   4.20696  -0.23971  -0.29371
   3.96754  -2.9E-40  -0.05429
   3.72812  -0.23971  -0.29371
   3.48870  -0.47913  -0.05429
   3.24928  -0.47913   0.18513
   2.77044  -0.47913   0.18513
   2.53102  -0.47913   0.42455
   2.29160  -0.47913   0.42455
   2.29160  -0.47913   0.66397
   2.05218  -0.47913   0.42455
   1.81276  -0.47913   0.66397
   1.57334  -0.71855   0.66397
   1.33392  -0.71855   0.66397
   1.33392  -0.71855   0.66397
   1.09450  -0.71855   0.90339
   0.85508  -0.71855   0.90339
   0.61566  -1.19740   1.14281
   0.37624  -1.19740   1.38223
   0.13682  -0.95797   1.14281
  -0.10260  -0.95797   1.38223
  -0.58144  -0.71855   1.38223
  -0.58144  -0.95797   1.62165
  -0.82086  -0.71855   1.62165
  -0.82086  -0.71855   1.38223
  -1.29970  -0.23971   1.38223
  -1.53912  -0.23971   1.62165
  -1.77854  -2.9E-40   1.38223
  -1.77854  -2.9E-40   1.14281
  -2.01796   0.23913   1.38223
  -1.77854   0.23913   1.14281
  -1.77854   0.23913   1.14281
  -2.01796  -2.9E-40   0.90339
  -2.01796  -2.9E-40   0.66397
  -2.25738  -2.9E-40   0.66397
  -2.01796  -2.9E-40   0.18513
  -2.25738  -2.9E-40   0.18513
  -2.25738  -2.9E-40  -0.05429
  -2.25738  -2.9E-40  -0.05429
  -2.73622  -2.9E-40  -0.29371
  -2.73622  -0.23971  -0.29371
  -2.73622  -2.9E-40  -0.53313
  -2.49680  -2.9E-40  -0.77255
  -2.73622  -0.23971  -0.77255
  -2.73622  -0.23971  -0.77255
  -2.49680  -2.9E-40  -0.77255
  -2.25738   0.23913  -1.01197
  -2.01796   0.23913  -1.01197
  -1.77854   0.71797  -1.01197
  -1.77854   0.47855  -1.25139
  -1.77854   0.71797  -1.25139
  -1.53912   0.71797  -1.25139
  -1.53912   0.71797  -1.49081
  -1.29970   0.71797  -1.49081
  -1.29970   0.71797  -1.49081
  -1.29970   0.71797  -1.49081
  -1.29970   0.47855  -1.25139
  -1.29970   0.47855  -1.25139
  -1.06028   0.47855  -1.25139
  -1.06028   0.23913  -1.25139
  -1.06028   0.23913  -1.25139
  -0.82086   0.23913  -1.01197
  -0.58144  -2.9E-40  -1.25139
  -0.58144  -2.9E-40  -1.01197
  -0.82086  -2.9E-40  -1.01197
  -0.58144  -2.9E-40  -0.77255
  -0.34202  -2.9E-40  -0.77255
  -0.34202  -2.9E-40  -0.77255
  -0.34202  -2.9E-40  -0.29371
  -0.34202  -2.9E-40  -0.05429
  -0.10260   0.23913   0.42455
  -0.10260   0.23913   0.42455
   0.13682   0.47855   0.42455
   0.13682   0.23913   0.66397
   0.37624   0.23913   0.90339
   0.61566   0.23913   0.90339
   0.85508   0.47855   0.90339
   0.85508   0.47855   0.90339
   0.85508  -2.9E-40   0.90339
   1.09450  -2.9E-40   1.38223
   1.33392   0.23913   1.14281
   1.33392   0.23913   1.38223
   1.33392   0.47855   1.38223
   1.57334  -2.9E-40   1.38223
   1.81276  -2.9E-40   1.62165
   1.81276   0.23913   1.38223
   2.29160   0.23913   1.38223
   2.05218   0.47855   1.38223
   2.29160   0.23913   1.38223
   2.53102   0.23913   1.14281
   2.53102   0.23913   1.14281
   2.53102   0.23913   0.90339
   2.53102   0.23913   0.90339
   2.29160   0.23913   0.90339
   2.29160   0.23913   0.66397
   2.05218   0.23913   0.66397
   1.81276   0.23913   0.42455
   1.81276  -2.9E-40   0.42455
   1.57334   0.23913   0.42455
   1.33392  -2.9E-40   0.42455
   1.09450   0.23913   0.42455
   1.09450  -2.9E-40   0.18513
   0.85508  -2.9E-40   0.42455
   0.85508  -2.9E-40   0.18513
   0.61566  -2.9E-40   0.18513
   0.61566  -2.9E-40  -0.05429
   0.37624  -0.23971   0.18513
   0.37624  -0.47913   0.18513
   0.13682  -0.47913   0.18513
  -0.10260  -0.23971   0.18513
  -0.34202  -0.47913   0.18513
  -0.58144  -0.47913   0.18513
  -0.58144  -0.47913   0.18513
  -1.06028  -0.47913   0.18513
  -1.29970  -0.23971   0.42455
  -1.53912  -0.47913   0.18513
  -1.77854  -0.23971   0.42455
  -1.53912  -0.23971   0.42455
  -1.77854  -0.23971   0.18513
  -2.01796  -0.23971   0.18513
  -2.01796  -0.23971   0.18513
  -2.01796  -0.23971  -0.05429
  -2.25738  -0.47913  -0.05429
  -2.49680  -2.9E-40  -0.05429
  -2.49680  -0.23971  -0.05429
  -2.73622  -0.23971  -0.05429
  -2.97564  -0.47913  -0.29371
  -2.97564  -2.9E-40  -0.29371
  -2.97564  -0.23971  -0.29371
  -3.21507  -0.23971  -0.05429
  -2.97564  -0.23971  -0.29371
  -3.21507  -0.23971  -0.29371
  -3.21507  -0.23971  -0.05429
  -3.21507  -0.23971  -0.05429
  -2.97564  -2.9E-40  -0.05429
  -2.73622  -0.23971  -0.05429
  -2.73622  -2.9E-40  -0.29371
  -2.73622  -2.9E-40  -0.29371
  -2.73622  -2.9E-40  -0.05429
  -2.73622  -2.9E-40  -0.29371
  -2.73622  -2.9E-40  -0.05429
  -2.49680   0.23913  -0.05429
  -2.49680   0.23913  -0.29371
  -2.25738   0.47855  -0.05429
  -2.25738   0.23913  -0.05429
  -2.01796   0.47855   0.42455
  -1.53912   0.23913  -0.05429
  -1.29970   0.23913   0.18513
  -1.29970   0.47855   0.42455
  -0.82086   0.47855   0.66397
  -0.58144   0.23913   0.66397
