********************************************************************************
               CENTRO DE INSTRUMENTACION Y REGISTRO SISMICO  A.C.  
                       Coordinacion de Servicios Tecnicos
     Anaxagoras 814, Col. Narvarte, Benito Juarez, C.P. 03020 Mexico, D.F.
            Tels. 687 45 42/ 687 45  82             Fax. 669 25 12
********************************************************************************
ARCHIVO ESTANDAR DE ACELERACION:
VERSION DEL FORMATO                    : 2.0
NOMBRE DEL ARCHIVO                     : AU469602.254
FECHA Y HORA DE CREACION               : 27/MAR/98, 13:06
REF. CATALOGO ACELEROGRAMAS, SMIS 1996 : REGISTRO No.     /PAG.


================================================================================
DATOS DE LA ESTACION:
NOMBRE DE LA ESTACION                  : ANGEL URRAZA
CLAVE DE LA ESTACION                   : AU46
LOCALIZACION DE LA ESTACION            : Esc Sec Tec # 14, 5 de Mayo Av
                                       : Coyoacan y Angel Urraza, Col de
                                       : Valle, Benito Juarez
                                       :
                                       :
COORDENADAS DE LA ESTACION             : 19.383 LAT. N 
                                       : 99.168 LONG. W 
ALTITUD (msnm)                         : 2233
TIPO DE SUELO                          : TRANSICION
                                       : 
                                       : 
INSTITUCION RESPONSABLE                : CIRES
                                       :

================================================================================
DATOS DEL ACELEROGRAFO:
MODELO DEL ACELEROGRAFO                : DCA-333
NUMERO DE SERIE DEL ACELEROGRAFO       : 236
NUMERO DE CANALES                      : 3
ORIENTACION C1-C6 (rumbo;orientacion)  : /N00E/+V/N90W
ORIENTACION C7-C12 (rumbo;orientacion) :
VEL. DE MUESTREO, C1-C6 (muestras/s)   : /100/100/100
VEL. DE MUESTREO, C7-C12 (muestras/s)  :
ESC. COMPLETA DE SENSORES, C1-C6, (g)  : /0.5/0.5/0.5
ESC. COMPLETA DE SENSORES, C7-C12, (g) :
FREC. NAT. DE SENSORES, C1-C6, (Hz)    : /33/30/30
FREC. NAT. DE SENSORES, C7-C12, (Hz)   :
AMORTIGUAMIENTO DE SENSORES, C1-C6     : /0.735/0.733/0.730
AMORTIGUAMIENTO DE SENSORES, C7-C12    :
INTERVALO DE MUESTREO, C1-C6, (s)      : /0.01/0.01/0.01
INTERVALO DE MUESTREO, C7-C12, (s)     :
UMBRAL DE DISPARO, C1-C6, (Gal)        : /1.5/1.5/1.5
UMBRAL DE DISPARO, C7-C12, (Gal)       :
MEMORIA DE PREEVENTO (s)               : 4
TIEMPO DE POSEVENTO (s)                : 15


================================================================================
DATOS DEL SISMO:
FECHA DEL SISMO (GMT)                  : 25/FEB/96
HORA EPICENTRO (GMT)                   : 14:27:24,3
MAGNITUD(ES)                           : /Mb=5.2/Ms=5.3/Mc=5.2
COORDENADAS DEL EPICENTRO              : 15.480 LAT. N
                                       : 98.040 LONG. W
PROFUNDIDAD FOCAL (km)                 : 13
FUENTE DE LOS DATOS EPICENTRALES       : SSN
                                       : INSTITUTO DE GEOFISICA, UNAM

================================================================================
DATOS DE ESTE REGISTRO:
HORA DE LA PRIMERA MUESTRA (GMT)       : 14:29:21.75
EXACTITUD DEL TIEMPO (s)               : 0.01
DURACION DEL REGISTRO (s), C1-C6       : /36.43/36.43/36.43
DURACION DEL REGISTRO (s), C7-C12      :
NUM. TOTAL DE MUESTRAS, C1-C6          : /3643/3643/3643
NUM. TOTAL DE MUESTRAS, C7-C12         :
ACEL. MAX. (Gal), C1-C6                : /2.03772/0.51656/2.04206
ACEL. MAX., C1-C6, EN LA MUESTRA       :
ACEL. MAX. (Gal), C7-C12               :
ACEL. MAX., C7-C12, EN LA MUESTRA      :
UNIDADES DE LOS DATOS                  : Gal (cm/s/s)
FACTOR DE DECIMACION                   : 1
FORMATO DATOS (FORTRAN,10 campos/dato) : 3F10.5


================================================================================
CALIDAD DEL ACELEROGRAMA:
REGISTRO DIGITAL COMPLETO CON TIEMPO ABSOLUTO CORRECTO.


================================================================================
COMENTARIOS:














================================================================================
DATOS DE ACELERACION:
---------+---------+---------+---------+---------+---------+---------+---------+
   CANAL-1   CANAL-2   CANAL-3   CANAL-4   CANAL-5   CANAL-6   CANAL-7   CANAL-8
      N00E        +V      N90W
---------+---------+---------+---------+---------+---------+---------+---------+
[...]
   0.36179  -0.27714   0.12671
   0.12237  -0.27714   0.12671
   0.36179  -0.27714   0.12671
   0.36179  -0.27714  -0.11271
   0.60121  -0.27714  -0.11271
   0.36179  -0.27714  -0.11271
   0.36179  -0.27714  -0.11271
   0.12237  -0.27714   0.12671
   0.12237  -0.27714   0.12671
   0.36179  -0.03772   0.12671
   0.60121  -0.03772   0.12671
   0.60121  -0.03772  -0.11271
   0.84063   0.20170  -0.11271
   0.60121   0.20170  -0.11271
   0.36179   0.20170   0.36613
   0.36179   0.20170   0.36613
   0.36179   0.20170   0.36613
   0.36179   0.44111   0.36613
   0.36179   0.44111   0.36613
   0.36179   0.44111   0.12671
   0.36179   0.44111   0.36613
   0.36179   0.44111   0.36613
   0.36179   0.20170   0.60555
   0.36179   0.20170   0.60555
   0.36179   0.20170   0.36613
   0.36179   0.20170   0.12671
   0.36179   0.20170  -0.11271
   0.36179  -0.03772  -0.11271
   0.36179  -0.03772   0.12671
   0.36179  -0.03772  -0.11271
   0.36179  -0.03772  -0.11271
   0.36179  -0.03772  -0.11271
   0.36179  -0.03772  -0.11271
   0.36179  -0.03772  -0.11271
   0.36179  -0.03772  -0.11271
   0.36179  -0.03772  -0.11271
   0.60121  -0.03772  -0.11271
   0.60121  -0.03772  -0.11271
   0.60121  -0.03772  -0.11271
   0.36179  -0.03772  -0.11271
   0.36179   0.20170  -0.11271
   0.36179  -0.03772  -0.11271
   0.36179  -0.03772  -0.11271
   0.36179  -0.03772  -0.11271
   0.36179  -0.03772  -0.11271
   0.36179  -0.03772  -0.11271
   0.12237  -0.03772  -0.11271
  -0.11705  -0.03772  -0.11271
  -0.11705  -0.03772  -0.11271
  -0.11705  -0.03772   0.12671
  -0.11705  -0.03772   0.12671
  -0.11705  -0.03772   0.12671
  -0.11705  -0.03772   0.12671
  -0.11705  -0.27714   0.12671
  -0.35647  -0.27714   0.12671
  -0.35647  -0.03772   0.12671
  -0.35647  -0.03772   0.12671
  -0.35647  -0.03772   0.36613
  -0.35647   0.20170   0.36613
  -0.35647  -0.03772   0.36613
  -0.59589  -0.03772   0.36613
  -0.59589  -0.03772   0.36613
  -0.59589  -0.03772   0.60555
  -0.59589  -0.03772   0.60555
  -0.83530  -0.03772   0.60555
  -0.83530  -0.03772   0.60555
  -0.83530  -0.03772   0.60555
  -0.83530  -0.03772   0.60555
  -0.83530  -0.03772   0.84497
  -0.83530  -0.03772   0.84497
  -0.83530   0.20170   0.84497
  -0.59589   0.20170   0.84497
  -0.59589   0.20170   0.84497
  -0.83530   0.20170   0.84497
  -0.59589   0.20170   0.84497
  -0.59589   0.20170   1.08438
  -0.59589   0.20170   1.08438
  -0.59589   0.20170   1.32380
  -0.35647   0.20170   1.32380
  -0.35647   0.44111   1.32380
  -0.35647   0.20170   1.32380
  -0.35647   0.20170   1.32380
  -0.11705   0.20170   1.08438
  -0.11705   0.20170   1.08438
  -0.11705   0.44111   1.08438
  -0.11705   0.44111   0.84497
  -0.11705   0.20170   0.84497
  -0.11705   0.20170   0.84497
  -0.11705   0.44111   0.84497
  -0.11705   0.20170   0.84497
   0.12237   0.44111   0.60555
   0.12237   0.20170   0.60555
   0.36179   0.20170   0.60555
   0.36179   0.20170   0.36613
   0.36179   0.20170   0.36613
   0.36179  -0.03772   0.12671
   0.60121   0.20170   0.12671
   0.60121  -0.03772  -0.11271
   0.60121  -0.03772  -0.11271
   0.60121  -0.03772  -0.11271
   0.60121   0.20170  -0.11271
   0.60121  -0.03772  -0.11271
   0.60121  -0.03772  -0.11271
   0.60121  -0.03772  -0.35213
   0.84063  -0.03772  -0.35213
   0.60121   0.20170  -0.35213
   0.60121  -0.03772  -0.35213
   0.60121  -0.03772  -0.35213
   0.60121  -0.03772  -0.59155
   0.60121  -0.03772  -0.59155
   0.60121  -0.03772  -0.83097
   0.60121  -0.03772  -0.83097
   0.60121  -0.03772  -1.07039
   0.60121  -0.03772  -1.07039
   0.36179  -0.03772  -1.30980
   0.36179  -0.03772  -1.30980
   0.36179   0.20170  -1.30980
   0.60121  -0.03772  -1.54922
   0.36179  -0.03772  -1.54922
   0.60121  -0.03772  -1.54922
   0.36179  -0.03772  -1.78864
   0.60121  -0.03772  -1.78864
   0.60121  -0.03772  -1.78864
   0.60121   0.20170  -1.78864
   0.36179   0.20170  -1.78864
   0.36179   0.20170  -2.02806
   0.36179   0.20170  -2.02806
   0.12237   0.20170  -2.02806
   0.12237  -0.03772  -2.02806
   0.12237  -0.03772  -2.02806
   0.12237  -0.03772  -2.02806
   0.12237  -0.03772  -2.02806
   0.12237  -0.03772  -1.78864
  -0.11705  -0.03772  -1.78864
  -0.11705  -0.03772  -1.54922
  -0.11705  -0.03772  -1.54922
  -0.11705  -0.03772  -1.30980
  -0.11705  -0.03772  -1.30980
  -0.11705  -0.03772  -1.07039
  -0.11705  -0.03772  -1.07039
  -0.11705  -0.03772  -0.83097
  -0.11705  -0.03772  -0.83097
  -0.11705  -0.03772  -0.59155
  -0.11705  -0.03772  -0.59155
  -0.11705  -0.03772  -0.35213
  -0.11705  -0.03772  -0.11271
  -0.11705  -0.03772  -0.11271
  -0.11705  -0.03772  -0.11271
  -0.11705  -0.03772  -0.11271
  -0.11705  -0.03772   0.12671
  -0.11705  -0.27714   0.12671
  -0.11705  -0.03772   0.36613
  -0.11705  -0.27714   0.36613
  -0.11705  -0.03772   0.36613
  -0.11705  -0.03772   0.60555
  -0.35647  -0.03772   0.60555
  -0.35647  -0.03772   0.84497
  -0.35647  -0.03772   0.84497
  -0.11705  -0.03772   0.84497
  -0.35647  -0.03772   0.84497
  -0.35647  -0.03772   1.08438
  -0.35647  -0.03772   1.32380
  -0.35647  -0.03772   1.32380
  -0.59589  -0.03772   1.56322
  -0.59589   0.20170   1.56322
  -0.35647   0.20170   1.80264
  -0.59589   0.20170   1.80264
  -0.59589   0.20170   1.80264
  -0.59589   0.20170   1.80264
  -0.35647   0.20170   1.80264
  -0.35647   0.20170   1.80264
  -0.35647   0.20170   1.80264
  -0.35647   0.20170   1.80264
  -0.35647   0.20170   1.80264
  -0.35647  -0.03772   1.80264
  -0.11705  -0.03772   1.80264
  -0.11705  -0.03772   1.80264
  -0.11705  -0.03772   1.80264
  -0.11705  -0.03772   1.80264
  -0.11705  -0.03772   1.56322
  -0.11705  -0.03772   1.56322
  -0.11705  -0.03772   1.32380
  -0.35647  -0.03772   1.32380
  -0.35647  -0.03772   1.08438
  -0.35647  -0.03772   1.08438
  -0.35647  -0.03772   1.08438
  -0.11705   0.20170   0.84497
  -0.11705  -0.03772   0.84497
  -0.11705  -0.03772   0.84497
  -0.11705  -0.03772   0.60555
  -0.11705  -0.03772   0.60555
  -0.35647  -0.03772   0.36613
  -0.11705  -0.03772   0.36613
  -0.11705  -0.03772   0.12671
  -0.11705  -0.03772   0.12671
  -0.11705  -0.03772  -0.11271
  -0.11705  -0.03772  -0.11271
  -0.11705  -0.03772  -0.11271
  -0.11705  -0.03772  -0.35213
   0.12237  -0.03772  -0.59155
   0.12237  -0.03772  -0.83097
   0.12237  -0.03772  -0.83097
   0.36179  -0.03772  -1.07039
   0.36179  -0.03772  -1.07039
   0.36179  -0.03772  -1.07039
   0.36179  -0.03772  -1.30980
   0.36179  -0.03772  -1.30980
   0.36179  -0.03772  -1.54922
   0.36179  -0.03772  -1.54922
   0.36179  -0.03772  -1.54922
   0.36179   0.20170  -1.78864
   0.36179  -0.03772  -1.78864
   0.12237  -0.03772  -1.78864
   0.12237  -0.03772  -1.78864
   0.12237   0.20170  -1.78864
   0.12237  -0.03772  -1.78864
   0.12237  -0.03772  -1.78864
   0.36179  -0.03772  -1.78864
   0.36179   0.20170  -1.54922
   0.36179  -0.03772  -1.54922
   0.36179  -0.03772  -1.30980
   0.12237  -0.03772  -1.30980
   0.12237  -0.03772  -1.30980
   0.12237  -0.03772  -1.07039
   0.12237  -0.03772  -1.07039
   0.12237  -0.03772  -0.83097
   0.12237  -0.03772  -0.59155
  -0.11705  -0.03772  -0.59155
  -0.11705  -0.03772  -0.35213
  -0.11705  -0.03772  -0.35213
  -0.11705  -0.03772  -0.35213
  -0.11705  -0.03772  -0.35213
  -0.11705  -0.03772  -0.11271
  -0.11705  -0.03772  -0.11271
  -0.11705  -0.03772  -0.11271
  -0.11705  -0.03772   0.12671
  -0.11705  -0.03772   0.12671
  -0.11705  -0.27714   0.36613
  -0.11705  -0.03772   0.36613
  -0.11705  -0.03772   0.60555
  -0.11705  -0.03772   0.60555
  -0.11705  -0.27714   0.84497
  -0.11705  -0.03772   0.84497
  -0.11705  -0.27714   0.84497
  -0.11705  -0.27714   1.08438
  -0.11705  -0.27714   1.32380
  -0.11705  -0.27714   1.32380
  -0.11705  -0.27714   1.32380
  -0.11705  -0.03772   1.32380
  -0.11705  -0.03772   1.56322
  -0.11705  -0.27714   1.56322
  -0.11705  -0.27714   1.80264
  -0.11705  -0.27714   1.80264
  -0.11705  -0.27714   1.80264
  -0.11705  -0.27714   1.80264
  -0.11705  -0.27714   1.80264
  -0.11705  -0.03772   1.80264
  -0.11705  -0.03772   1.56322
  -0.11705  -0.27714   1.56322
  -0.11705  -0.03772   1.56322
  -0.11705  -0.03772   1.56322
  -0.11705  -0.03772   1.56322
  -0.11705  -0.03772   1.32380
  -0.11705  -0.03772   1.32380
  -0.11705  -0.03772   1.32380
  -0.11705  -0.03772   1.32380
  -0.11705  -0.03772   1.32380
   0.12237   0.20170   1.08438
   0.12237   0.20170   1.08438
   0.12237  -0.03772   0.84497
   0.12237  -0.03772   0.84497
   0.12237   0.20170   0.84497
   0.12237   0.20170   0.60555
   0.12237  -0.03772   0.60555
   0.12237  -0.03772   0.36613
   0.36179  -0.03772   0.36613
   0.36179  -0.03772   0.12671
   0.36179  -0.03772  -0.11271
   0.36179  -0.03772  -0.11271
   0.36179  -0.03772  -0.11271
   0.36179  -0.03772  -0.11271
   0.36179  -0.03772  -0.35213
   0.36179  -0.03772  -0.35213
   0.36179  -0.03772  -0.35213
   0.60121  -0.03772  -0.59155
   0.60121  -0.03772  -0.59155
   0.60121  -0.03772  -0.83097
   0.60121  -0.03772  -0.83097
   0.60121  -0.03772  -1.07039
   0.60121  -0.03772  -1.07039
   0.60121  -0.03772  -1.07039
   0.60121  -0.03772  -1.07039
   0.60121  -0.03772  -1.07039
   0.60121   0.20170  -1.07039
   0.60121   0.20170  -1.07039
   0.60121   0.20170  -1.07039
   0.60121   0.20170  -1.30980
   0.60121   0.20170  -1.30980
   0.84063  -0.03772  -1.54922
   0.84063   0.20170  -1.30980
   0.84063   0.20170  -1.30980
   0.84063   0.20170  -1.30980
   0.60121   0.20170  -1.30980
   0.60121   0.20170  -1.30980
   0.36179   0.20170  -1.30980
   0.60121   0.20170  -1.54922
   0.60121   0.20170  -1.54922
   0.36179   0.20170  -1.54922
   0.36179  -0.03772  -1.54922
   0.36179  -0.03772  -1.30980
   0.12237   0.20170  -1.30980
  -0.11705   0.20170  -1.30980
  -0.11705   0.20170  -1.30980
  -0.11705  -0.03772  -1.07039
  -0.11705  -0.03772  -1.07039
  -0.11705  -0.03772  -1.07039
  -0.11705   0.20170  -1.07039
  -0.11705   0.20170  -0.83097
  -0.35647  -0.03772  -0.83097
  -0.59589  -0.03772  -0.83097
  -0.59589  -0.27714  -0.59155
  -0.59589  -0.27714  -0.59155
  -0.59589  -0.03772  -0.59155
  -0.59589  -0.03772  -0.35213
  -0.83530   0.20170  -0.35213
  -0.83530  -0.03772  -0.11271
  -0.83530  -0.27714   0.12671
  -0.59589  -0.27714   0.12671
  -0.59589  -0.03772   0.36613
  -0.59589  -0.03772   0.36613
  -0.59589   0.20170   0.36613
  -0.59589   0.20170   0.60555
  -0.59589   0.20170   0.60555
  -0.59589  -0.03772   0.84497
  -0.59589  -0.03772   1.08438
  -0.59589  -0.03772   1.32380
  -0.59589  -0.03772   1.32380
  -0.59589  -0.03772   1.32380
  -0.59589  -0.03772   1.32380
  -0.35647  -0.03772   1.08438
  -0.35647   0.20170   1.08438
  -0.35647   0.20170   1.08438
  -0.35647   0.20170   1.32380
  -0.59589   0.44111   1.32380
  -0.83530   0.20170   1.56322
  -0.59589   0.20170   1.56322
  -0.35647  -0.03772   1.56322
  -0.11705  -0.03772   1.80264
  -0.11705  -0.03772   1.80264
  -0.11705   0.20170   2.04206
  -0.11705   0.44111   1.80264
  -0.35647   0.44111   1.80264
  -0.11705   0.20170   1.56322
  -0.11705   0.20170   1.32380
   0.12237   0.20170   1.08438
   0.12237   0.20170   1.08438
   0.12237   0.20170   0.84497
  -0.11705   0.20170   0.84497
  -0.11705  -0.03772   1.08438
  -0.11705  -0.03772   1.08438
   0.36179  -0.03772   0.84497
   0.60121  -0.03772   0.60555
   0.60121   0.20170   0.36613
   0.60121   0.44111   0.12671
   0.12237   0.20170  -0.11271
  -0.11705   0.20170   0.12671
  -0.11705  -0.03772   0.12671
   0.36179  -0.27714   0.12671
   0.60121  -0.03772  -0.11271
   0.84063  -0.03772  -0.35213
   0.84063  -0.03772  -0.83097
   0.60121  -0.03772  -0.83097
   0.60121  -0.27714  -0.83097
   0.60121  -0.27714  -0.59155
   0.60121  -0.27714  -0.35213
   1.08005  -0.03772  -0.35213
   1.08005   0.44111  -0.59155
   1.08005   0.44111  -0.83097
   0.84063   0.20170  -1.07039
   0.84063   0.20170  -1.30980
   0.60121  -0.03772  -1.54922
   0.36179  -0.03772  -1.54922
   0.36179   0.20170  -1.54922
   0.36179   0.20170  -1.54922
   0.36179  -0.03772  -1.54922
   0.12237  -0.27714  -1.54922
   0.36179  -0.27714  -1.54922
   0.36179  -0.03772  -1.30980
   0.36179  -0.03772  -1.30980
   0.12237   0.20170  -1.30980
  -0.11705   0.20170  -1.30980
  -0.11705   0.20170  -1.30980
  -0.11705  -0.03772  -1.30980
  -0.11705  -0.03772  -1.07039
  -0.11705  -0.27714  -1.07039
  -0.11705  -0.27714  -1.07039
  -0.35647  -0.27714  -1.07039
  -0.11705  -0.27714  -1.30980
  -0.11705  -0.27714  -1.07039
  -0.11705  -0.03772  -0.83097
  -0.11705   0.20170  -0.59155
  -0.35647  -0.03772  -0.35213
  -0.35647  -0.03772  -0.59155
  -0.35647  -0.03772  -0.59155
  -0.59589  -0.27714  -0.35213
  -0.59589  -0.27714  -0.35213
  -0.59589  -0.03772  -0.11271
  -0.59589  -0.27714   0.12671
  -0.59589  -0.03772  -0.11271
  -0.59589   0.20170   0.12671
  -0.59589  -0.03772   0.12671
  -0.59589  -0.03772   0.12671
  -0.59589  -0.03772   0.12671
  -0.83530  -0.03772   0.36613
  -0.83530  -0.03772   0.36613
  -0.83530  -0.03772   0.60555
  -0.83530  -0.03772   0.60555
  -0.83530  -0.03772   0.84497
  -0.83530  -0.03772   0.84497
  -0.83530  -0.03772   1.08438
  -0.83530   0.20170   1.08438
  -0.83530   0.20170   1.32380
  -0.83530   0.44111   1.32380
  -0.83530   0.44111   1.32380
  -0.83530   0.44111   1.56322
  -1.07472   0.44111   1.80264
  -1.07472   0.20170   1.80264
  -1.07472   0.20170   1.80264
  -1.07472   0.20170   1.80264
  -1.07472   0.20170   1.56322
  -0.83530   0.20170   1.56322
  -0.83530   0.20170   1.56322
  -0.83530   0.20170   1.80264
  -0.83530   0.20170   1.56322
  -0.59589   0.20170   1.56322
  -0.59589   0.20170   1.56322
  -0.35647   0.20170   1.56322
  -0.35647   0.20170   1.56322
  -0.59589   0.20170   1.32380
  -0.59589   0.20170   1.32380
  -0.35647   0.20170   1.32380
  -0.35647   0.20170   1.32380
  -0.35647   0.20170   1.08438
  -0.35647  -0.03772   1.08438
  -0.11705  -0.03772   0.84497
  -0.11705  -0.03772   0.60555
  -0.11705  -0.03772   0.60555
   0.12237  -0.27714   0.36613
   0.12237  -0.27714   0.36613
   0.12237  -0.27714   0.36613
   0.36179  -0.03772   0.12671
   0.36179  -0.03772   0.12671
   0.36179  -0.03772   0.12671
   0.36179  -0.03772  -0.11271
   0.60121  -0.03772  -0.11271
   0.84063  -0.03772  -0.11271
   0.84063  -0.03772  -0.11271
   0.84063  -0.03772  -0.35213
   0.84063  -0.03772  -0.35213
   0.84063  -0.03772  -0.59155
   0.84063  -0.03772  -0.83097
   1.08005  -0.03772  -0.83097
   1.08005  -0.03772  -1.07039
   1.31947   0.20170  -1.07039
   1.31947  -0.03772  -1.07039
   1.55888  -0.03772  -1.07039
   1.79830  -0.03772  -1.07039
   1.79830  -0.03772  -1.30980
   1.79830   0.20170  -1.30980
   1.79830   0.20170  -1.30980
   1.55888   0.20170  -1.30980
   1.55888   0.20170  -1.30980
   1.55888   0.20170  -1.54922
   1.79830  -0.03772  -1.54922
   1.79830  -0.03772  -1.78864
   1.79830  -0.03772  -1.78864
   1.79830  -0.03772  -1.78864
   1.79830  -0.03772  -1.78864
   1.79830  -0.03772  -1.78864
   1.79830  -0.27714  -1.54922
   1.79830  -0.27714  -1.54922
   1.79830  -0.27714  -1.54922
   1.79830  -0.27714  -1.30980
   1.79830  -0.27714  -1.30980
   1.79830  -0.03772  -1.30980
   1.79830  -0.03772  -1.07039
   1.55888  -0.03772  -0.83097
   1.79830  -0.03772  -0.83097
   1.55888  -0.03772  -0.83097
   1.31947   0.20170  -0.83097
   1.31947   0.20170  -0.59155
   1.08005   0.20170  -0.59155
   1.08005   0.20170  -0.59155
   0.84063   0.20170  -0.35213
   0.84063   0.20170  -0.11271
   0.84063   0.20170  -0.11271
   0.84063   0.20170   0.12671
   0.60121  -0.03772   0.12671
   0.60121  -0.03772   0.36613
   0.36179  -0.03772   0.36613
