********************************************************************************
               CENTRO DE INSTRUMENTACION Y REGISTRO SISMICO  A.C.  
                       Coordinacion de Servicios Tecnicos
     Anaxagoras 814, Col. Narvarte, Benito Juarez, C.P. 03020 Mexico, D.F.
            Tels. 687 45 42/ 687 45  82             Fax. 669 25 12
********************************************************************************
ARCHIVO ESTANDAR DE ACELERACION:
VERSION DEL FORMATO                    : 2.0
NOMBRE DEL ARCHIVO                     : AU469405.231
FECHA Y HORA DE CREACION               : 22 de enero 1996/17:17
REF. CATALOGO ACELEROGRAMAS, SMIS 1995 : REGISTRO No.     /PAG.


================================================================================
DATOS DE LA ESTACION:
NOMBRE DE LA ESTACION                  : ANGEL URRAZA
CLAVE DE LA ESTACION                   : AU46
LOCALIZACION DE LA ESTACION            : Esc Sec Tec # 14, 5 de Mayo Av
                                       : Coyoacan y Angel Urraza, Col de
                                       : Valle, Benito Juarez
                                       :
                                       :
COORDENADAS DE LA ESTACION             : 19.383 LAT. N 
                                       : 99.168 LONG. W 
ALTITUD (msnm)                         : 2233
TIPO DE SUELO                          : TRANSICION
                                       : 
                                       : 
INSTITUCION RESPONSABLE                : CIRES
                                       :

================================================================================
DATOS DEL ACELEROGRAFO:
MODELO DEL ACELEROGRAFO                : DCA-333
NUMERO DE SERIE DEL ACELEROGRAFO       : 236
NUMERO DE CANALES                      : 3
ORIENTACION C1-C6 (rumbo;orientacion)  : /N00E/+V/N90W
ORIENTACION C7-C12 (rumbo;orientacion) :
VEL. DE MUESTREO, C1-C6 (muestras/s)   : /100/100/100
VEL. DE MUESTREO, C7-C12 (muestras/s)  :
ESC. COMPLETA DE SENSORES, C1-C6, (g)  : /0.5/0.5/0.5
ESC. COMPLETA DE SENSORES, C7-C12, (g) :
FREC. NAT. DE SENSORES, C1-C6, (Hz)    : /33/30/30
FREC. NAT. DE SENSORES, C7-C12, (Hz)   :
AMORTIGUAMIENTO DE SENSORES, C1-C6     : /0.735/0.733/0.730
AMORTIGUAMIENTO DE SENSORES, C7-C12    :
INTERVALO DE MUESTREO, C1-C6, (s)      : /0.01/0.01/0.01
INTERVALO DE MUESTREO, C7-C12, (s)     :
UMBRAL DE DISPARO, C1-C6, (Gal)        : /1.5/1.5/1.5
UMBRAL DE DISPARO, C7-C12, (Gal)       :
MEMORIA DE PREEVENTO (s)               : 4
TIEMPO DE POSEVENTO (s)                : 15


================================================================================
DATOS DEL SISMO:
FECHA DEL SISMO (GMT)                  : 23/MAY/94
HORA EPICENTRO (GMT)                   : 01:41:46,0
MAGNITUD(ES)                           : /Mc=5.60
COORDENADAS DEL EPICENTRO              : 18.030 LAT. N
                                       : 100.570 LONG. W
PROFUNDIDAD FOCAL (km)                 : 23
FUENTE DE LOS DATOS EPICENTRALES       : SSN
                                       : INSTITUTO DE GEOFISICA, UNAM

================================================================================
DATOS DE ESTE REGISTRO:
HORA DE LA PRIMERA MUESTRA (GMT)       : 01:42:22.50
EXACTITUD DEL TIEMPO (s)               : 0.01
DURACION DEL REGISTRO (s), C1-C6       : /104.01/104.01/104.01
DURACION DEL REGISTRO (s), C7-C12      :
NUM. TOTAL DE MUESTRAS, C1-C6          : /10401/10401/10401
NUM. TOTAL DE MUESTRAS, C7-C12         :
ACEL. MAX. (Gal), C1-C6                : /6.54/3.43/7.77
ACEL. MAX., C1-C6, EN LA MUESTRA       :
ACEL. MAX. (Gal), C7-C12               :
ACEL. MAX., C7-C12, EN LA MUESTRA      :
UNIDADES DE LOS DATOS                  : Gal (cm/s/s)
FACTOR DE DECIMACION                   : 1
FORMATO DATOS (FORTRAN,10 campos/dato) : 3F10.2


================================================================================
CALIDAD DEL ACELEROGRAMA:
REGISTRO DIGITAL COMPLETO, CON TIEMPO ABSOLUTO CORRECTO.


================================================================================
COMENTARIOS:














================================================================================
DATOS DE ACELERACION:
---------+---------+---------+---------+---------+---------+---------+---------+
   CANAL-1   CANAL-2   CANAL-3   CANAL-4   CANAL-5   CANAL-6   CANAL-7   CANAL-8
      N00E        +V      N90W
---------+---------+---------+---------+---------+---------+---------+---------+
[...]
      0.31      0.79      0.35
      0.55      0.79      0.35
      0.79      0.56      0.35
      0.79      0.56      0.59
      0.79      0.08      0.83
      0.79      0.08      1.07
      0.79      0.08      1.55
      0.79      0.08      2.27
      0.79      0.08      2.99
      0.79      0.08      3.46
      1.03      0.08      4.18
      1.03     -0.40      4.42
      1.27     -0.64      4.66
      1.27     -0.88      4.90
      1.27     -0.88      5.14
      1.03     -1.12      5.14
      1.03     -1.12      5.14
      0.55     -1.12      5.14
      0.31     -0.88      5.14
      0.08     -0.64      5.14
     -0.40     -0.64      4.90
     -0.88     -0.40      4.66
     -1.36     -0.16      4.66
     -1.60      0.32      4.66
     -1.60      0.56      4.42
     -1.36      0.79      4.18
     -0.88      0.79      3.94
     -0.40      1.03      3.46
      0.31      1.03      2.75
      0.79      0.79      2.27
      1.51      0.56      1.79
      2.23      0.08      1.55
      2.95     -0.16      1.31
      3.19     -0.16      1.31
      3.67     -0.16      1.31
      3.43     -0.16      1.07
      3.43      0.08      1.07
      2.95      0.08      0.59
      2.47      0.08      0.35
      1.99      0.08     -0.13
      1.75      0.32     -0.61
      1.51      0.32     -1.32
      1.27      0.56     -1.80
      1.27      1.03     -2.04
      1.27      1.27     -2.52
      1.27      1.51     -3.00
      1.03      1.51     -3.48
      1.27      1.51     -3.72
      1.27      1.27     -4.20
      1.27      1.27     -4.20
      1.27      1.03     -4.20
      1.03      0.79     -3.96
      0.79      0.56     -3.72
      0.31      0.32     -3.72
      0.08     -0.16     -3.48
     -0.16     -0.64     -3.24
     -0.40     -1.12     -3.24
     -0.64     -1.36     -3.24
     -0.88     -1.12     -3.48
     -1.12     -1.12     -3.48
     -1.36     -0.88     -3.72
     -1.60     -0.64     -3.72
     -2.08     -0.40     -3.72
     -2.32     -0.16     -3.72
     -2.32      0.08     -3.72
     -2.32      0.32     -3.48
     -2.08      0.32     -3.24
     -1.84      0.32     -2.76
     -1.84      0.32     -2.28
     -1.60      0.08     -2.04
     -1.60      0.08     -1.56
     -1.60      0.08     -1.32
     -1.60     -0.16     -1.32
     -1.60     -0.16     -1.08
     -1.60     -0.40     -0.85
     -1.60     -0.40     -0.85
     -1.84     -0.40     -0.85
     -2.08     -0.40     -0.61
     -2.08     -0.16     -0.37
     -2.08     -0.16     -0.13
     -1.84      0.08      0.11
     -1.36      0.08      0.35
     -0.88      0.32      0.59
     -0.40      0.32      0.59
     -0.16      0.32      0.59
      0.08      0.32      0.83
      0.31      0.56      0.83
      0.31      0.56      0.59
      0.31      0.56      0.59
      0.55      0.56      0.35
      0.55      0.32      0.11
      0.55      0.32      0.11
      0.55      0.08      0.11
      0.55     -0.16      0.11
      0.55     -0.40      0.11
      0.79     -0.64      0.35
      0.79     -0.88      0.35
      1.03     -1.12      0.35
      1.03     -1.36      0.59
      1.27     -1.36      0.83
      1.27     -1.36      1.07
      1.51     -1.12      1.31
      1.27     -0.88      1.55
      1.03     -0.64      1.79
      1.03     -0.16      1.79
      0.79     -0.16      1.79
      0.55      0.08      1.79
      0.55      0.32      1.79
      0.08      0.32      2.03
      0.08      0.32      2.51
      0.08      0.32      2.99
     -0.16      0.08      3.70
     -0.40     -0.16      3.94
     -0.64     -0.40      4.18
     -1.12     -0.16      4.18
     -1.36     -0.40      4.18
     -1.60     -0.40      3.94
     -1.84     -0.40      3.94
     -1.84     -0.16      3.70
     -1.60     -0.16      3.70
     -1.60      0.08      3.46
     -1.36      0.32      2.99
     -1.36      0.79      2.75
     -1.60      1.03      2.51
     -1.60      1.27      2.27
     -1.60      1.27      1.79
     -1.60      1.27      1.31
     -1.60      1.03      1.07
     -1.60      1.03      0.35
     -1.36      0.79     -0.13
     -1.60      0.56     -0.61
     -1.36      0.56     -1.32
     -1.36      0.32     -1.80
     -1.36      0.08     -2.04
     -1.12      0.08     -2.28
     -1.12     -0.16     -2.52
     -0.88     -0.40     -2.76
     -0.88     -0.40     -2.76
     -0.88     -0.40     -2.76
     -0.88     -0.40     -3.00
     -0.64     -0.64     -3.24
     -0.40     -0.64     -3.48
      0.08     -0.64     -3.72
      0.31     -0.64     -3.96
      1.03     -0.40     -4.20
      1.75     -0.40     -4.20
      2.47     -0.40     -4.20
      3.43     -0.40     -3.72
      3.91     -0.40     -3.48
      4.38     -0.40     -3.00
      4.62     -0.40     -2.28
      4.62     -0.16     -1.80
      4.38     -0.16     -1.32
      3.91      0.08     -0.85
      3.43      0.56     -0.61
      2.95      0.56     -0.61
      2.47      0.56     -0.61
      1.99      0.56     -0.85
      1.75      0.56     -0.85
      1.75      0.56     -0.85
      1.99      0.32     -0.61
      2.47      0.32     -0.37
      2.95      0.08     -0.13
      3.19     -0.16      0.11
      3.43     -0.40      0.35
      3.43     -0.40      0.59
      3.19     -0.64      0.83
      2.71     -0.64      1.07
      2.23     -0.40      1.55
      1.75     -0.64      1.79
      1.03     -0.40      2.03
      0.08     -0.40      2.27
     -0.40     -0.40      2.27
     -1.12     -0.40      2.27
     -1.60     -0.40      2.27
     -2.08     -0.64      2.27
     -2.08     -0.88      2.03
     -1.84     -0.88      2.03
     -1.60     -1.12      1.79
     -1.12     -1.36      1.79
     -0.64     -1.36      1.79
     -0.40     -1.12      2.03
     -0.16     -1.12      2.27
     -0.16     -0.64      2.51
     -0.40     -0.40      2.51
     -0.88      0.08      2.51
     -1.36      0.32      2.27
     -1.84      0.79      2.03
     -2.32      1.03      1.79
     -2.80      1.27      1.55
     -3.04      1.27      1.31
     -3.04      1.27      1.07
     -2.80      1.27      0.59
     -2.80      1.03      0.35
     -2.56      1.03     -0.13
     -2.32      0.79     -0.13
     -2.32      0.56     -0.37
     -2.56      0.56     -0.37
     -2.56      0.56     -0.61
     -2.80      0.79     -0.61
     -3.04      0.79     -0.85
     -3.28      0.79     -1.08
     -3.28      1.03     -1.32
     -3.28      1.03     -1.56
     -3.28      0.79     -1.80
     -3.04      0.56     -2.28
     -2.80      0.56     -2.28
     -2.32      0.08     -2.76
     -1.84     -0.16     -2.76
     -1.60     -0.40     -2.76
     -1.36     -0.40     -3.00
     -1.36     -0.40     -2.76
     -1.60     -0.64     -3.00
     -1.84     -0.64     -3.00
     -2.08     -0.40     -3.00
     -2.32     -0.40     -3.24
     -2.32     -0.16     -3.48
     -2.32     -0.16     -3.48
     -1.84      0.08     -3.96
     -1.36     -0.16     -4.20
     -0.88     -0.16     -4.44
     -0.40     -0.16     -4.68
      0.08     -0.16     -4.92
      0.55      0.08     -4.68
      1.03      0.56     -4.44
      1.27      0.79     -3.96
      1.51      0.79     -3.48
      1.51      1.03     -2.76
      1.27      0.79     -2.04
      1.03      0.56     -1.56
      0.55      0.32     -1.08
      0.31      0.32     -0.85
      0.08      0.08     -0.85
      0.08      0.08     -0.61
      0.31     -0.16     -0.37
      0.79     -0.40     -0.13
      1.51     -0.64      0.11
      1.99     -0.64      0.35
      2.47     -0.40      0.83
      2.95      0.08      1.07
      3.43      0.56      1.55
      3.43      0.79      1.79
      3.67      1.27      2.03
      3.43      1.27      2.27
      3.43      1.51      2.51
      3.43      1.51      2.75
      3.19      1.51      2.99
      2.95      1.27      3.22
      2.95      0.79      3.46
      3.19      0.32      3.46
      3.19     -0.16      3.70
      3.43     -0.40      3.70
      3.67     -0.88      3.70
      3.67     -1.12      3.70
      3.43     -1.12      3.70
      3.43     -1.36      3.70
      2.95     -1.36      3.94
      2.71     -1.12      3.94
      2.23     -0.88      3.94
      1.75     -0.64      3.94
      1.27     -0.16      3.70
      1.03      0.32      3.70
      0.79      0.56      3.46
      0.55      0.56      3.22
      0.31      0.56      3.22
      0.31      0.56      3.46
      0.08      0.32      3.46
      0.08      0.08      3.70
     -0.16     -0.16      3.70
     -0.64     -0.40      3.70
     -1.36     -0.40      3.70
     -2.08     -0.88      3.70
     -2.56     -1.12      3.46
     -3.04     -0.88      3.46
     -3.52     -0.88      3.22
     -3.52     -0.88      2.99
     -3.52     -0.88      2.99
     -3.28     -0.88      2.99
     -3.28     -0.64      3.22
     -3.04     -0.88      3.22
     -2.80     -0.64      2.99
     -2.80     -0.64      2.99
     -2.80     -0.64      2.51
     -2.80     -0.64      2.03
     -2.80     -0.64      1.55
     -2.80     -0.64      1.07
     -2.56     -0.64      0.35
     -2.56     -0.64     -0.13
     -2.56     -0.40     -0.85
     -2.56     -0.64     -1.32
     -2.56     -0.40     -1.80
     -2.32      0.08     -2.04
     -2.08      0.56     -2.28
     -1.84      0.56     -2.28
     -1.60      0.79     -2.52
     -1.12      1.03     -2.52
     -0.64      1.27     -2.76
     -0.40      1.27     -3.00
     -0.16      1.27     -3.48
     -0.16      1.03     -3.96
     -0.16      0.79     -4.44
     -0.16      0.56     -5.16
     -0.16      0.32     -5.87
      0.08      0.08     -6.35
      0.08     -0.16     -6.83
      0.08     -0.16     -7.31
      0.31     -0.40     -7.55
      0.55     -0.40     -7.55
      0.55     -0.40     -7.55
      0.79     -0.16     -7.31
      0.79      0.08     -7.31
      0.79      0.32     -7.31
      0.55      0.56     -7.07
      0.55      1.03     -6.83
      0.55      1.27     -6.59
      0.55      1.51     -6.11
      0.55      1.51     -5.87
      0.79      1.51     -5.39
      0.79      1.27     -5.16
      0.79      1.03     -5.16
      0.79      0.56     -4.92
      0.79      0.08     -4.92
      0.79     -0.40     -4.68
      0.79     -0.64     -4.44
      1.03     -0.64     -4.20
      1.27     -0.64     -3.96
      1.51     -0.64     -3.72
      1.99     -0.64     -3.48
      1.99     -0.64     -3.00
      2.23     -0.64     -2.28
      2.47     -0.64     -1.56
      2.47     -0.40     -0.85
      2.23     -0.64     -0.13
      2.23     -0.64      0.83
      1.99     -0.64      1.55
      1.75     -0.88      2.51
      1.27     -1.12      3.22
      0.79     -1.36      3.70
      0.31     -1.60      4.18
      0.08     -1.60      4.66
      0.08     -1.60      4.90
      0.08     -1.60      5.14
      0.08     -1.36      5.38
      0.08     -1.12      5.86
      0.31     -0.88      6.34
      0.55     -0.40      6.58
      0.55     -0.16      7.06
      0.79     -0.16      7.29
      0.55      0.08      7.53
      0.31      0.08      7.77
      0.08      0.08      7.77
     -0.16      0.08      7.53
     -0.64      0.08      7.29
     -1.36     -0.16      6.82
     -1.60     -0.16      6.34
     -2.08     -0.16      5.62
     -2.08      0.08      4.90
     -1.84     -0.16      4.42
     -1.60     -0.16      3.70
     -1.60     -0.16      3.22
     -1.36     -0.16      2.99
     -1.12     -0.16      2.75
     -1.12      0.08      2.99
     -1.36      0.32      2.99
     -1.36      0.56      2.99
     -1.60      1.03      2.75
     -1.60      1.51      2.51
     -1.60      1.51      2.27
     -1.60      1.51      1.79
     -1.60      1.51      1.31
     -1.36      1.51      1.07
     -0.88      1.27      0.59
     -0.64      1.03      0.11
     -0.64      1.03      0.11
     -0.40      0.79     -0.13
     -0.16      0.56     -0.13
     -0.16      0.32      0.11
     -0.16      0.08      0.11
     -0.16     -0.16      0.11
     -0.40     -0.16      0.11
     -0.40     -0.16     -0.13
     -0.64     -0.16     -0.37
     -0.64     -0.40     -1.08
     -0.88     -0.40     -1.80
     -1.12     -0.64     -2.52
     -1.12     -0.88     -3.24
     -1.12     -1.12     -3.48
     -0.88     -1.12     -3.72
     -0.64     -1.36     -4.20
     -0.40     -1.36     -4.20
     -0.16     -1.36     -4.44
      0.08     -1.36     -4.44
      0.31     -1.36     -4.68
      0.55     -1.12     -4.68
      0.55     -0.88     -4.68
      0.55     -0.64     -4.68
      0.31     -0.40     -4.68
      0.31     -0.16     -4.68
      0.08      0.08     -4.68
      0.08      0.32     -4.68
     -0.16      0.56     -4.92
     -0.16      0.79     -4.92
     -0.16      0.56     -4.92
     -0.16      0.56     -4.68
      0.08      0.56     -4.20
      0.08      0.32     -3.72
      0.31      0.32     -3.24
      0.31      0.32     -2.52
      0.55      0.08     -2.04
      0.55      0.08     -1.56
      0.55      0.08     -1.08
      0.55      0.08     -0.61
      0.55      0.08     -0.13
      0.55      0.32     -0.13
      0.55      0.32     -0.13
      0.55      0.32     -0.13
      0.79      0.56     -0.13
      0.79      0.79     -0.13
      0.79      1.03     -0.37
      1.03      1.27     -0.61
      1.03      1.27     -0.85
      1.03      1.03     -0.85
      1.27      0.79     -0.85
      1.27      0.79     -0.37
      1.03      0.79     -0.13
      0.79      0.79      0.35
      0.31      0.56      0.83
      0.31      0.32      1.31
      0.31     -0.16      1.79
      0.31     -0.16      2.51
      0.55     -0.40      2.99
      0.55     -0.40      3.22
      0.79     -0.40      3.22
      1.03     -0.40      2.99
      1.27     -0.16      2.99
      1.27     -0.16      2.99
      1.51      0.08      2.75
      1.51      0.08      2.75
      1.27      0.32      2.75
      1.27      0.08      2.99
      1.03      0.08      2.99
      1.03      0.08      3.22
      0.55      0.08      3.46
      0.31      0.32      3.46
      0.08      0.56      3.46
     -0.16      0.79      3.22
     -0.16      1.03      2.99
     -0.16      1.03      2.75
      0.08      1.27      2.75
      0.08      1.51      2.51
      0.08      1.27      2.51
      0.08      1.27      2.27
      0.31      1.27      2.27
      0.31      1.51      2.51
      0.55      1.03      2.75
      0.79      0.79      2.99
      0.79      0.56      3.22
      1.03      0.32      3.46
      1.27     -0.16      3.46
      1.51     -0.40      3.46
      1.51     -0.64      3.22
      1.75     -0.88      2.99
      1.75     -1.12      2.51
      1.75     -1.12      1.79
      1.99     -0.88      1.31
      1.75     -0.88      0.83
      1.51     -0.88      0.35
      1.51     -0.64     -0.13
      1.27     -0.40     -0.37
      1.03     -0.16     -0.61
      1.03      0.08     -0.85
      1.03      0.08     -1.08
      1.03      0.32     -1.08
      1.03      0.32     -1.08
      1.03      0.08     -1.32
      1.03      0.08     -1.56
      1.03     -0.16     -1.80
      1.03     -0.40     -2.28
      0.79     -0.40     -2.76
      0.79     -0.64     -3.24
      0.55     -0.88     -3.72
      0.55     -1.12     -3.96
      0.55     -1.36     -3.96
      0.79     -1.60     -3.96
      0.79     -2.08     -3.72
      0.79     -2.32     -3.24
      0.79     -2.32     -2.76
      0.31     -2.56     -2.52
      0.08     -2.32     -2.28
     -0.64     -2.32     -2.28
     -1.36     -2.08     -2.28
     -2.08     -1.84     -2.28
     -2.80     -1.60     -2.52
     -3.28     -1.12     -2.76
     -3.52     -0.88     -2.76
     -3.52     -0.40     -2.76
     -3.52     -0.16     -2.52
     -3.52      0.08     -2.28
     -3.52      0.32     -1.80
     -3.28      0.56     -1.32
