********************************************************************************
               CENTRO DE INSTRUMENTACION Y REGISTRO SISMICO  A.C.  
                       Coordinacion de Servicios Tecnicos
     Anaxagoras 814, Col. Narvarte, Benito Juarez, C.P. 03020 Mexico, D.F.
            Tels. 687 45 42/ 687 45  82             Fax. 669 25 12
********************************************************************************
ARCHIVO ESTANDAR DE ACELERACION:
VERSION DEL FORMATO                    : 2.0
NOMBRE DEL ARCHIVO                     : AU469104.011
FECHA Y HORA DE CREACION               : 18 de enero 1996/17:14
REF. CATALOGO ACELEROGRAMAS, SMIS 1995 : REGISTRO No. 2742 /PAG. 261


================================================================================
DATOS DE LA ESTACION:
NOMBRE DE LA ESTACION                  : ANGEL URRAZA
CLAVE DE LA ESTACION                   : AU46
LOCALIZACION DE LA ESTACION            : Esc Sec Tec # 14, 5 de Mayo Av
                                       : Coyoacan y Angel Urraza, Col de
                                       : Valle, Benito Juarez
                                       :
                                       :
COORDENADAS DE LA ESTACION             : 19.383 LAT. N 
                                       : 99.168 LONG. W 
ALTITUD (msnm)                         : 2233
TIPO DE SUELO                          : TRANSICION
                                       : 
                                       : 
INSTITUCION RESPONSABLE                : CIRES
                                       :

================================================================================
DATOS DEL ACELEROGRAFO:
MODELO DEL ACELEROGRAFO                : DCA-333
NUMERO DE SERIE DEL ACELEROGRAFO       : 236
NUMERO DE CANALES                      : 3
ORIENTACION C1-C6 (rumbo;orientacion)  : /N00E/+V/N90W
ORIENTACION C7-C12 (rumbo;orientacion) :
VEL. DE MUESTREO, C1-C6 (muestras/s)   : /100/100/100
VEL. DE MUESTREO, C7-C12 (muestras/s)  :
ESC. COMPLETA DE SENSORES, C1-C6, (g)  : /0.5/0.5/0.5
ESC. COMPLETA DE SENSORES, C7-C12, (g) :
FREC. NAT. DE SENSORES, C1-C6, (Hz)    : /33/30/30
FREC. NAT. DE SENSORES, C7-C12, (Hz)   :
AMORTIGUAMIENTO DE SENSORES, C1-C6     : /0.735/0.733/0.730
AMORTIGUAMIENTO DE SENSORES, C7-C12    :
INTERVALO DE MUESTREO, C1-C6, (s)      : /0.01/0.01/0.01
INTERVALO DE MUESTREO, C7-C12, (s)     :
UMBRAL DE DISPARO, C1-C6, (Gal)        : /1.5/1.5/1.5
UMBRAL DE DISPARO, C7-C12, (Gal)       :
MEMORIA DE PREEVENTO (s)               : 4
TIEMPO DE POSEVENTO (s)                : 15


================================================================================
DATOS DEL SISMO:
FECHA DEL SISMO (GMT)                  : 01/ABR/91
HORA EPICENTRO (GMT)                   : 07:34:45,9 
MAGNITUD(ES)                           : /Mb=5.50/Ms=5.40/Mc=5.30
COORDENADAS DEL EPICENTRO              : 16.044 LAT. N 
                                       : 98.387 LONG. W 
PROFUNDIDAD FOCAL (km)                 : 25.6 
FUENTE DE LOS DATOS EPICENTRALES       : INSTITUTO DE INGENIERIA UNAM
                                       : 

================================================================================
DATOS DE ESTE REGISTRO:
HORA DE LA PRIMERA MUESTRA (GMT)       : 07:36:32.43
EXACTITUD DEL TIEMPO (s)               : 0.01
DURACION DEL REGISTRO (s), C1-C6       : /41.41/41.41/41.41
DURACION DEL REGISTRO (s), C7-C12      :
NUM. TOTAL DE MUESTRAS, C1-C6          : /4141/4141/4141
NUM. TOTAL DE MUESTRAS, C7-C12         :
ACEL. MAX. (Gal), C1-C6                : /2.10/0.81/2.40
ACEL. MAX., C1-C6, EN LA MUESTRA       :
ACEL. MAX. (Gal), C7-C12               :
ACEL. MAX., C7-C12, EN LA MUESTRA      :
UNIDADES DE LOS DATOS                  : Gal (cm/s/s)
FACTOR DE DECIMACION                   : 1
FORMATO DATOS (FORTRAN,10 campos/dato) : 3F10.2


================================================================================
CALIDAD DEL ACELEROGRAMA:
REGISTRO DIGITAL AL QUE FALTA UNA PARTE AL INICIO, CON TIEMPO
ABSOLUTO.

================================================================================
COMENTARIOS:














================================================================================
DATOS DE ACELERACION:
---------+---------+---------+---------+---------+---------+---------+---------+
   CANAL-1   CANAL-2   CANAL-3   CANAL-4   CANAL-5   CANAL-6   CANAL-7   CANAL-8
      N00E        +V      N90W
---------+---------+---------+---------+---------+---------+---------+---------+
     -0.29     -0.09      0.71
     -0.53     -0.09      0.71
     -0.53     -0.09      0.47
     -0.53     -0.09      0.47
     -0.53      0.15      0.23
     -0.53      0.15      0.23
     -0.53      0.15      0.23
     -0.77      0.15      0.23
     -0.53      0.15     -0.01
     -0.53      0.15     -0.01
     -0.53      0.15     -0.25
     -0.53     -0.09     -0.25
     -0.53     -0.09     -0.25
     -0.29     -0.09     -0.49
     -0.29     -0.09     -0.49
     -0.29     -0.09     -0.49
     -0.29     -0.09     -0.49
     -0.29     -0.09     -0.49
     -0.05     -0.09     -0.49
     -0.05     -0.33     -0.49
     -0.05     -0.33     -0.49
     -0.05     -0.33     -0.49
     -0.05     -0.09     -0.49
     -0.05     -0.09     -0.49
     -0.05     -0.09     -0.49
      0.18     -0.09     -0.49
      0.18      0.15     -0.49
      0.18      0.15     -0.49
      0.18      0.15     -0.49
      0.18      0.15     -0.49
      0.18      0.15     -0.49
      0.18      0.15     -0.49
      0.18      0.15     -0.49
      0.18      0.15     -0.49
      0.18      0.39     -0.49
      0.18      0.15     -0.49
      0.18      0.15     -0.49
      0.18     -0.09     -0.49
      0.18     -0.09     -0.49
      0.18     -0.09     -0.25
      0.18     -0.09     -0.25
      0.18     -0.09     -0.25
      0.18     -0.33     -0.01
      0.18     -0.33     -0.01
      0.18     -0.33     -0.01
      0.18     -0.33     -0.01
      0.18     -0.33     -0.01
      0.18     -0.33     -0.01
      0.18     -0.09     -0.01
     -0.05     -0.09     -0.01
     -0.05     -0.09     -0.25
     -0.05     -0.09     -0.25
     -0.05     -0.09     -0.25
     -0.05     -0.09     -0.25
     -0.05     -0.09     -0.25
     -0.05     -0.09     -0.25
     -0.29     -0.09     -0.01
     -0.29     -0.09     -0.01
     -0.29     -0.09     -0.01
     -0.05      0.15     -0.01
     -0.29     -0.09     -0.01
     -0.05     -0.09     -0.01
     -0.05     -0.09     -0.01
     -0.05     -0.09     -0.01
     -0.05     -0.09      0.23
     -0.05     -0.09      0.23
     -0.05     -0.09      0.23
     -0.05     -0.09      0.23
     -0.05     -0.09      0.23
     -0.05     -0.33      0.23
     -0.05     -0.33      0.23
     -0.29     -0.33      0.23
     -0.29     -0.33      0.23
     -0.29     -0.33      0.23
     -0.29     -0.33      0.23
     -0.29     -0.33      0.23
     -0.29     -0.33      0.23
     -0.29     -0.09      0.23
     -0.29     -0.09      0.23
     -0.29     -0.09      0.23
     -0.29     -0.09      0.23
     -0.29      0.15      0.23
     -0.29      0.15      0.23
     -0.29      0.15      0.23
     -0.29      0.15      0.23
     -0.53      0.15      0.23
     -0.53      0.15      0.47
     -0.53      0.15      0.47
     -0.53      0.15      0.47
     -0.53      0.39      0.47
     -0.53      0.15      0.23
     -0.53      0.15      0.47
     -0.53     -0.09      0.23
     -0.53     -0.09      0.23
     -0.53     -0.09      0.47
     -0.53      0.15      0.23
     -0.53     -0.09      0.23
     -0.29     -0.09      0.23
     -0.29     -0.09      0.23
     -0.29     -0.33      0.23
     -0.29     -0.33      0.23
     -0.29     -0.33      0.23
     -0.29     -0.09      0.23
     -0.29     -0.09     -0.01
     -0.29     -0.09     -0.01
     -0.29     -0.09     -0.01
     -0.29     -0.09     -0.01
     -0.05     -0.09     -0.01
     -0.05     -0.09     -0.01
     -0.05     -0.09     -0.01
      0.18     -0.09     -0.01
      0.18      0.15     -0.01
      0.18     -0.09     -0.01
      0.18     -0.09     -0.01
      0.18     -0.09     -0.01
      0.42     -0.09     -0.01
      0.42     -0.09     -0.01
      0.42     -0.09     -0.25
      0.42     -0.09     -0.25
      0.42     -0.09     -0.25
      0.18     -0.09     -0.25
      0.18     -0.09     -0.25
      0.18     -0.09     -0.49
      0.18     -0.09     -0.25
      0.18     -0.09     -0.49
      0.18     -0.09     -0.49
      0.18     -0.09     -0.49
      0.18     -0.09     -0.73
     -0.05     -0.09     -0.73
     -0.05     -0.09     -0.73
     -0.05     -0.09     -0.96
     -0.05     -0.09     -0.96
     -0.05     -0.09     -0.96
     -0.29     -0.09     -1.20
     -0.29     -0.09     -1.20
     -0.29     -0.09     -1.20
     -0.29     -0.09     -1.20
     -0.05     -0.09     -1.20
     -0.05     -0.09     -1.20
     -0.05     -0.09     -0.96
     -0.05     -0.33     -0.96
     -0.29     -0.33     -0.96
     -0.05     -0.33     -1.20
     -0.29     -0.33     -1.20
     -0.29     -0.33     -1.20
     -0.29     -0.33     -1.20
     -0.29     -0.33     -1.20
     -0.29     -0.33     -1.20
     -0.29     -0.33     -0.96
     -0.29     -0.33     -0.96
     -0.29     -0.33     -0.96
     -0.29     -0.09     -0.73
     -0.29     -0.09     -0.73
     -0.05     -0.09     -0.49
     -0.05     -0.09     -0.49
     -0.05     -0.09     -0.25
     -0.05      0.15     -0.25
      0.18      0.15     -0.01
     -0.05      0.15     -0.01
      0.18      0.15     -0.01
      0.18      0.15      0.23
      0.18      0.15      0.23
      0.18      0.15      0.23
      0.18      0.39      0.47
      0.18      0.39      0.47
      0.18      0.15      0.47
      0.18      0.15      0.47
      0.18      0.15      0.47
      0.18      0.15      0.47
      0.18      0.15      0.47
     -0.05      0.15      0.47
      0.18      0.15      0.47
      0.18      0.15      0.47
      0.18     -0.09      0.47
      0.18     -0.09      0.71
      0.18     -0.09      0.71
      0.18     -0.09      0.71
      0.18     -0.09      0.95
      0.18     -0.09      0.95
      0.18      0.15      0.95
      0.18      0.15      0.95
      0.42      0.15      1.19
      0.42      0.15      1.19
      0.42      0.15      1.19
      0.42     -0.09      0.95
      0.42      0.15      0.95
      0.42      0.15      0.95
      0.42     -0.09      0.95
      0.42     -0.09      0.95
      0.42      0.15      0.71
      0.42     -0.09      0.71
      0.66      0.15      0.71
      0.66     -0.09      0.71
      0.42     -0.09      0.71
      0.66     -0.09      0.47
      0.66     -0.09      0.47
      0.66     -0.09      0.47
      0.66     -0.09      0.47
      0.66      0.15      0.47
      0.66      0.15      0.47
      0.90      0.15      0.47
      0.90      0.15      0.47
      0.90      0.15      0.47
      0.90      0.15      0.47
      0.90      0.15      0.23
      0.90      0.15      0.23
      0.66      0.15      0.23
      0.66     -0.09      0.23
      0.66     -0.09     -0.01
      0.66     -0.09     -0.01
      0.42     -0.09     -0.01
      0.42      0.15     -0.25
      0.42     -0.09     -0.25
      0.42     -0.09     -0.25
      0.42     -0.09     -0.49
      0.42     -0.09     -0.49
      0.42     -0.09     -0.49
      0.42     -0.09     -0.49
      0.42     -0.09     -0.49
      0.42     -0.09     -0.73
      0.42     -0.09     -0.73
      0.42     -0.09     -0.73
      0.18     -0.09     -0.73
      0.18     -0.09     -0.73
      0.18      0.15     -0.96
     -0.05      0.15     -0.96
     -0.05      0.15     -0.96
     -0.29      0.39     -0.96
     -0.29      0.39     -0.96
     -0.29      0.39     -0.96
     -0.29      0.39     -1.20
     -0.29      0.63     -1.20
     -0.29      0.63     -1.20
     -0.29      0.63     -1.20
     -0.29      0.39     -1.20
     -0.29      0.39     -1.20
     -0.05      0.15     -1.20
     -0.05      0.15     -1.20
      0.18      0.15     -0.96
      0.18     -0.09     -0.96
      0.18     -0.09     -0.96
      0.18     -0.09     -0.96
      0.18     -0.09     -0.96
      0.18     -0.33     -0.96
      0.18     -0.09     -0.96
      0.18     -0.09     -0.96
      0.18     -0.09     -0.96
      0.18     -0.09     -0.96
      0.18     -0.09     -0.96
     -0.05     -0.09     -0.96
     -0.05     -0.09     -0.73
     -0.05      0.15     -0.73
     -0.05      0.15     -0.49
     -0.29      0.15     -0.25
     -0.05      0.15     -0.25
     -0.05      0.15     -0.01
     -0.05      0.15      0.23
     -0.05      0.39      0.23
     -0.05      0.15      0.23
      0.18      0.15      0.47
      0.18      0.15      0.47
      0.18      0.15      0.47
      0.18     -0.09      0.71
     -0.05     -0.09      0.71
     -0.05     -0.09      0.71
     -0.05     -0.33      0.71
     -0.05     -0.33      0.71
     -0.05     -0.33      0.95
     -0.29     -0.33      0.95
     -0.29     -0.33      0.95
     -0.29     -0.33      0.95
     -0.29     -0.33      0.95
     -0.05     -0.33      0.95
     -0.05     -0.09      0.95
     -0.05     -0.09      1.19
      0.18      0.15      1.43
      0.18      0.15      1.43
      0.18      0.39      1.67
      0.18      0.39      1.91
      0.42      0.63      1.91
      0.42      0.63      2.15
      0.42      0.63      2.15
      0.42      0.63      2.15
      0.42      0.63      2.15
      0.42      0.63      2.15
      0.42      0.39      2.15
      0.42      0.39      1.91
      0.42      0.15      1.91
      0.42      0.15      1.91
      0.18      0.15      1.67
      0.18     -0.09      1.67
      0.18     -0.09      1.67
      0.18     -0.09      1.43
      0.18     -0.09      1.43
      0.18     -0.09      1.19
      0.18     -0.09      1.19
      0.18      0.15      0.95
      0.18      0.15      0.95
      0.18      0.15      0.71
      0.42      0.39      0.71
      0.42      0.39      0.47
      0.18      0.39      0.23
      0.42      0.39      0.23
      0.42      0.39      0.23
      0.42      0.15     -0.01
      0.42      0.15     -0.25
      0.42      0.15     -0.25
      0.42     -0.09     -0.49
      0.18     -0.09     -0.49
      0.18     -0.33     -0.73
      0.18     -0.33     -0.73
      0.18     -0.33     -0.96
      0.18     -0.57     -1.20
      0.18     -0.57     -1.20
      0.18     -0.57     -1.44
     -0.05     -0.57     -1.44
     -0.05     -0.57     -1.68
     -0.05     -0.57     -1.68
     -0.29     -0.57     -1.92
     -0.29     -0.33     -1.92
     -0.29     -0.33     -2.16
     -0.29     -0.33     -2.16
     -0.29     -0.33     -2.16
     -0.29     -0.33     -2.40
     -0.53     -0.09     -2.40
     -0.53     -0.09     -2.40
     -0.53      0.15     -2.16
     -0.53      0.15     -2.16
     -0.53      0.15     -2.16
     -0.53      0.15     -2.16
     -0.77      0.15     -1.92
     -0.77      0.15     -1.92
     -0.77      0.15     -1.92
     -0.77     -0.09     -1.68
     -0.77     -0.09     -1.68
     -0.53     -0.09     -1.68
     -0.53     -0.09     -1.68
     -0.53     -0.09     -1.44
     -0.53     -0.33     -1.44
     -0.53     -0.33     -1.44
     -0.53     -0.33     -1.20
     -0.77     -0.33     -1.20
     -0.77     -0.33     -0.96
     -0.77     -0.33     -0.96
     -0.77     -0.09     -0.73
     -0.77     -0.09     -0.73
     -0.77     -0.09     -0.49
     -0.77     -0.09     -0.49
     -1.01      0.15     -0.25
     -1.01      0.15     -0.01
     -1.01      0.15     -0.01
     -1.01      0.15      0.23
     -1.01      0.15      0.23
     -1.01      0.15      0.23
     -0.77      0.39      0.47
     -0.77      0.39      0.71
     -0.77      0.39      0.71
     -0.77      0.39      0.95
     -0.53      0.39      0.95
     -0.53      0.39      1.19
     -0.53      0.39      1.19
     -0.53      0.39      1.19
     -0.53      0.39      1.19
     -0.29      0.39      1.43
     -0.29      0.15      1.43
     -0.29      0.15      1.43
     -0.29      0.15      1.67
     -0.29     -0.09      1.67
     -0.29     -0.09      1.67
     -0.29     -0.09      1.67
     -0.29     -0.33      1.67
     -0.05     -0.33      1.91
     -0.05     -0.33      1.67
     -0.05     -0.33      1.91
     -0.05     -0.33      1.67
     -0.05     -0.33      1.67
      0.18     -0.33      1.67
      0.18     -0.33      1.67
      0.18     -0.09      1.67
      0.18     -0.33      1.43
      0.42     -0.33      1.43
      0.42     -0.33      1.43
      0.42     -0.33      1.43
      0.66     -0.09      1.19
      0.66     -0.09      1.19
      0.66     -0.33      1.19
      0.66     -0.33      0.95
      0.66     -0.33      0.71
      0.66     -0.33      0.71
      0.66     -0.33      0.47
      0.66     -0.33      0.23
      0.66     -0.33      0.23
      0.42     -0.33      0.23
      0.42     -0.33     -0.01
      0.42     -0.33     -0.01
      0.42     -0.57     -0.01
      0.42     -0.33     -0.25
      0.42     -0.33     -0.25
      0.42     -0.33     -0.49
      0.42     -0.33     -0.49
      0.42     -0.09     -0.49
      0.42     -0.09     -0.73
      0.66     -0.09     -0.96
      0.66     -0.09     -0.96
      0.66     -0.09     -1.20
      0.42     -0.09     -1.20
      0.42      0.15     -1.20
      0.42      0.15     -1.44
      0.42      0.15     -1.44
      0.18      0.15     -1.44
      0.18      0.15     -1.44
      0.18     -0.09     -1.68
      0.18      0.15     -1.68
      0.18      0.15     -1.68
      0.18      0.15     -1.68
      0.18      0.15     -1.92
      0.18      0.15     -1.92
      0.18      0.15     -1.92
      0.18      0.15     -1.92
      0.18     -0.09     -1.68
      0.18     -0.09     -1.68
      0.18     -0.09     -1.68
      0.18     -0.09     -1.44
      0.18     -0.09     -1.44
     -0.05     -0.09     -1.20
     -0.05     -0.09     -1.20
     -0.05     -0.09     -0.96
     -0.05     -0.09     -0.96
     -0.05     -0.09     -0.96
     -0.05     -0.09     -0.73
     -0.05      0.15     -0.73
     -0.29      0.15     -0.73
     -0.29      0.15     -0.49
     -0.29      0.15     -0.49
     -0.29      0.15     -0.25
     -0.53      0.15     -0.25
     -0.53     -0.09     -0.25
     -0.53     -0.09     -0.01
     -0.77      0.15     -0.01
     -0.77     -0.09      0.23
     -0.77     -0.09      0.23
     -0.77     -0.09      0.23
     -1.01     -0.09      0.47
     -0.77     -0.09      0.47
     -1.01     -0.09      0.71
     -0.77     -0.09      0.71
     -0.77     -0.09      0.71
     -0.77     -0.33      0.95
     -0.53     -0.33      0.95
     -0.53     -0.09      0.95
     -0.53     -0.33      1.19
     -0.53     -0.33      0.95
     -0.53     -0.33      0.95
     -0.53     -0.09      0.95
     -0.53     -0.09      0.95
     -0.53     -0.09      0.95
     -0.53     -0.09      0.95
     -0.53     -0.09      0.95
     -0.53      0.15      0.95
     -0.53      0.15      0.95
     -0.53      0.39      1.19
     -0.29      0.15      1.19
     -0.05      0.15      1.19
     -0.05      0.15      1.43
      0.18      0.15      1.43
      0.18      0.15      1.67
      0.18      0.15      1.67
      0.18      0.15      1.91
      0.42      0.15      1.91
      0.42      0.15      1.67
      0.42      0.15      1.67
      0.18      0.15      1.67
      0.18      0.15      1.43
      0.42     -0.09      1.19
      0.42     -0.09      0.95
      0.18     -0.09      0.71
      0.18     -0.09      0.47
      0.18     -0.09      0.47
      0.18     -0.33      0.23
      0.18     -0.33      0.23
      0.18     -0.33     -0.01
      0.18     -0.33     -0.01
      0.18     -0.33     -0.25
      0.18     -0.33     -0.49
      0.18     -0.09     -0.49
      0.18     -0.09     -0.49
      0.18     -0.09     -0.49
      0.18     -0.09     -0.49
      0.42     -0.09     -0.73
      0.42     -0.09     -0.49
      0.42     -0.09     -0.49
      0.42     -0.09     -0.49
      0.66     -0.09     -0.49
      0.66     -0.09     -0.49
      0.66     -0.09     -0.49
      0.66     -0.09     -0.49
      0.66     -0.09     -0.49
      0.42     -0.09     -0.49
      0.42     -0.09     -0.49
