********************************************************************************
               CENTRO DE INSTRUMENTACION Y REGISTRO SISMICO  A.C.  
                       Coordinacion de Servicios Tecnicos
     Anaxagoras 814, Col. Narvarte, Benito Juarez, C.P. 03020 Mexico, D.F.
            Tels. 687 45 42/ 687 45  82             Fax. 669 25 12
********************************************************************************
ARCHIVO ESTANDAR DE ACELERACION:
VERSION DEL FORMATO                    : 2.0
NOMBRE DEL ARCHIVO                     : AU469804.201
FECHA Y HORA DE CREACION               : 19/ENERO/2000. 10:15 
REF. CATALOGO ACELEROGRAMAS, SMIS 1996 : REGISTRO No.     /PAG.


================================================================================
DATOS DE LA ESTACION:
NOMBRE DE LA ESTACION                  : ANGEL URRAZA
CLAVE DE LA ESTACION                   : AU46
LOCALIZACION DE LA ESTACION            : Esc Sec Tec # 14, 5 de Mayo Av
                                       : Coyoacan y Angel Urraza, Col de
                                       : Valle, Benito Juarez
                                       :
                                       :
COORDENADAS DE LA ESTACION             : 19.383 LAT. N 
                                       : 99.168 LONG. W 
ALTITUD (msnm)                         : 2233
TIPO DE SUELO                          : TRANSICION
                                       : 
                                       : 
INSTITUCION RESPONSABLE                : CIRES
                                       :

================================================================================
DATOS DEL ACELEROGRAFO:
MODELO DEL ACELEROGRAFO                : RAD-851
NUMERO DE SERIE DEL ACELEROGRAFO       : 236
NUMERO DE CANALES                      : 3
ORIENTACION C1-C6 (rumbo;orientacion)  : /N00E/+V/N90W
ORIENTACION C7-C12 (rumbo;orientacion) :
VEL. DE MUESTREO, C1-C6 (muestras/s)   : /100/100/100
VEL. DE MUESTREO, C7-C12 (muestras/s)  :
ESC. COMPLETA DE SENSORES, C1-C6, (g)  : /0.5/0.5/0.5
ESC. COMPLETA DE SENSORES, C7-C12, (g) :
FREC. NAT. DE SENSORES, C1-C6, (Hz)    : /33/30/30
FREC. NAT. DE SENSORES, C7-C12, (Hz)   :
AMORTIGUAMIENTO DE SENSORES, C1-C6     : /0.735/0.733/0.730
AMORTIGUAMIENTO DE SENSORES, C7-C12    :
INTERVALO DE MUESTREO, C1-C6, (s)      : /0.01/0.01/0.01
INTERVALO DE MUESTREO, C7-C12, (s)     :
UMBRAL DE DISPARO, C1-C6, (Gal)        : /1.45/2.44/1.45
UMBRAL DE DISPARO, C7-C12, (Gal)       :
MEMORIA DE PREEVENTO (s)               : 8
TIEMPO DE POSEVENTO (s)                : 8


================================================================================
DATOS DEL SISMO:
FECHA DEL SISMO (GMT)                  : 20/ABR/98
HORA EPICENTRO (GMT)                   : 22:59:17.00
MAGNITUD(ES)                           : /Mb=5.4/Mc=5.0/Ma=5.5/Me=5.7
COORDENADAS DEL EPICENTRO              : 18.37 LAT. N
                                       : 101.21 LONG. W
PROFUNDIDAD FOCAL (km)                 : 66.0
FUENTE DE LOS DATOS EPICENTRALES       : SSN
                                       : INSTITUTO DE GEOFISICA, UNAM

================================================================================
DATOS DE ESTE REGISTRO:
HORA DE LA PRIMERA MUESTRA (GMT)       : 23:00:29.00
EXACTITUD DEL TIEMPO (s)               : 0.01
DURACION DEL REGISTRO (s), C1-C6       : /110.75/110.75/110.75
DURACION DEL REGISTRO (s), C7-C12      :
NUM. TOTAL DE MUESTRAS, C1-C6          : /11075/11075/11075
NUM. TOTAL DE MUESTRAS, C7-C12         :
ACEL. MAX. (Gal), C1-C6                : /4.46504/1.36282/3.97628
ACEL. MAX., C1-C6, EN LA MUESTRA       :
ACEL. MAX. (Gal), C7-C12               :
ACEL. MAX., C7-C12, EN LA MUESTRA      :
UNIDADES DE LOS DATOS                  : Gal (cm/s/s)
FACTOR DE DECIMACION                   : 1
FORMATO DATOS (FORTRAN,10 campos/dato) : 3F10.5


================================================================================
CALIDAD DEL ACELEROGRAMA:
REGISTRO DIGITAL COMPLETO CON TIEMPO ABSOLUTO CORRECTO.


================================================================================
COMENTARIOS:














================================================================================
DATOS DE ACELERACION:
---------+---------+---------+---------+---------+---------+---------+---------+
   CANAL-1   CANAL-2   CANAL-3   CANAL-4   CANAL-5   CANAL-6   CANAL-7   CANAL-8
      N00E        +V      N90W
---------+---------+---------+---------+---------+---------+---------+---------+
[...]
  -0.63434  -0.79195   0.62441
  -0.63434  -0.79195   0.62441
  -0.63434  -0.79195   0.62441
  -0.63434  -0.79195   0.86383
  -0.63434  -0.55253   1.10325
  -0.63434  -0.55253   1.34267
  -0.63434  -0.31311   1.58209
  -0.63434  -0.31311   1.58209
  -0.63434  -0.07370   1.82151
  -1.11317  -0.07370   1.82151
  -0.63434   0.40514   1.82151
  -0.87375   0.40514   1.58209
  -0.63434   0.40514   1.58209
  -0.63434   0.40514   1.34267
  -0.63434   0.40514   1.58209
  -0.63434   0.16572   1.58209
  -0.63434  -0.07370   1.58209
  -0.63434  -0.07370   1.34267
  -0.39492  -0.31311   1.34267
  -0.39492  -0.31311   1.10325
  -0.39492  -0.31311   1.10325
  -0.39492  -0.31311   1.34267
  -0.39492  -0.55253   1.34267
  -0.39492  -0.55253   1.34267
  -0.39492  -0.31311   1.34267
  -0.39492  -0.31311   1.10325
  -0.39492  -0.07370   1.10325
  -0.39492  -0.07370   0.86383
  -0.39492   0.16572   1.10325
  -0.15550   0.40514   0.86383
  -0.15550   0.40514   0.62441
   0.08392   0.64456   0.62441
   0.08392   0.40514   0.62441
   0.32334   0.16572   0.38499
   0.32334   0.16572   0.62441
   0.32334   0.16572   0.38499
   0.56276   0.16572   0.38499
   0.32334   0.16572   0.14558
   0.32334   0.16572   0.14558
   0.32334  -0.07370   0.14558
   0.32334  -0.07370  -0.09384
   0.32334  -0.31311  -0.09384
   0.08392  -0.07370  -0.33326
   0.08392  -0.07370  -0.33326
   0.08392   0.16572  -0.57268
  -0.15550  -0.07370  -0.57268
   0.08392  -0.07370  -0.57268
   0.08392   0.16572  -0.57268
  -0.15550   0.16572  -0.57268
  -0.15550   0.16572  -0.33326
  -0.15550   0.16572  -0.57268
  -0.63434   0.16572  -0.57268
  -0.39492   0.16572  -0.33326
  -0.63434   0.16572  -0.57268
  -0.63434   0.40514  -0.57268
  -0.63434   0.40514  -0.81210
  -0.87375   0.40514  -0.81210
  -0.63434   0.40514  -0.81210
  -0.87375   0.16572  -0.57268
  -0.87375  -0.07370  -0.81210
  -0.87375  -0.07370  -0.81210
  -0.87375  -0.31311  -0.81210
  -0.63434  -0.31311  -1.05152
  -0.87375  -0.31311  -1.05152
  -0.87375  -0.55253  -1.05152
  -0.63434  -0.55253  -1.05152
  -0.39492  -0.55253  -1.05152
  -0.15550  -0.55253  -0.81210
   0.08392  -0.55253  -1.05152
   0.08392  -0.55253  -0.81210
   0.08392  -0.55253  -0.81210
   0.32334  -0.55253  -0.81210
   0.08392  -0.31311  -0.81210
   0.32334  -0.31311  -0.81210
   0.32334  -0.07370  -0.81210
   0.08392  -0.31311  -0.81210
   0.08392  -0.07370  -0.81210
   0.08392   0.16572  -0.81210
   0.08392   0.16572  -0.57268
   0.08392   0.16572  -0.33326
   0.08392   0.16572  -0.33326
   0.08392   0.16572  -0.09384
   0.08392  -0.07370  -0.09384
   0.08392   0.16572   0.14558
   0.08392   0.16572   0.14558
   0.56276   0.16572   0.38499
   0.08392   0.16572   0.62441
   0.32334  -0.07370   0.62441
   0.32334  -0.07370   0.62441
   0.08392  -0.07370   0.62441
   0.32334  -0.07370   0.62441
   0.32334  -0.07370   0.62441
   0.32334  -0.07370   0.86383
   0.32334  -0.07370   1.10325
   0.32334  -0.07370   1.34267
   0.08392  -0.07370   1.58209
   0.08392  -0.07370   1.34267
  -0.15550   0.16572   1.58209
  -0.15550  -0.07370   1.34267
  -0.15550   0.16572   1.34267
   0.08392   0.16572   1.58209
  -0.15550  -0.07370   1.58209
  -0.15550  -0.07370   1.58209
  -0.15550   0.16572   1.58209
  -0.15550   0.16572   1.58209
  -0.15550  -0.07370   1.82151
  -0.15550  -0.07370   1.82151
  -0.15550  -0.07370   1.82151
  -0.39492  -0.07370   1.58209
  -0.39492   0.16572   1.10325
  -0.39492   0.16572   0.86383
  -0.39492  -0.07370   0.62441
  -0.39492  -0.07370   0.38499
  -0.39492  -0.07370   0.14558
  -0.39492   0.16572   0.14558
  -0.63434  -0.07370   0.14558
  -0.63434  -0.31311   0.14558
  -0.63434  -0.07370  -0.09384
  -0.63434   0.40514  -0.09384
  -0.87375   0.40514  -0.09384
  -0.63434   0.40514  -0.33326
  -0.63434   0.16572  -0.33326
  -0.63434   0.16572  -0.33326
  -0.39492   0.16572  -0.33326
  -0.15550   0.16572  -0.09384
  -0.15550   0.40514  -0.33326
   0.08392   0.16572  -0.57268
   0.08392   0.16572  -0.81210
   0.08392   0.16572  -0.81210
   0.08392   0.16572  -0.81210
   0.32334   0.40514  -0.81210
   0.08392   0.40514  -0.81210
   0.08392   0.16572  -0.57268
   0.08392   0.16572  -0.81210
   0.08392  -0.07370  -0.81210
   0.32334  -0.07370  -0.57268
   0.32334   0.16572  -0.81210
   0.08392   0.16572  -0.81210
   0.08392   0.16572  -0.81210
   0.08392   0.16572  -0.81210
   0.56276   0.16572  -0.81210
   0.56276   0.16572  -0.57268
   0.80218  -0.07370  -0.57268
   1.04160  -0.31311  -0.81210
   1.04160  -0.07370  -0.81210
   1.28102   0.16572  -0.81210
   1.28102  -0.07370  -1.05152
   1.28102   0.16572  -0.57268
   1.52043  -0.07370  -0.57268
   1.52043  -0.07370  -0.33326
   1.28102  -0.07370   0.14558
   1.28102  -0.31311   0.38499
   1.28102  -0.07370   0.38499
   1.28102  -0.07370   0.38499
   1.28102   0.16572   0.62441
   1.52043   0.16572   0.62441
   1.28102   0.16572   0.62441
   1.28102   0.40514   0.62441
   1.28102   0.40514   0.62441
   1.52043   0.16572   0.86383
   1.52043   0.16572   1.10325
   1.52043  -0.07370   1.10325
   1.52043   0.16572   1.10325
   1.28102   0.40514   1.10325
   1.04160   0.40514   0.86383
   0.80218   0.40514   1.34267
   0.80218   0.16572   1.34267
   0.56276   0.16572   1.34267
   0.80218  -0.07370   1.58209
   0.56276  -0.07370   1.10325
   0.56276  -0.07370   1.10325
   0.32334  -0.07370   1.10325
   0.08392  -0.31311   0.86383
   0.08392  -0.07370   0.86383
   0.08392  -0.31311   0.86383
   0.32334  -0.07370   0.62441
  -0.15550  -0.07370   0.62441
  -0.39492  -0.31311   0.38499
  -0.39492  -0.55253   0.14558
  -0.39492  -0.55253  -0.33326
  -0.63434  -0.31311  -0.33326
  -0.63434  -0.31311  -0.57268
  -0.87375  -0.31311  -0.57268
  -1.11317  -0.07370  -0.57268
  -1.35259  -0.31311  -0.81210
  -1.59201   0.16572  -1.05152
  -1.59201   0.16572  -1.05152
  -1.59201   0.16572  -0.81210
  -1.83143   0.16572  -1.05152
  -1.83143  -0.07370  -1.05152
  -2.07085  -0.07370  -1.05152
  -2.31027  -0.07370  -1.05152
  -2.54969  -0.07370  -1.05152
  -2.54969  -0.07370  -1.05152
  -2.54969  -0.07370  -1.05152
  -2.78911  -0.07370  -1.05152
  -2.54969  -0.07370  -1.05152
  -2.78911  -0.07370  -1.05152
  -2.78911  -0.31311  -1.05152
  -3.02853  -0.31311  -1.29094
  -2.78911  -0.31311  -1.53036
  -2.54969  -0.07370  -1.53036
  -2.31027  -0.07370  -1.53036
  -2.07085  -0.07370  -1.29094
  -1.83143  -0.07370  -1.05152
  -1.83143  -0.07370  -1.29094
  -1.83143  -0.31311  -1.29094
  -1.59201  -0.07370  -0.81210
  -1.59201   0.16572  -0.81210
  -1.35259  -0.07370  -0.57268
  -1.11317  -0.07370  -0.57268
  -1.11317  -0.07370  -0.33326
  -0.87375  -0.07370  -0.33326
  -0.87375  -0.07370  -0.33326
  -0.63434  -0.07370   0.14558
  -0.39492  -0.07370   0.38499
   0.08392  -0.31311   0.38499
   0.56276  -0.31311   0.38499
   1.04160  -0.55253   0.38499
   1.28102  -0.55253   0.38499
   1.28102  -0.31311   0.38499
   1.52043  -0.31311   0.38499
   1.75985  -0.55253   0.62441
   1.99927  -0.55253   0.62441
   2.23869  -0.31311   0.86383
   2.47811  -0.07370   0.86383
   2.71753  -0.07370   0.86383
   2.71753  -0.31311   0.86383
   2.71753  -0.31311   0.62441
   2.95695  -0.31311   0.86383
   3.43579  -0.31311   1.10325
   3.43579  -0.31311   1.10325
   3.43579   0.16572   1.34267
   3.43579   0.16572   1.34267
   3.43579   0.16572   1.34267
   3.43579   0.16572   1.34267
   3.43579   0.16572   1.58209
   3.43579   0.40514   1.82151
   3.43579   0.40514   1.82151
   3.43579   0.40514   1.82151
   3.19637   0.40514   1.82151
   2.95695   0.16572   1.58209
   2.95695   0.40514   1.58209
   2.71753   0.16572   1.34267
   2.71753  -0.07370   1.34267
   2.47811  -0.07370   1.10325
   2.23869   0.16572   0.86383
   1.99927  -0.07370   0.86383
   1.52043  -0.07370   0.62441
   1.28102  -0.07370   0.62441
   0.80218  -0.31311   0.62441
   0.32334  -0.31311   0.38499
  -0.15550  -0.31311   0.38499
  -0.39492  -0.31311   0.38499
  -0.87375   0.16572   0.14558
  -0.87375  -0.07370  -0.09384
  -1.35259  -0.07370  -0.09384
  -1.59201   0.16572  -0.09384
  -1.83143   0.40514  -0.09384
  -1.83143   0.40514  -0.09384
  -2.31027   0.40514  -0.33326
  -2.31027   0.40514  -0.33326
  -2.54969   0.64456  -0.57268
  -2.54969   0.64456  -0.57268
  -2.78911   0.40514  -0.57268
  -3.02853   0.40514  -0.57268
  -3.02853   0.16572  -0.57268
  -3.02853  -0.07370  -0.81210
  -3.02853   0.16572  -0.81210
  -3.26794  -0.07370  -1.29094
  -3.26794  -0.31311  -1.05152
  -3.50736  -0.31311  -1.05152
  -3.50736  -0.31311  -1.53036
  -3.50736  -0.07370  -1.53036
  -3.50736   0.16572  -1.76978
  -3.50736   0.40514  -1.76978
  -3.26794   0.40514  -1.76978
  -3.50736   0.40514  -2.00920
  -3.02853   0.40514  -1.76978
  -3.02853   0.40514  -1.76978
  -2.78911   0.40514  -1.53036
  -2.54969   0.40514  -1.53036
  -2.31027   0.16572  -1.29094
  -2.07085   0.16572  -1.29094
  -1.83143  -0.07370  -1.05152
  -1.35259  -0.07370  -1.05152
  -1.35259  -0.07370  -1.05152
  -1.11317  -0.07370  -1.29094
  -0.87375  -0.31311  -1.29094
  -0.63434  -0.31311  -1.29094
  -0.39492  -0.31311  -1.05152
  -0.15550  -0.31311  -0.81210
   0.08392  -0.31311  -0.81210
   0.32334  -0.31311  -0.81210
   0.80218  -0.31311  -0.81210
   1.04160  -0.31311  -0.57268
   1.28102  -0.07370  -0.81210
   1.75985   0.16572  -0.57268
   1.99927   0.16572  -0.33326
   1.99927   0.16572  -0.33326
   2.47811   0.16572  -0.33326
   2.71753  -0.07370  -0.09384
   2.71753  -0.07370   0.14558
   3.19637   0.16572   0.38499
   3.19637  -0.07370   0.38499
   3.19637  -0.07370   0.38499
   3.43579  -0.07370   0.62441
   3.43579  -0.07370   0.62441
   3.43579  -0.07370   0.62441
   3.67521  -0.07370   0.86383
   3.91462  -0.07370   1.10325
   3.67521  -0.07370   0.86383
   3.67521  -0.07370   0.86383
   3.67521  -0.07370   0.62441
   3.67521  -0.07370   0.86383
   3.67521  -0.07370   0.86383
   3.43579  -0.07370   0.86383
   3.43579   0.16572   0.86383
   3.19637  -0.07370   0.86383
   2.95695   0.16572   1.10325
   2.47811  -0.07370   1.10325
   2.23869  -0.07370   1.34267
   1.99927  -0.07370   1.58209
   1.99927  -0.07370   1.34267
   1.75985  -0.31311   1.34267
   1.52043  -0.31311   1.34267
   1.04160  -0.31311   1.34267
   0.80218  -0.07370   1.10325
   0.56276  -0.07370   1.10325
   0.32334  -0.07370   1.10325
   0.08392  -0.07370   1.10325
  -0.15550  -0.07370   1.10325
  -0.39492  -0.07370   0.86383
  -0.63434  -0.07370   1.10325
  -1.11317  -0.07370   1.10325
  -1.59201  -0.07370   0.86383
  -1.83143  -0.07370   0.86383
  -2.31027   0.16572   0.62441
  -2.54969  -0.07370   0.62441
  -2.78911  -0.07370   0.62441
  -3.02853   0.16572   0.62441
  -3.26794   0.40514   0.62441
  -3.50736   0.40514   0.38499
  -3.50736   0.16572   0.14558
  -3.74678  -0.07370   0.14558
  -3.74678   0.16572  -0.09384
  -3.98620   0.16572  -0.09384
  -3.98620   0.16572  -0.09384
  -4.22562   0.16572  -0.33326
  -4.46504   0.16572  -0.57268
  -4.46504   0.16572  -0.81210
  -4.46504  -0.07370  -0.81210
  -4.22562  -0.07370  -0.81210
  -4.22562  -0.07370  -0.81210
  -4.22562  -0.07370  -1.05152
  -3.98620   0.16572  -0.81210
  -3.74678  -0.07370  -0.81210
  -3.26794   0.16572  -0.57268
  -3.02853   0.16572  -0.33326
  -2.78911  -0.07370  -0.33326
  -2.78911   0.16572  -0.57268
  -2.54969   0.16572  -0.57268
  -2.31027  -0.07370  -0.81210
  -2.31027  -0.07370  -0.81210
  -2.07085  -0.07370  -0.81210
  -1.83143  -0.07370  -0.81210
  -1.35259  -0.07370  -0.81210
  -1.11317  -0.07370  -1.05152
  -0.87375  -0.07370  -1.29094
  -0.15550  -0.07370  -1.29094
   0.08392  -0.07370  -1.53036
   0.56276  -0.07370  -1.53036
   0.80218  -0.31311  -1.53036
   1.04160  -0.07370  -1.53036
   1.28102  -0.07370  -1.29094
   1.52043   0.16572  -1.29094
   1.99927   0.16572  -1.29094
   1.75985   0.16572  -1.29094
   1.75985   0.16572  -1.29094
   1.99927   0.40514  -1.29094
   1.75985   0.40514  -1.05152
   1.75985   0.40514  -1.05152
   1.99927   0.40514  -0.81210
   1.99927   0.64456  -0.81210
   2.23869   0.64456  -0.81210
   1.99927   0.64456  -0.57268
   1.99927   0.40514  -0.57268
   2.23869   0.64456  -0.33326
   2.23869   0.88398  -0.33326
   2.23869   0.64456  -0.09384
   2.23869   0.40514   0.14558
   2.47811   0.40514   0.38499
   2.47811   0.16572   0.38499
   2.47811   0.16572   0.62441
   2.47811   0.16572   0.62441
   2.71753   0.16572   0.62441
   2.47811   0.16572   0.86383
   2.23869   0.16572   1.10325
   2.47811   0.16572   0.86383
   2.47811   0.16572   0.86383
   2.47811   0.16572   1.10325
   2.47811   0.16572   0.86383
   2.23869   0.16572   0.86383
   1.99927   0.16572   0.62441
   1.99927   0.40514   0.86383
   1.75985   0.16572   0.86383
   1.75985   0.16572   0.86383
   1.75985   0.16572   0.86383
   1.52043  -0.31311   1.10325
   1.28102  -0.07370   1.10325
   1.28102  -0.07370   1.34267
   1.04160  -0.07370   1.34267
   0.80218  -0.07370   1.10325
   0.80218  -0.07370   1.10325
   0.56276  -0.31311   0.86383
   0.32334  -0.31311   1.10325
   0.08392  -0.31311   1.34267
  -0.15550  -0.31311   1.34267
  -0.15550  -0.31311   1.34267
  -0.39492  -0.55253   1.10325
  -0.39492  -0.31311   1.10325
  -0.87375  -0.31311   1.10325
  -1.11317  -0.55253   1.34267
  -1.35259  -0.55253   1.34267
  -1.83143  -0.31311   1.10325
  -2.07085  -0.31311   0.86383
  -2.31027  -0.55253   0.62441
  -2.54969  -0.31311   0.62441
  -2.78911  -0.07370   0.86383
  -3.02853  -0.07370   0.86383
  -3.02853  -0.07370   0.86383
  -3.26794  -0.07370   0.86383
  -3.02853   0.16572   0.86383
  -3.02853   0.40514   0.86383
  -3.02853   0.64456   0.86383
  -2.78911   0.40514   1.10325
  -2.54969   0.40514   0.86383
  -2.31027   0.16572   0.86383
  -2.07085   0.16572   0.62441
  -2.07085   0.16572   0.38499
  -1.83143   0.16572   0.62441
  -1.83143   0.16572   0.38499
  -1.83143   0.16572   0.14558
  -1.59201  -0.07370  -0.09384
  -1.35259  -0.07370  -0.09384
  -1.11317  -0.07370  -0.33326
  -1.11317  -0.31311  -0.33326
  -0.87375  -0.31311  -0.57268
  -0.87375  -0.31311  -0.57268
  -0.39492  -0.07370  -0.57268
  -0.15550  -0.31311  -0.81210
  -0.15550  -0.07370  -1.05152
   0.08392   0.16572  -1.05152
   0.32334  -0.07370  -1.05152
   0.56276   0.16572  -1.05152
   0.80218   0.16572  -1.05152
   0.80218   0.40514  -1.05152
   0.80218   0.40514  -1.05152
   1.04160   0.40514  -1.29094
   1.28102   0.16572  -1.29094
   1.28102   0.40514  -1.29094
   1.52043   0.16572  -1.53036
   1.52043  -0.07370  -1.53036
   1.52043  -0.07370  -1.53036
   1.99927  -0.55253  -1.53036
   1.99927  -0.55253  -1.53036
   1.99927  -0.79195  -1.53036
   1.75985  -0.79195  -1.76978
   1.75985  -0.79195  -1.76978
   1.52043  -0.79195  -1.76978
   1.52043  -0.55253  -1.76978
   1.52043  -0.31311  -1.53036
   1.52043  -0.31311  -1.53036
   1.28102  -0.55253  -1.53036
   1.28102  -0.31311  -1.05152
   1.04160  -0.07370  -1.05152
   1.04160  -0.07370  -1.05152
   1.04160  -0.07370  -1.05152
   1.04160  -0.07370  -0.81210
   0.80218   0.16572  -0.81210
   0.80218  -0.07370  -0.57268
   0.56276  -0.07370  -0.57268
   0.32334  -0.07370  -0.57268
   0.08392  -0.31311  -0.33326
   0.08392  -0.31311  -0.33326
  -0.15550  -0.31311  -0.33326
  -0.39492  -0.31311  -0.33326
  -0.63434  -0.31311  -0.33326
  -0.39492  -0.55253  -0.09384
  -0.63434  -0.31311   0.38499
  -0.39492  -0.31311   0.62441
  -0.63434  -0.31311   0.86383
  -0.63434  -0.31311   1.10325
  -0.63434  -0.31311   0.86383
  -0.63434  -0.07370   0.86383
  -0.63434   0.16572   1.10325
  -0.63434   0.16572   1.34267
  -0.63434   0.40514   1.34267
  -0.87375   0.40514   1.10325
