********************************************************************************
              CENTRO DE INSTRUMENTACION Y REGISTRO SISMICO  A.C.

    Anaxagoras 814, Col. Narvarte, Benito Juarez, C.P. 03020 Mexico, D.F.
           Tels. 5687 45 42/ 5687 45  82             Fax. 5669 25 12
********************************************************************************
ARCHIVO ESTANDAR DE ACELERACION:
VERSION DEL FORMATO                    : 2.0
NOMBRE DEL ARCHIVO                     : AU4620120501163759
FECHA Y HORA DE CREACION               : 04/JUL/12, 14:46
REF. CATALOGO ACELEROGRAMAS, SMIS 1996 : REGISTRO No.     /PAG.


================================================================================
DATOS DE LA ESTACION:
NOMBRE DE LA ESTACION                  : ESC. SEC. TÉC. NO. 14
CLAVE DE LA ESTACION                   : AU46
LOCALIZACION DE LA ESTACION            : Del. Benito Juárez, Col. del Valle,    
                                       : Entre Angel Urraza y Coyoacán.         
                                       :                                        
                                       :                                        
                                       : 
COORDENADAS DE LA ESTACION             : 19.3832 LAT. N
                                       : 99.1681 LONG. W
ALTITUD (msnm)                         : 2233
TIPO DE SUELO                          : Transición                          
                                       :                           
                                       : 
INSTITUCION RESPONSABLE                : CIRES
                                       : 

================================================================================
DATOS DEL ACELEROGRAFO:
MODELO DEL ACELEROGRAFO                : RADESD
NUMERO DE SERIE DEL ACELEROGRAFO       : 236
NUMERO DE CANALES                      : 3
ORIENTACION C1-C6 (rumbo;orientacion)  : /N00E/+V/N90W
ORIENTACION C7-C12 (rumbo;orientacion) : 
VEL. DE MUESTREO, C1-C6 (muestras/s)   : /100/100/100
VEL. DE MUESTREO, C7-C12 (muestras/s)  : 
ESC. COMPLETA DE SENSORES, C1-C6, (g)  : /0.5/0.5/0.5
ESC. COMPLETA DE SENSORES, C7-C12, (g) : 
FREC. NAT. DE SENSORES, C1-C6, (Hz)    : /33/30/30
FREC. NAT. DE SENSORES, C7-C12, (Hz)   : 
AMORTIGUAMIENTO DE SENSORES, C1-C6     : /0.735/0.733/0.730
AMORTIGUAMIENTO DE SENSORES, C7-C12    : 
INTERVALO DE MUESTREO, C1-C6, (s)      : /0.01/0.01/0.01
INTERVALO DE MUESTREO, C7-C12, (s)     : 
UMBRAL DE DISPARO, C1-C6, (Gal)        : /1.68/4.31/1.92
UMBRAL DE DISPARO, C7-C12, (Gal)       : 
MEMORIA DE PREEVENTO (s)               : 56.0
TIEMPO DE POSEVENTO (s)                : 64.0


================================================================================
DATOS DEL SISMO:
FECHA DEL SISMO (GMT)                  : 01/MAY/12
HORA EPICENTRO (GMT)                   : 16:37:59.0
MAGNITUD(ES)                           : /Mc=5.6
COORDENADAS DEL EPICENTRO              : 18.20 LAT. N
                                       : 101.01 LONG. W
PROFUNDIDAD FOCAL (km)                 : 51
FUENTE DE LOS DATOS EPICENTRALES       : SSN
                                       : INSTITUTO DE GEOFISICA, UNAM

================================================================================
DATOS DE ESTE REGISTRO:
HORA DE LA PRIMERA MUESTRA (GMT)       : 16:39:09.00
EXACTITUD DEL TIEMPO (s)               : 0.01
DURACION DEL REGISTRO (s), C1-C6       : /143.0/143.0/143.0
DURACION DEL REGISTRO (s), C7-C12      : 
NUM. TOTAL DE MUESTRAS, C1-C6          : /14300/14300/14300
NUM. TOTAL DE MUESTRAS, C7-C12         : 
ACEL. MAX. (Gal), C1-C6                : /3.42962/1.55138/3.33722
ACEL. MAX., C1-C6, EN LA MUESTRA       : /5621/3145/6378
ACEL. MAX. (Gal), C7-C12               : 
ACEL. MAX., C7-C12, EN LA MUESTRA      : 
UNIDADES DE LOS DATOS                  : Gal (cm/s/s)
FACTOR DE DECIMACION                   : 1
FORMATO DATOS (FORTRAN,10 campos/dato) : 3F10.5


================================================================================
CALIDAD DEL ACELEROGRAMA:
REGISTRO DIGITAL COMPLETO CON TIEMPO ABSOLUTO CORRECTO.


================================================================================
COMENTARIOS:














================================================================================
DATOS DE ACELERACION:
---------+---------+---------+---------+---------+---------+---------+---------+
   CANAL-1   CANAL-2   CANAL-3   CANAL-4   CANAL-5   CANAL-6   CANAL-7   CANAL-8
      N00E        +V      N90W
---------+---------+---------+---------+---------+---------+---------+---------+
[...]
   0.40110   0.12457  -0.25409
   0.16168  -0.11485  -0.01467
  -0.07774  -0.11485  -0.01467
   0.16168  -0.35427  -0.01467
   0.16168  -0.11485  -0.25409
   0.16168  -0.35427  -0.25409
  -0.07774  -0.35427  -0.25409
  -0.07774  -0.35427  -0.01467
  -0.07774  -0.35427   0.22475
  -0.07774  -0.35427  -0.25409
  -0.07774  -0.11485  -0.01467
  -0.07774  -0.11485  -0.25409
  -0.31716  -0.11485   0.22475
  -0.07774  -0.11485  -0.01467
  -0.07774  -0.11485  -0.01467
  -0.31716  -0.11485  -0.01467
  -0.07774  -0.11485  -0.01467
  -0.31716  -0.11485   0.22475
  -0.31716  -0.35427   0.22475
  -0.31716  -0.11485   0.22475
  -0.07774  -0.11485   0.22475
  -0.07774  -0.35427   0.22475
  -0.07774  -0.11485   0.22475
  -0.07774  -0.35427   0.22475
  -0.07774  -0.11485   0.22475
   0.16168  -0.11485  -0.01467
   0.40110  -0.11485   0.22475
   0.16168  -0.11485   0.22475
   0.16168  -0.11485  -0.01467
   0.40110  -0.11485  -0.01467
   0.40110  -0.35427  -0.01467
   0.40110  -0.35427   0.22475
   0.40110  -0.59370  -0.01467
   0.40110  -0.59370   0.22475
   0.16168  -0.35427   0.22475
   0.16168  -0.35427   0.46417
   0.16168  -0.59370   0.46417
   0.16168  -0.11485   0.46417
  -0.31716  -0.11485   0.46417
  -0.31716  -0.11485   0.70359
  -0.31716  -0.11485   0.94301
  -0.31716   0.12457   0.70359
  -0.55658   0.12457   0.46417
  -0.55658   0.36399   0.70359
  -0.79600   0.36399   0.70359
  -0.55658   0.12457   0.70359
  -0.31716   0.36399   0.70359
  -0.31716   0.36399   0.70359
  -0.31716   0.60341   0.70359
  -0.31716   0.60341   0.94301
  -0.07774   0.60341   0.70359
   0.16168   0.84283   0.70359
   0.16168   0.36399   0.70359
   0.40110   0.36399   0.70359
   0.16168   0.36399   0.70359
   0.40110   0.12457   0.70359
   0.16168   0.12457   0.94301
  -0.07774   0.12457   0.94301
   0.16168   0.12457   1.18243
   0.16168   0.12457   0.94301
  -0.07774   0.36399   0.94301
  -0.07774   0.12457   1.18243
  -0.07774  -0.11485   1.18243
  -0.31716   0.12457   1.18243
  -0.55658   0.12457   0.94301
  -0.55658   0.36399   0.94301
  -0.55658   0.36399   0.94301
  -0.55658   0.12457   0.94301
  -0.55658   0.36399   0.70359
  -0.55658   0.12457   0.46417
  -0.55658   0.12457   0.22475
  -0.79600   0.36399   0.22475
  -0.79600   0.12457  -0.01467
  -0.79600  -0.11485  -0.01467
  -0.79600  -0.11485  -0.01467
  -0.31716  -0.35427  -0.25409
  -0.79600  -0.11485  -0.01467
  -0.79600  -0.35427  -0.01467
  -0.55658  -0.35427  -0.01467
  -0.55658  -0.35427  -0.01467
  -0.31716  -0.35427  -0.25409
  -0.55658  -0.11485  -0.25409
  -0.31716  -0.11485  -0.25409
  -0.31716  -0.11485  -0.25409
  -0.07774  -0.11485  -0.49351
  -0.07774  -0.11485  -0.73293
   0.16168   0.12457  -0.73293
   0.16168   0.12457  -0.73293
   0.16168   0.36399  -0.73293
   0.40110   0.36399  -0.73293
   0.40110   0.36399  -0.49351
   0.64052   0.12457  -0.73293
   0.64052   0.36399  -0.73293
   0.87994   0.36399  -0.73293
   1.11936   0.60341  -0.73293
   1.11936   0.36399  -0.49351
   1.35878   0.12457  -0.25409
   1.59820   0.12457  -0.49351
   1.83763   0.12457  -0.73293
   1.59820  -0.11485  -0.97235
   1.59820  -0.11485  -0.73293
   1.59820  -0.35427  -0.49351
   2.07705  -0.35427  -0.73293
   1.83763  -0.35427  -0.97235
   1.59820  -0.59370  -0.97235
   1.59820  -0.59370  -0.97235
   1.83763  -0.83312  -0.97235
   2.07705  -0.83312  -1.21177
   1.59820  -0.59370  -0.97235
   1.59820  -0.59370  -0.97235
   1.83763  -0.59370  -0.73293
   1.59820  -0.59370  -0.49351
   1.83763  -0.59370  -0.49351
   1.35878  -0.35427  -0.25409
   1.35878  -0.11485  -0.25409
   1.11936   0.12457  -0.01467
   0.87994   0.12457  -0.01467
   0.64052   0.12457  -0.01467
   0.40110   0.12457  -0.01467
   0.16168  -0.11485   0.22475
  -0.07774   0.12457   0.22475
  -0.07774  -0.11485   0.22475
  -0.55658  -0.11485   0.22475
  -0.55658  -0.35427   0.22475
  -0.79600  -0.35427   0.22475
  -0.79600  -0.35427   0.46417
  -1.03542  -0.35427   0.70359
  -1.03542  -0.35427   0.70359
  -1.27484  -0.59370   0.70359
  -1.51426  -0.59370   0.70359
  -1.51426  -0.35427   0.46417
  -1.27484  -0.11485   0.46417
  -1.51426  -0.35427   0.22475
  -1.75368   0.12457   0.46417
  -1.51426  -0.11485   0.46417
  -1.75368   0.12457   0.70359
  -1.75368   0.36399   0.46417
  -1.75368   0.36399   0.46417
  -2.23252   0.36399   0.70359
  -1.99310   0.36399   0.46417
  -1.75368   0.60341   0.46417
  -1.75368   0.60341   0.46417
  -1.99310   0.60341   0.46417
  -2.23252   0.60341   0.22475
  -2.23252   0.36399   0.70359
  -1.99310   0.60341   0.22475
  -2.23252   0.60341   0.22475
  -2.23252   0.84283  -0.01467
  -1.99310   0.60341  -0.01467
  -1.99310   0.60341   0.22475
  -1.75368   0.36399  -0.01467
  -1.51426   0.36399  -0.01467
  -1.27484   0.60341  -0.01467
  -1.03542   0.12457  -0.01467
  -0.79600  -0.11485  -0.01467
  -0.31716  -0.11485  -0.01467
  -0.31716  -0.11485  -0.25409
   0.16168  -0.35427  -0.01467
  -0.07774  -0.35427  -0.01467
   0.16168  -0.11485  -0.25409
   0.16168  -0.11485  -0.25409
   0.40110   0.12457  -0.25409
   0.64052   0.12457  -0.25409
   0.64052   0.36399  -0.25409
   0.87994   0.60341  -0.25409
   0.87994   0.60341  -0.49351
   0.87994   0.60341  -0.25409
   1.11936   0.84283  -0.25409
   1.11936   0.84283  -0.25409
   1.11936   1.08225  -0.25409
   1.11936   0.60341  -0.49351
   1.11936   0.60341  -0.25409
   1.11936   0.60341  -0.49351
   1.11936   0.36399  -0.49351
   0.64052   0.36399  -0.25409
   0.40110   0.12457  -0.49351
   0.64052  -0.35427  -0.25409
   0.64052  -0.35427  -0.25409
   0.64052  -0.35427  -0.25409
   0.40110  -0.59370  -0.25409
   0.64052  -0.59370  -0.01467
   0.64052  -0.83312  -0.25409
   0.64052  -0.83312  -0.25409
   0.64052  -0.83312  -0.25409
   0.64052  -0.59370  -0.01467
   0.40110  -0.35427  -0.25409
   0.64052  -0.83312  -0.01467
   0.64052  -0.35427  -0.25409
   0.64052  -0.35427  -0.25409
   0.64052  -0.35427  -0.01467
   0.64052  -0.11485  -0.25409
   0.64052   0.12457  -0.25409
   0.64052   0.12457  -0.25409
   0.64052   0.12457  -0.25409
   0.64052   0.12457  -0.25409
   0.64052  -0.11485  -0.49351
   0.40110  -0.11485  -0.25409
   0.64052  -0.35427  -0.49351
   0.64052  -0.35427  -0.49351
   0.64052  -0.59370  -0.49351
   0.64052  -0.59370  -0.73293
   0.40110  -0.35427  -0.73293
   0.16168  -0.59370  -0.73293
   0.16168  -0.59370  -0.73293
   0.16168  -0.35427  -0.73293
   0.16168  -0.35427  -0.73293
   0.16168  -0.35427  -0.97235
   0.16168  -0.11485  -0.97235
   0.16168  -0.11485  -0.73293
   0.16168  -0.35427  -0.49351
   0.40110  -0.11485  -0.49351
   0.87994   0.12457  -0.73293
   0.40110   0.36399  -0.49351
   0.64052   0.36399  -0.25409
   0.64052   0.36399  -0.25409
   0.64052   0.36399   0.22475
   0.64052   0.60341  -0.01467
   0.40110   0.60341   0.46417
   0.16168   0.36399   0.22475
  -0.07774   0.36399   0.46417
   0.16168   0.36399   0.46417
   0.16168   0.36399   0.70359
   0.16168   0.36399   0.46417
   0.16168   0.36399   0.46417
   0.16168   0.12457   0.46417
  -0.07774   0.12457   0.46417
  -0.07774   0.12457   0.46417
  -0.07774   0.12457   0.46417
  -0.31716   0.12457   0.46417
  -0.55658   0.12457   0.46417
  -0.55658   0.12457   0.22475
  -0.79600   0.12457   0.46417
  -0.79600   0.12457   0.46417
  -0.79600   0.36399   0.46417
  -0.79600   0.36399   0.70359
  -1.27484   0.36399   0.46417
  -1.27484   0.36399   0.46417
  -1.51426   0.36399   0.70359
  -1.27484   0.36399   0.46417
  -1.27484   0.36399   0.46417
  -1.51426   0.36399   0.70359
  -1.51426   0.12457   0.70359
  -1.51426   0.12457   0.94301
  -1.51426  -0.11485   0.94301
  -1.75368  -0.11485   0.94301
  -1.75368   0.12457   0.94301
  -1.75368  -0.11485   0.94301
  -1.75368  -0.35427   0.94301
  -1.51426  -0.11485   0.94301
  -1.27484  -0.35427   1.18243
  -1.51426  -0.35427   1.18243
  -1.51426  -0.59370   1.18243
  -1.27484  -0.35427   0.94301
  -1.27484  -0.59370   0.94301
  -1.03542  -0.35427   0.94301
  -0.79600  -0.11485   0.94301
  -0.55658   0.12457   0.94301
  -0.55658  -0.11485   0.94301
  -0.55658  -0.11485   0.70359
  -0.31716  -0.35427   0.70359
  -0.31716  -0.35427   0.70359
  -0.07774  -0.11485   0.70359
   0.16168   0.12457   0.70359
   0.40110  -0.11485   0.46417
   0.40110  -0.11485   0.22475
   0.64052  -0.35427   0.22475
   0.64052  -0.59370  -0.01467
   0.64052  -0.35427  -0.01467
   0.64052  -0.11485  -0.01467
   0.87994   0.12457  -0.01467
   0.87994  -0.35427  -0.01467
   1.11936  -0.35427   0.22475
   1.11936  -0.35427   0.22475
   1.11936  -0.11485  -0.01467
   1.11936   0.12457  -0.01467
   1.35878  -0.11485  -0.01467
   1.35878   0.12457  -0.01467
   1.35878   0.36399  -0.01467
   1.59820   0.36399   0.22475
   1.83763   0.60341   0.46417
   1.59820   0.60341   0.46417
   1.59820   0.60341  -0.25409
   1.83763   0.36399  -0.73293
   1.35878   0.36399  -0.97235
   1.59820   0.12457  -0.49351
   1.59820   0.36399  -0.25409
   1.59820   0.60341  -0.49351
   1.59820   0.60341  -0.97235
   1.59820   0.36399  -1.45119
   1.35878   0.36399  -1.45119
   1.35878   0.36399  -1.69061
   1.59820   0.60341  -1.45119
   1.35878   0.84283  -1.45119
   1.35878   0.36399  -1.69061
   1.11936  -0.11485  -1.69061
   1.11936  -0.35427  -1.93003
   1.11936   0.36399  -1.69061
   1.35878   0.60341  -1.69061
   1.11936   0.36399  -1.69061
   1.11936   0.12457  -1.93003
   0.87994  -0.35427  -1.93003
   0.64052  -0.11485  -1.45119
   0.64052   0.12457  -1.45119
   0.40110   0.12457  -1.45119
   0.16168  -0.11485  -2.16945
  -0.07774  -0.11485  -2.16945
  -0.07774  -0.11485  -1.93003
  -0.07774  -0.11485  -1.45119
  -0.31716   0.36399  -1.21177
  -0.31716  -0.11485  -1.69061
  -0.55658  -0.35427  -1.93003
  -0.79600  -0.59370  -2.16945
  -0.79600  -0.35427  -1.69061
  -0.79600  -0.11485  -1.45119
  -0.79600  -0.11485  -1.21177
  -1.27484  -0.35427  -1.21177
  -1.27484  -0.59370  -1.45119
  -1.27484  -0.35427  -1.21177
  -1.51426  -0.11485  -0.73293
  -1.75368  -0.11485  -0.73293
  -1.75368  -0.35427  -0.73293
  -1.99310  -0.59370  -0.73293
  -1.99310  -0.59370  -0.73293
  -2.23252  -0.35427  -0.01467
  -2.23252  -0.35427   0.22475
  -2.23252  -0.35427   0.22475
  -2.47194  -0.35427   0.22475
  -2.47194  -0.83312   0.46417
  -2.47194  -0.59370   0.70359
  -2.47194  -0.35427   0.94301
  -2.47194  -0.35427   1.42185
  -2.23252  -0.35427   1.18243
  -1.99310  -0.35427   1.42185
  -1.99310  -0.59370   1.66127
  -1.99310  -0.35427   1.90069
  -1.75368  -0.11485   2.37954
  -1.27484  -0.35427   2.61896
  -1.51426  -0.35427   2.61896
  -1.03542  -0.11485   2.61896
  -1.27484  -0.11485   2.61896
  -1.27484   0.12457   3.09780
  -1.03542  -0.11485   2.85838
  -0.79600   0.12457   2.85838
  -0.55658   0.12457   3.09780
  -0.55658   0.36399   3.09780
  -0.31716   0.36399   3.09780
   0.16168   0.36399   3.33722
   0.64052   0.36399   2.85838
   0.64052   0.60341   2.85838
   0.87994   0.60341   3.09780
   0.87994   0.60341   3.09780
   1.11936   0.60341   2.85838
   1.59820   0.60341   2.61896
   1.35878   0.60341   2.37954
   1.59820   0.60341   2.14011
   1.83763   0.60341   2.14011
   2.07705   0.36399   1.90069
   1.83763   0.36399   1.66127
   2.31647   0.36399   1.66127
   2.31647   0.12457   1.66127
   2.55589   0.12457   1.18243
   2.55589   0.36399   0.70359
   2.55589   0.36399   0.70359
   2.79531   0.12457   0.22475
   2.55589   0.36399  -0.01467
   2.31647   0.12457  -0.25409
   2.31647   0.12457  -0.25409
   2.07705   0.12457  -0.73293
   2.07705  -0.11485  -0.73293
   2.07705   0.12457  -1.21177
   1.59820   0.12457  -1.45119
   1.35878   0.12457  -1.45119
   1.35878   0.12457  -1.45119
   1.35878   0.12457  -1.69061
   1.35878   0.12457  -1.93003
   1.35878   0.12457  -2.16945
   1.11936   0.12457  -2.40887
   0.87994  -0.11485  -2.16945
   0.87994   0.12457  -2.16945
   0.87994  -0.11485  -2.16945
   0.64052  -0.11485  -2.40887
   0.64052  -0.11485  -2.40887
   0.16168  -0.35427  -2.16945
   0.16168  -0.59370  -2.16945
   0.16168  -0.35427  -1.93003
  -0.07774  -0.35427  -1.93003
  -0.07774  -0.59370  -1.93003
  -0.31716  -0.59370  -1.93003
  -0.55658  -0.59370  -1.69061
  -0.79600  -0.59370  -1.69061
  -0.55658  -0.59370  -1.69061
  -1.03542  -0.35427  -1.69061
  -1.03542  -0.35427  -1.45119
  -1.03542  -0.59370  -1.21177
  -1.27484  -0.59370  -1.21177
  -1.51426  -0.59370  -1.21177
  -1.27484  -0.35427  -0.97235
  -1.51426  -0.35427  -0.97235
  -1.75368  -0.35427  -0.73293
  -1.99310  -0.35427  -0.97235
  -1.75368  -0.35427  -0.73293
  -1.99310  -0.35427  -0.97235
  -1.99310  -0.35427  -0.73293
  -1.99310   0.12457  -0.73293
  -1.99310  -0.35427  -0.73293
  -1.99310  -0.11485  -0.73293
  -1.75368  -0.11485  -0.49351
  -1.51426  -0.35427  -0.49351
  -1.75368  -0.11485  -0.49351
  -1.51426   0.36399  -0.25409
  -1.51426   0.12457  -0.01467
  -1.27484   0.36399  -0.01467
  -1.03542   0.12457  -0.25409
  -0.79600   0.12457  -0.01467
  -0.79600   0.36399   0.22475
  -0.31716   0.36399   0.22475
  -0.31716   0.36399   0.46417
   0.16168   0.36399   0.22475
   0.16168   0.60341   0.22475
   0.16168   0.60341   0.22475
   0.40110   0.36399   0.46417
   0.87994   0.36399   0.94301
   0.87994   0.36399   0.94301
   0.87994   0.60341   1.18243
   0.87994   0.12457   0.94301
   1.11936   0.36399   1.18243
   1.11936   0.12457   1.18243
   1.35878   0.36399   1.18243
   1.35878   0.60341   1.42185
   1.35878   0.36399   1.66127
   1.11936   0.36399   1.66127
   1.35878   0.12457   1.66127
   1.35878  -0.11485   1.66127
   1.35878   0.12457   1.42185
   1.11936   0.12457   1.66127
   1.11936   0.12457   1.42185
   0.87994  -0.11485   1.66127
   0.87994  -0.11485   1.66127
   0.87994  -0.11485   1.42185
   0.87994  -0.11485   1.42185
   0.87994  -0.35427   1.42185
   0.64052   0.12457   1.42185
   0.64052  -0.11485   1.18243
   0.40110  -0.11485   1.18243
   0.40110  -0.11485   0.94301
   0.40110  -0.11485   0.94301
   0.40110  -0.11485   0.70359
   0.16168   0.12457   0.46417
   0.16168  -0.11485   0.46417
   0.40110  -0.11485   0.46417
   0.16168   0.12457   0.22475
   0.16168   0.12457  -0.01467
  -0.07774   0.12457  -0.01467
  -0.07774  -0.11485  -0.25409
  -0.31716   0.12457  -0.25409
  -0.07774  -0.11485  -0.49351
  -0.55658  -0.11485  -0.49351
  -0.55658  -0.11485  -0.49351
  -0.79600  -0.35427  -0.25409
  -0.79600  -0.35427  -0.01467
  -0.79600  -0.11485  -0.49351
  -1.03542  -0.35427  -0.73293
  -1.03542  -0.59370  -0.73293
  -1.03542  -0.59370  -0.73293
  -1.03542  -0.59370  -0.73293
  -0.55658  -0.59370  -0.73293
  -0.79600  -0.59370  -0.73293
  -0.79600  -0.83312  -0.97235
  -0.79600  -0.59370  -0.73293
  -0.55658  -0.59370  -0.73293
  -0.55658  -0.35427  -0.97235
  -0.55658   0.12457  -0.97235
  -0.79600   0.12457  -0.73293
  -0.55658  -0.11485  -0.97235
  -0.31716   0.12457  -0.97235
  -0.31716   0.36399  -0.73293
  -0.31716   0.36399  -0.49351
  -0.07774   0.60341  -0.25409
   0.16168   0.36399  -0.49351
  -0.07774   0.60341  -0.25409
  -0.07774   0.60341  -0.25409
   0.16168   0.36399  -0.01467
  -0.07774   0.60341   0.22475
  -0.07774   0.36399  -0.01467
  -0.55658   0.12457   0.22475
  -0.55658   0.12457   0.22475
  -0.55658  -0.11485   0.46417
  -0.31716  -0.11485   0.46417
  -0.31716   0.12457   0.46417
  -0.31716  -0.11485   0.46417
  -0.55658  -0.35427   0.46417
  -0.55658  -0.35427   0.46417
  -0.31716  -0.11485   0.22475
  -0.31716  -0.11485   0.46417
  -0.31716  -0.11485   0.22475
  -0.31716  -0.11485  -0.01467
