********************************************************************************
               CENTRO DE INSTRUMENTACION Y REGISTRO SISMICO  A.C.  
                       Coordinacion de Servicios Tecnicos
     Anaxagoras 814, Col. Narvarte, Benito Juarez, C.P. 03020 Mexico, D.F.
            Tels. 687 45 42/ 687 45  82             Fax. 669 25 12
********************************************************************************
ARCHIVO ESTANDAR DE ACELERACION:
VERSION DEL FORMATO                    : 2.0
NOMBRE DEL ARCHIVO                     : AU469906.151
FECHA Y HORA DE CREACION               : 10/FEBRERO/2000 8:55
REF. CATALOGO ACELEROGRAMAS, SMIS 1996 : REGISTRO No.     /PAG.


================================================================================
DATOS DE LA ESTACION:
NOMBRE DE LA ESTACION                  : ANGEL URRAZA
CLAVE DE LA ESTACION                   : AU46
LOCALIZACION DE LA ESTACION            : Esc Sec Tec # 14, 5 de Mayo Av
                                       : Coyoacan y Angel Urraza, Col de
                                       : Valle, Benito Juarez
                                       :
                                       :
COORDENADAS DE LA ESTACION             : 19.383 LAT. N 
                                       : 99.168 LONG. W 
ALTITUD (msnm)                         : 2233
TIPO DE SUELO                          : TRANSICION
                                       : 
                                       : 
INSTITUCION RESPONSABLE                : CIRES
                                       :

================================================================================
DATOS DEL ACELEROGRAFO:
MODELO DEL ACELEROGRAFO                : RAD-851
NUMERO DE SERIE DEL ACELEROGRAFO       : 236
NUMERO DE CANALES                      : 3
ORIENTACION C1-C6 (rumbo;orientacion)  : /N00E/+V/N90W
ORIENTACION C7-C12 (rumbo;orientacion) :
VEL. DE MUESTREO, C1-C6 (muestras/s)   : /100/100/100
VEL. DE MUESTREO, C7-C12 (muestras/s)  :
ESC. COMPLETA DE SENSORES, C1-C6, (g)  : /0.5/0.5/0.5
ESC. COMPLETA DE SENSORES, C7-C12, (g) :
FREC. NAT. DE SENSORES, C1-C6, (Hz)    : /33/30/30
FREC. NAT. DE SENSORES, C7-C12, (Hz)   :
AMORTIGUAMIENTO DE SENSORES, C1-C6     : /0.735/0.733/0.730
AMORTIGUAMIENTO DE SENSORES, C7-C12    :
INTERVALO DE MUESTREO, C1-C6, (s)      : /0.01/0.01/0.01
INTERVALO DE MUESTREO, C7-C12, (s)     :
UMBRAL DE DISPARO, C1-C6, (Gal)        : /1.45/2.44/1.45
UMBRAL DE DISPARO, C7-C12, (Gal)       :
MEMORIA DE PREEVENTO (s)               : 8
TIEMPO DE POSEVENTO (s)                : 8


================================================================================
DATOS DEL SISMO:
FECHA DEL SISMO (GMT)                  : 15/JUN/99
HORA EPICENTRO (GMT)                   : 20:42:07.1
MAGNITUD(ES)                           : /Mb=6.4/Ms=6.5/Me=7.0
COORDENADAS DEL EPICENTRO              : 18.18 LAT. N
                                       : 97.51 LONG. W
PROFUNDIDAD FOCAL (km)                 : 69.0
FUENTE DE LOS DATOS EPICENTRALES       : SSN
                                       : INSTITUTO DE GEOFISICA, UNAM

================================================================================
DATOS DE ESTE REGISTRO:
HORA DE LA PRIMERA MUESTRA (GMT)       : 20:43:00.00
EXACTITUD DEL TIEMPO (s)               : 0.01
DURACION DEL REGISTRO (s), C1-C6       : /175.75/175.75/175.75
DURACION DEL REGISTRO (s), C7-C12      :
NUM. TOTAL DE MUESTRAS, C1-C6          : /17575/17575/17575
NUM. TOTAL DE MUESTRAS, C7-C12         :
ACEL. MAX. (Gal), C1-C6                : /25.34420/11.76123/28.54893
ACEL. MAX., C1-C6, EN LA MUESTRA       :
ACEL. MAX. (Gal), C7-C12               :
ACEL. MAX., C7-C12, EN LA MUESTRA      :
UNIDADES DE LOS DATOS                  : Gal (cm/s/s)
FACTOR DE DECIMACION                   : 1
FORMATO DATOS (FORTRAN,10 campos/dato) : 3F10.5


================================================================================
CALIDAD DEL ACELEROGRAMA:
REGISTRO DIGITAL COMPLETO CON TIEMPO ABSOLUTO CORRECTO.


================================================================================
COMENTARIOS:














================================================================================
DATOS DE ACELERACION:
---------+---------+---------+---------+---------+---------+---------+---------+
   CANAL-1   CANAL-2   CANAL-3   CANAL-4   CANAL-5   CANAL-6   CANAL-7   CANAL-8
      N00E        +V      N90W
---------+---------+---------+---------+---------+---------+---------+---------+
[...]
  10.50023   2.60391  -3.05437
   9.30313   3.08275  -2.81495
   8.10604   3.56159  -2.81495
   6.66952   3.80101  -2.33612
   5.23301   3.80101  -1.61786
   3.55708   3.08275  -0.89960
   2.12056   2.60391  -0.42076
   0.44463   1.88565   0.05807
  -1.47072   0.92798   0.77633
  -2.90723   0.20972   1.49459
  -4.58317  -1.46621   1.73401
  -6.01968  -3.14214   1.97343
  -6.97736  -4.81808   1.97343
  -7.69561  -6.73343   1.97343
  -8.65329  -8.40936   2.21284
  -8.89271  -9.84587   2.21284
  -9.37155 -11.04297   2.21284
  -9.61096 -11.76123   2.45226
  -9.61096 -11.76123   2.69168
  -9.13213 -11.52181   2.93110
  -8.89271 -11.04297   2.93110
  -8.65329  -9.84587   2.69168
  -8.41387  -8.40936   2.69168
  -8.41387  -6.73343   2.45226
  -8.41387  -4.81808   2.45226
  -8.41387  -3.14214   2.45226
  -8.65329  -1.70563   2.21284
  -9.13213  -0.26912   1.97343
  -9.37155   0.44914   1.97343
  -9.61096   1.16740   1.97343
  -9.61096   1.88565   1.73401
  -9.61096   2.12507   1.49459
  -9.61096   2.12507   1.97343
  -9.37155   1.88565   2.21284
  -9.61096   1.88565   2.21284
 -10.08980   1.64624   1.73401
 -10.56864   1.40682   1.01575
 -11.04748   0.92798   0.05807
 -11.52632   0.68856  -0.66018
 -12.00515   0.44914  -1.37844
 -12.00515  -0.26912  -1.61786
 -11.52632  -0.50854  -1.61786
 -10.56864  -0.74795  -1.37844
  -9.85038  -0.74795  -1.37844
  -8.41387  -0.74795  -0.89960
  -6.73794  -0.50854  -0.42076
  -5.30142  -0.26912   0.29749
  -4.10433  -0.02970   1.49459
  -2.42840   0.20972   2.45226
  -0.75246   0.68856   3.40994
   0.68405   1.64624   4.12820
   1.88114   2.36449   4.36761
   2.59940   3.08275   4.12820
   3.07824   3.56159   3.64936
   3.07824   3.56159   2.69168
   3.07824   3.56159   1.49459
   3.07824   3.32217   0.05807
   3.31766   2.60391  -1.61786
   3.79650   1.64624  -3.53321
   4.27533   0.92798  -5.68798
   4.75417   0.20972  -7.36391
   5.71185  -0.74795  -8.56101
   6.43010  -1.46621  -9.51868
   7.38778  -1.70563  -9.99752
   8.34546  -1.94505 -10.23694
   9.54255  -2.42389  -9.99752
  10.50023  -2.66331  -9.99752
  11.21848  -2.66331  -9.75810
  11.93674  -2.42389  -9.27927
  12.41558  -2.18447  -9.27927
  12.65500  -2.18447  -8.80043
  12.89442  -1.70563  -8.80043
  12.41558  -1.46621  -8.80043
  11.93674  -1.22679  -8.80043
  11.45790  -0.98737  -8.32159
  11.45790  -0.50854  -8.32159
  10.97906  -0.50854  -7.84275
  10.73965  -0.26912  -7.12449
  10.50023   0.20972  -6.40624
  10.02139   0.92798  -5.68798
   9.30313   1.64624  -4.49089
   8.58488   2.12507  -3.05437
   7.86662   2.60391  -1.85728
   6.90894   2.84333  -0.42076
   5.95127   3.08275   0.77633
   4.99359   3.32217   1.01575
   4.51475   3.32217   1.73401
   4.03592   3.32217   2.21284
   3.79650   3.32217   2.45226
   3.79650   3.08275   2.93110
   3.55708   3.08275   3.64936
   3.07824   2.84333   4.12820
   2.59940   2.36449   4.84645
   1.88114   2.12507   5.32529
   1.16289   1.88565   5.32529
   0.20521   1.88565   5.32529
  -0.99188   1.88565   5.32529
  -2.42840   1.40682   5.08587
  -3.86491   1.16740   5.08587
  -5.06200   1.16740   4.84645
  -6.25910   0.68856   4.84645
  -6.97736   0.44914   4.84645
  -7.45619   0.44914   4.60703
  -7.69561   0.44914   4.36761
  -8.17445   0.44914   3.64936
  -8.41387   0.20972   3.17052
  -8.41387  -0.26912   2.93110
  -8.41387  -0.74795   2.45226
  -8.65329  -0.98737   2.21284
  -9.13213  -1.46621   1.97343
  -9.61096  -1.94505   1.73401
 -10.32922  -2.18447   1.97343
 -10.56864  -2.66331   1.49459
 -10.56864  -3.14214   1.73401
 -10.32922  -3.14214   1.97343
 -10.08980  -2.90272   2.21284
 -10.08980  -2.90272   2.69168
  -9.85038  -2.66331   2.69168
  -9.85038  -2.42389   3.17052
  -9.61096  -1.70563   3.40994
  -9.61096  -0.98737   3.17052
  -9.85038   0.20972   3.17052
  -9.85038   1.16740   2.45226
 -10.32922   2.36449   1.25517
 -10.56864   3.32217   0.29749
 -10.56864   3.80101  -0.89960
 -10.32922   3.80101  -1.61786
  -9.37155   3.32217  -2.09670
  -8.41387   3.08275  -2.81495
  -7.21677   2.60391  -3.53321
  -6.25910   2.36449  -4.25147
  -5.06200   2.12507  -4.96972
  -3.86491   1.64624  -5.44856
  -3.38607   1.40682  -5.68798
  -2.66781   1.16740  -5.44856
  -2.42840   0.92798  -5.44856
  -2.42840   0.44914  -4.96972
  -2.18898   0.20972  -4.73031
  -2.18898   0.44914  -4.49089
  -1.94956   0.68856  -4.01205
  -1.94956   1.16740  -3.77263
  -1.94956   1.40682  -3.29379
  -1.94956   1.88565  -2.57553
  -1.47072   2.12507  -2.09670
  -0.99188   1.88565  -1.85728
  -0.51304   1.64624  -1.37844
   0.44463   1.16740  -1.13902
   1.64173   0.92798  -1.13902
   2.12056   0.68856  -1.13902
   2.83882   0.68856  -1.37844
   3.31766   0.68856  -1.37844
   3.79650   0.92798  -1.37844
   4.51475   1.16740  -1.85728
   4.99359   0.92798  -2.09670
   5.71185   0.68856  -2.57553
   6.19069   0.20972  -3.29379
   6.66952  -0.02970  -3.77263
   6.90894  -0.26912  -4.73031
   6.90894  -0.26912  -5.68798
   6.90894  -0.26912  -6.40624
   7.14836  -0.26912  -7.36391
   7.14836  -0.50854  -7.60333
   6.90894  -0.98737  -7.84275
   6.90894  -0.98737  -7.60333
   6.66952  -1.22679  -7.36391
   5.95127  -1.22679  -7.12449
   5.71185  -0.98737  -6.64566
   5.47243  -0.98737  -6.40624
   5.47243  -0.50854  -6.40624
   5.23301  -0.50854  -6.40624
   5.23301  -0.74795  -6.16682
   5.23301  -0.50854  -5.92740
   5.23301  -0.50854  -5.68798
   5.23301  -0.26912  -5.68798
   5.23301  -0.26912  -5.44856
   5.47243  -0.74795  -4.96972
   5.23301  -1.22679  -4.73031
   4.99359  -1.22679  -4.25147
   4.75417  -1.70563  -3.53321
   4.27533  -1.94505  -3.05437
   3.79650  -2.42389  -2.33612
   3.07824  -2.66331  -1.37844
   2.83882  -2.90272  -0.18135
   2.35998  -2.90272   1.25517
   1.40231  -3.14214   1.97343
   0.68405  -2.66331   2.93110
  -0.27363  -2.42389   3.64936
  -0.99188  -1.94505   4.36761
  -1.94956  -1.70563   5.08587
  -2.90723  -1.70563   5.56471
  -4.10433  -1.46621   5.80413
  -5.06200  -1.22679   5.80413
  -5.78026  -0.74795   5.56471
  -6.49852  -0.74795   5.08587
  -6.73794  -0.74795   4.84645
  -6.73794  -0.74795   4.36761
  -6.49852  -0.50854   4.12820
  -6.25910  -0.74795   4.60703
  -6.01968  -0.74795   5.08587
  -5.78026  -1.46621   5.56471
  -5.78026  -1.70563   5.80413
  -5.78026  -2.18447   5.80413
  -5.78026  -2.18447   5.56471
  -5.78026  -2.42389   5.56471
  -5.78026  -2.66331   5.80413
  -6.01968  -3.14214   6.04355
  -6.25910  -3.14214   6.52239
  -6.49852  -3.14214   7.24064
  -6.49852  -2.90272   7.71948
  -6.01968  -2.66331   7.95890
  -5.78026  -1.70563   8.43774
  -5.06200  -0.98737   8.67716
  -4.58317  -0.02970   8.43774
  -3.86491   0.92798   8.43774
  -3.14665   1.88565   8.43774
  -2.18898   2.60391   8.67716
  -1.23130   3.08275   8.67716
  -0.51304   3.56159   8.91657
   0.92347   3.80101   8.67716
   2.35998   4.27984   8.91657
   3.79650   4.27984   8.43774
   4.99359   4.27984   8.19832
   6.43010   3.80101   7.48006
   7.86662   3.32217   7.00122
   9.06371   2.84333   6.28297
  10.26081   2.12507   5.08587
  10.97906   1.64624   4.36761
  11.93674   1.16740   3.40994
  12.89442   0.68856   2.45226
  13.37325  -0.02970   1.01575
  13.61267  -0.50854   0.05807
  13.85209  -0.74795  -0.89960
  14.33093  -0.98737  -2.09670
  14.33093  -0.74795  -2.81495
  14.57035  -0.50854  -3.53321
  14.80977  -0.02970  -4.49089
  14.80977  -0.02970  -5.20914
  15.28861   0.20972  -5.92740
  15.52802   0.44914  -6.40624
  15.28861   0.44914  -7.12449
  14.33093   0.20972  -7.60333
  14.09151  -0.02970  -8.08217
  13.61267  -0.26912  -8.32159
  12.89442  -0.74795  -7.84275
  11.69732  -1.46621  -7.12449
  10.73965  -1.94505  -6.16682
   9.54255  -2.42389  -5.20914
   8.58488  -2.66331  -4.01205
   7.38778  -2.66331  -2.81495
   6.90894  -2.42389  -1.37844
   6.43010  -1.94505  -0.18135
   5.95127  -1.70563   0.77633
   5.23301  -0.98737   1.97343
   4.75417  -0.74795   2.93110
   4.27533  -0.50854   3.88878
   3.31766  -0.26912   4.84645
   2.59940   0.44914   5.32529
   1.88114   0.92798   5.80413
   0.92347   1.64624   6.52239
  -0.03421   1.88565   7.00122
  -0.99188   2.12507   7.24064
  -1.94956   2.36449   7.48006
  -2.90723   2.60391   7.95890
  -3.62549   3.08275   8.19832
  -4.82259   3.32217   8.19832
  -6.01968   3.08275   8.43774
  -7.45619   3.32217   8.43774
  -8.89271   3.32217   8.43774
 -10.32922   3.56159   8.19832
 -11.76573   3.56159   7.95890
 -12.72341   3.32217   7.95890
 -13.44167   3.56159   7.95890
 -14.15992   3.56159   7.95890
 -14.63876   3.32217   8.19832
 -14.87818   3.08275   8.43774
 -15.11760   2.60391   8.43774
 -15.11760   2.12507   8.43774
 -15.35702   1.40682   8.19832
 -15.83586   0.92798   7.71948
 -16.07528   0.68856   7.24064
 -16.07528   0.20972   6.52239
 -16.79353  -0.02970   6.04355
 -17.03295  -0.26912   5.32529
 -17.27237   0.20972   4.60703
 -17.51179   0.68856   3.88878
 -17.75121   1.40682   3.40994
 -17.99063   2.12507   3.17052
 -17.99063   2.84333   2.69168
 -17.75121   3.56159   1.97343
 -17.03295   4.27984   1.49459
 -16.07528   4.99810   1.01575
 -14.87818   5.47694  -0.18135
 -13.68109   5.71636  -1.37844
 -11.76573   5.71636  -2.57553
  -9.85038   5.47694  -3.53321
  -7.45619   4.75868  -4.73031
  -5.30142   3.56159  -5.92740
  -3.38607   2.12507  -7.12449
  -1.47072   0.68856  -8.56101
   0.44463  -0.02970  -9.51868
   2.35998  -0.74795 -10.95520
   4.03592  -1.22679 -12.39171
   4.99359  -2.18447 -13.34939
   5.95127  -2.42389 -14.30706
   6.90894  -2.66331 -15.02532
   7.62720  -2.90272 -15.74358
   8.10604  -2.90272 -16.22241
   9.06371  -2.90272 -16.94067
  10.02139  -2.66331 -17.65893
  11.45790  -2.42389 -18.37719
  12.65500  -1.94505 -18.85602
  13.85209  -1.46621 -19.33486
  14.57035  -1.46621 -19.57428
  15.28861  -1.22679 -19.57428
  15.76744  -0.74795 -19.57428
  15.28861  -0.74795 -19.09544
  14.57035  -0.50854 -18.61660
  13.61267  -0.50854 -17.89835
  12.17616  -0.26912 -16.94067
  10.50023  -0.02970 -15.98300
   8.58488  -0.02970 -15.26474
   6.66952  -0.26912 -14.06764
   5.23301  -0.26912 -12.87055
   4.03592  -0.50854 -11.43404
   3.31766  -0.98737  -9.75810
   2.83882  -1.46621  -8.08217
   2.59940  -1.70563  -6.64566
   2.83882  -1.94505  -5.20914
   2.83882  -2.18447  -3.77263
   2.83882  -2.66331  -2.33612
   2.83882  -3.14214  -0.42076
   2.59940  -3.14214   1.01575
   1.88114  -2.90272   2.93110
   1.40231  -2.90272   4.60703
   0.44463  -2.66331   6.04355
  -0.27363  -2.18447   7.71948
  -0.75246  -1.70563   9.15599
  -0.75246  -1.22679  10.59251
  -0.75246  -0.74795  11.78960
  -0.27363  -0.50854  12.98670
   0.20521  -0.74795  14.42321
   1.16289  -1.22679  15.85972
   2.12056  -1.46621  17.29624
   2.83882  -1.46621  18.97217
   3.55708  -1.70563  20.88752
   3.55708  -1.94505  22.80287
   3.31766  -2.18447  24.71822
   3.07824  -1.70563  26.15474
   2.59940  -1.22679  27.83067
   1.88114  -0.74795  28.54893
   0.92347  -0.74795  28.30951
  -0.03421  -0.26912  28.30951
  -0.27363   0.68856  28.07009
  -0.75246   1.64624  27.83067
  -0.99188   2.60391  27.35183
  -0.99188   3.56159  26.39416
  -0.75246   4.27984  25.43648
  -0.51304   4.75868  23.99997
  -0.03421   4.99810  22.56345
  -0.03421   4.75868  21.36636
  -0.27363   4.75868  20.16926
  -0.51304   4.51926  19.21159
  -0.75246   4.27984  18.01449
  -0.99188   3.80101  16.57798
  -1.47072   3.32217  14.66263
  -1.94956   2.60391  12.98670
  -2.18898   2.12507  10.83193
  -2.42840   1.40682   8.43774
  -2.42840   0.92798   5.56471
  -2.66781   0.44914   2.93110
  -2.66781  -0.26912   0.77633
  -2.90723  -0.74795  -1.37844
  -3.14665  -1.22679  -3.53321
  -3.62549  -1.46621  -5.92740
  -4.34375  -1.70563  -8.08217
  -4.82259  -1.70563  -9.99752
  -5.54084  -1.70563 -11.67345
  -6.25910  -1.22679 -12.63113
  -6.97736  -0.98737 -13.58881
  -7.69561  -0.74795 -14.30706
  -8.65329  -0.50854 -14.54648
  -9.37155  -0.26912 -15.26474
  -9.61096  -0.02970 -15.98300
  -9.85038  -0.02970 -16.94067
  -9.61096  -0.26912 -17.89835
  -9.13213  -0.74795 -19.09544
  -8.41387  -1.22679 -20.29254
  -7.21677  -1.70563 -21.25021
  -6.01968  -1.94505 -21.72905
  -4.82259  -2.42389 -22.20789
  -4.10433  -2.90272 -22.20789
  -3.62549  -2.90272 -21.96847
  -2.90723  -2.90272 -21.48963
  -2.18898  -2.90272 -21.01079
  -1.71014  -2.66331 -20.29254
  -1.23130  -2.42389 -20.05312
  -0.27363  -2.42389 -19.81370
   0.44463  -1.94505 -19.57428
   1.40231  -1.70563 -19.57428
   2.35998  -1.70563 -19.57428
   3.07824  -1.22679 -19.33486
   3.79650  -0.98737 -19.33486
   4.51475  -0.74795 -19.33486
   4.75417  -0.74795 -19.33486
   4.75417  -0.98737 -19.09544
   4.51475  -1.22679 -18.85602
   3.79650  -1.46621 -18.37719
   3.31766  -1.46621 -17.65893
   3.07824  -1.46621 -16.94067
   2.83882  -1.46621 -15.98300
   2.83882  -1.46621 -14.54648
   3.07824  -1.22679 -12.87055
   3.31766  -0.98737 -11.43404
   3.79650  -0.74795  -9.75810
   4.51475  -0.74795  -8.08217
   5.23301  -0.74795  -6.64566
   6.19069  -0.74795  -4.96972
   6.90894  -0.98737  -3.29379
   7.62720  -1.22679  -1.37844
   8.10604  -1.70563   0.29749
   8.34546  -1.94505   2.21284
   8.34546  -2.18447   3.88878
   8.34546  -2.42389   5.32529
   8.34546  -2.42389   6.76180
   8.34546  -2.18447   7.95890
   8.34546  -1.94505   9.39541
   8.34546  -1.70563  10.35309
   8.34546  -1.22679  11.31076
   8.58488  -0.74795  12.26844
   8.58488  -0.50854  13.70495
   8.82429  -0.02970  15.14147
   9.30313   0.68856  16.57798
   9.30313   1.40682  17.77508
   8.82429   1.88565  18.73275
   8.34546   2.36449  19.92985
   7.86662   2.60391  20.88752
   7.14836   2.60391  21.36636
   6.66952   2.60391  22.08462
   6.43010   2.12507  22.32404
   6.19069   1.88565  22.56345
   6.19069   1.40682  22.80287
   5.95127   1.16740  22.56345
   5.71185   0.92798  22.80287
   5.47243   0.68856  22.80287
   4.99359   0.44914  22.80287
   4.27533   0.20972  22.56345
   3.55708  -0.02970  21.84520
   2.59940  -0.26912  21.12694
   1.40231  -0.50854  19.92985
   0.20521  -0.50854  18.73275
  -0.75246  -0.74795  17.53566
  -1.94956  -0.98737  16.57798
  -2.90723  -0.98737  15.38089
  -3.86491  -1.22679  14.18379
  -4.58317  -1.46621  12.74728
  -4.82259  -1.94505  11.31076
  -5.06200  -2.42389   9.87425
  -5.30142  -2.90272   8.43774
  -5.30142  -2.90272   7.00122
  -5.30142  -2.66331   5.80413
  -5.06200  -2.42389   4.60703
  -5.30142  -2.18447   2.93110
  -5.30142  -1.46621   1.49459
  -5.54084  -1.22679  -0.18135
  -6.01968  -0.50854  -1.61786
  -6.97736   0.20972  -3.05437
  -7.93503   0.92798  -4.49089
  -8.65329   1.64624  -5.68798
  -8.89271   2.84333  -6.88508
  -9.13213   3.56159  -8.08217
  -9.61096   3.80101  -9.27927
  -9.61096   4.04042 -10.71578
  -9.37155   4.04042 -11.91287
  -9.13213   3.80101 -13.34939
  -8.65329   3.32217 -14.78590
  -8.41387   2.36449 -15.98300
  -7.93503   1.64624 -17.41951
  -7.45619   0.92798 -18.37719
  -7.21677  -0.02970 -19.57428
  -6.97736  -0.98737 -20.77137
  -6.73794  -2.18447 -21.96847
  -6.73794  -2.90272 -22.92615
  -6.49852  -3.62098 -24.12324
  -6.49852  -4.09982 -25.08092
  -6.01968  -4.09982 -26.03859
  -5.54084  -4.33924 -26.51743
  -5.30142  -4.33924 -26.99627
  -4.58317  -4.33924 -27.23569
  -4.10433  -3.86040 -27.23569
  -3.14665  -3.86040 -26.51743
  -2.42840  -3.62098 -26.03859
  -1.47072  -3.38156 -25.08092
  -0.51304  -3.14214 -23.64440
   0.68405  -2.90272 -22.44731
   1.64173  -2.42389 -20.77137
   2.83882  -2.18447 -18.85602
   3.79650  -1.46621 -17.41951
   4.75417  -1.22679 -15.98300
   5.71185  -0.74795 -14.30706
