********************************************************************************
               CENTRO DE INSTRUMENTACION Y REGISTRO SISMICO  A.C.  
                       Coordinacion de Servicios Tecnicos
     Anaxagoras 814, Col. Narvarte, Benito Juarez, C.P. 03020 Mexico, D.F.
            Tels. 687 45 42/ 687 45  82             Fax. 669 25 12
********************************************************************************
ARCHIVO ESTANDAR DE ACELERACION:
VERSION DEL FORMATO                    : 2.0
NOMBRE DEL ARCHIVO                     : AU460008.091
FECHA Y HORA DE CREACION               : 20/JUL/04, 10:00
REF. CATALOGO ACELEROGRAMAS, SMIS 1996 : REGISTRO No.     /PAG.


================================================================================
DATOS DE LA ESTACION:
NOMBRE DE LA ESTACION                  : ANGEL URRAZA
CLAVE DE LA ESTACION                   : AU46
LOCALIZACION DE LA ESTACION            : Esc Sec Tec # 14, 5 de Mayo Av
                                       : Coyoacan y Angel Urraza, Col de
                                       : Valle, Benito Juarez
                                       :
                                       :
COORDENADAS DE LA ESTACION             : 19.383 LAT. N 
                                       : 99.168 LONG. W 
ALTITUD (msnm)                         : 2233
TIPO DE SUELO                          : TRANSICION
                                       : 
                                       : 
INSTITUCION RESPONSABLE                : CIRES
                                       :

================================================================================
DATOS DEL ACELEROGRAFO:
MODELO DEL ACELEROGRAFO                : RAD-851
NUMERO DE SERIE DEL ACELEROGRAFO       : 236
NUMERO DE CANALES                      : 3
ORIENTACION C1-C6 (rumbo;orientacion)  : /N00E/+V/N90W
ORIENTACION C7-C12 (rumbo;orientacion) :
VEL. DE MUESTREO, C1-C6 (muestras/s)   : /100/100/100
VEL. DE MUESTREO, C7-C12 (muestras/s)  :
ESC. COMPLETA DE SENSORES, C1-C6, (g)  : /0.5/0.5/0.5
ESC. COMPLETA DE SENSORES, C7-C12, (g) :
FREC. NAT. DE SENSORES, C1-C6, (Hz)    : /33/30/30
FREC. NAT. DE SENSORES, C7-C12, (Hz)   :
AMORTIGUAMIENTO DE SENSORES, C1-C6     : /0.735/0.733/0.730
AMORTIGUAMIENTO DE SENSORES, C7-C12    :
INTERVALO DE MUESTREO, C1-C6, (s)      : /0.01/0.01/0.01
INTERVALO DE MUESTREO, C7-C12, (s)     :
UMBRAL DE DISPARO, C1-C6, (Gal)        : /1.71/2.44/1.71
UMBRAL DE DISPARO, C7-C12, (Gal)       :
MEMORIA DE PREEVENTO (s)               : 24
TIEMPO DE POSEVENTO (s)                : 64


================================================================================
DATOS DEL SISMO:
FECHA DEL SISMO (GMT)                  : 09/AGO/00
HORA EPICENTRO (GMT)                   : 11:41:47:7
MAGNITUD(ES)                           : /Mb=6.1/Ms=6.5/Mc=0.0/Ma=6.5/Me=7.0
COORDENADAS DEL EPICENTRO              : 17.99 LAT. N
                                       : 102.66 LONG. W
PROFUNDIDAD FOCAL (km)                 : 16.0
FUENTE DE LOS DATOS EPICENTRALES       : SSN
                                       : INSTITUTO DE GEOFISICA, UNAM

================================================================================
DATOS DE ESTE REGISTRO:
HORA DE LA PRIMERA MUESTRA (GMT)       : 11:43:43.00
EXACTITUD DEL TIEMPO (s)               : 0.01
DURACION DEL REGISTRO (s), C1-C6       : /110.75/110.75/110.75
DURACION DEL REGISTRO (s), C7-C12      :
NUM. TOTAL DE MUESTRAS, C1-C6          : /11075/11075/11075
NUM. TOTAL DE MUESTRAS, C7-C12         :
ACEL. MAX. (Gal), C1-C6                : /5.67958/-1.78809/8.00883
ACEL. MAX., C1-C6, EN LA MUESTRA       :
ACEL. MAX. (Gal), C7-C12               :
ACEL. MAX., C7-C12, EN LA MUESTRA      :
UNIDADES DE LOS DATOS                  : Gal (cm/s/s)
FACTOR DE DECIMACION                   : 1
FORMATO DATOS (FORTRAN,10 campos/dato) : 3F10.5


================================================================================
CALIDAD DEL ACELEROGRAMA:
REGISTRO DIGITAL COMPLETO CON TIEMPO ABSOLUTO CORRECTO.


================================================================================
COMENTARIOS:














================================================================================
DATOS DE ACELERACION:
---------+---------+---------+---------+---------+---------+---------+---------+
   CANAL-1   CANAL-2   CANAL-3   CANAL-4   CANAL-5   CANAL-6   CANAL-7   CANAL-8
      N00E        +V      N90W
---------+---------+---------+---------+---------+---------+---------+---------+
[...]
  -0.65178  -1.30925  -3.00444
  -0.41236  -1.54867  -3.00444
  -0.17294  -1.54867  -3.00444
  -0.17294  -1.30925  -3.00444
   0.06648  -1.06983  -2.76502
   0.30589  -1.06983  -2.52561
   0.30589  -1.30925  -2.52561
   0.54531  -1.30925  -2.52561
   0.78473  -1.30925  -2.52561
   0.78473  -1.54867  -2.52561
   0.78473  -1.54867  -2.28619
   0.78473  -1.54867  -2.28619
   1.02415  -1.78809  -2.28619
   1.50299  -1.78809  -2.28619
   1.50299  -1.54867  -2.28619
   1.50299  -1.78809  -2.04677
   1.50299  -1.54867  -1.80735
   1.74241  -1.54867  -1.80735
   1.74241  -1.54867  -1.80735
   1.74241  -1.54867  -1.80735
   1.74241  -1.54867  -1.56793
   1.74241  -1.30925  -1.56793
   1.98183  -1.06983  -1.32851
   1.98183  -1.06983  -1.08909
   1.74241  -1.06983  -0.84967
   1.74241  -0.83041  -0.84967
   1.74241  -0.83041  -0.61025
   1.50299  -0.83041  -0.61025
   1.26357  -0.59099  -0.13142
   1.26357  -0.59099   0.10800
   1.02415  -0.35157   0.10800
   1.02415  -0.35157   0.34742
   0.54531  -0.35157   0.34742
   0.54531  -0.35157   0.34742
   0.30589  -0.59099   0.34742
   0.06648  -0.35157   0.34742
   0.06648  -0.35157   0.58684
  -0.17294  -0.35157   0.58684
  -0.17294  -0.35157   0.82626
  -0.17294  -0.59099   1.06568
  -0.41236  -0.59099   1.06568
  -0.41236  -0.83041   1.06568
  -0.65178  -0.83041   1.30510
  -0.89120  -0.83041   1.54452
  -0.89120  -0.83041   1.54452
  -1.13062  -0.83041   1.78394
  -1.13062  -0.83041   1.78394
  -1.37004  -0.83041   2.02335
  -1.37004  -0.83041   2.02335
  -1.60946  -0.83041   2.02335
  -1.84888  -0.59099   2.02335
  -2.08830  -0.59099   2.02335
  -2.32771  -0.35157   2.02335
  -2.56713  -0.11215   2.02335
  -2.80655  -0.11215   2.02335
  -3.04597   0.12726   2.26277
  -3.28539   0.12726   2.26277
  -3.52481   0.12726   2.26277
  -3.28539   0.12726   2.02335
  -3.52481   0.12726   2.26277
  -3.52481   0.12726   2.50219
  -3.52481   0.12726   2.74161
  -3.52481   0.12726   2.50219
  -3.52481   0.12726   2.74161
  -3.76423   0.12726   2.74161
  -3.52481   0.12726   2.74161
  -3.76423  -0.11215   2.98103
  -3.52481   0.12726   2.74161
  -3.52481   0.12726   2.98103
  -3.52481   0.12726   2.98103
  -3.76423   0.12726   2.98103
  -3.52481   0.12726   3.22045
  -3.52481   0.60610   2.98103
  -3.28539   0.60610   2.98103
  -3.28539   0.60610   2.98103
  -3.28539   0.84552   2.98103
  -3.28539   0.84552   2.98103
  -3.04597   1.08494   2.74161
  -2.80655   0.84552   2.74161
  -2.56713   0.84552   2.50219
  -2.80655   0.84552   2.50219
  -2.56713   0.60610   2.50219
  -2.56713   0.60610   2.26277
  -2.56713   0.84552   2.02335
  -2.32771   0.60610   1.78394
  -2.08830   0.84552   1.54452
  -2.08830   0.84552   1.54452
  -2.08830   0.84552   1.30510
  -1.84888   0.60610   1.54452
  -1.60946   0.60610   1.30510
  -1.37004   0.60610   1.30510
  -1.37004   0.84552   1.30510
  -1.13062   0.84552   0.82626
  -0.89120   0.84552   0.82626
  -0.89120   0.84552   0.58684
  -0.41236   0.60610   0.34742
  -0.41236   0.60610  -0.13142
  -0.17294   0.36668  -0.13142
  -0.17294   0.60610  -0.37083
   0.06648   0.60610  -0.61025
   0.30589   0.60610  -1.08909
   0.54531   0.60610  -1.08909
   0.78473   0.36668  -1.32851
   1.02415   0.60610  -1.56793
   1.02415   0.60610  -1.08909
   1.26357   0.84552  -1.56793
   1.50299   0.60610  -1.56793
   1.98183   0.60610  -1.80735
   1.98183   0.84552  -1.80735
   1.98183   1.08494  -1.80735
   2.22125   1.08494  -1.80735
   2.22125   1.08494  -1.80735
   2.46066   1.08494  -2.04677
   2.22125   1.32436  -2.04677
   1.98183   1.08494  -1.80735
   2.22125   1.08494  -1.80735
   1.98183   1.08494  -1.80735
   1.98183   0.84552  -1.56793
   2.22125   0.84552  -1.56793
   2.22125   0.84552  -1.32851
   1.98183   0.84552  -1.32851
   1.74241   0.84552  -1.08909
   1.98183   0.84552  -1.08909
   1.98183   1.08494  -1.08909
   1.98183   0.84552  -0.61025
   1.98183   0.84552  -0.61025
   1.74241   0.60610  -0.61025
   1.74241   0.84552  -0.37083
   1.50299   0.84552  -0.13142
   1.26357   0.84552   0.10800
   1.26357   0.84552   0.34742
   1.26357   0.60610   0.58684
   1.26357   0.60610   0.58684
   1.02415   0.60610   1.06568
   1.02415   0.84552   1.30510
   0.54531   0.84552   1.54452
   0.30589   1.08494   1.54452
   0.30589   0.84552   1.78394
   0.30589   0.84552   1.78394
   0.30589   0.84552   2.02335
   0.06648   0.84552   2.26277
   0.06648   1.32436   2.50219
  -0.17294   1.32436   2.50219
  -0.41236   1.32436   2.26277
  -0.65178   1.08494   2.26277
  -0.65178   1.08494   2.26277
  -0.65178   1.08494   2.02335
  -0.65178   1.08494   2.26277
  -0.89120   1.08494   2.02335
  -1.13062   1.08494   2.02335
  -1.13062   0.84552   1.78394
  -1.37004   0.36668   1.78394
  -1.37004   0.12726   1.78394
  -1.13062   0.36668   1.54452
  -1.13062   0.36668   1.54452
  -1.37004   0.36668   1.54452
  -1.60946   0.60610   1.30510
  -1.60946   0.36668   1.30510
  -1.60946   0.12726   1.06568
  -1.37004   0.12726   1.30510
  -1.37004   0.12726   1.30510
  -1.60946   0.60610   1.06568
  -1.60946   0.84552   1.06568
  -1.60946   0.84552   0.82626
  -1.60946   0.84552   0.58684
  -1.37004   0.60610   0.34742
  -0.89120   0.36668   0.34742
  -0.65178   0.60610   0.58684
  -0.65178   0.84552   0.34742
  -0.65178   1.08494   0.10800
  -0.41236   0.84552  -0.13142
  -0.41236   0.60610  -0.13142
   0.06648   0.36668  -0.13142
   0.30589   0.60610  -0.13142
   0.54531   0.84552  -0.37083
   0.54531   0.84552  -0.37083
   0.54531   0.60610  -0.61025
   0.54531   0.36668  -0.84967
   0.30589   0.60610  -1.08909
   0.30589   0.60610  -1.08909
   0.78473   0.60610  -1.32851
   0.30589   0.84552  -1.56793
   0.30589   0.60610  -2.04677
   0.54531   0.36668  -2.04677
   0.78473   0.36668  -2.04677
   1.02415   0.60610  -1.80735
   0.78473   0.84552  -2.28619
   0.78473   0.60610  -2.52561
   1.02415   0.36668  -2.76502
   1.26357   0.36668  -3.00444
   1.50299   0.36668  -3.48328
   1.74241   0.36668  -3.48328
   1.74241   0.60610  -3.96212
   1.74241   0.60610  -4.20154
   1.74241   0.36668  -4.91979
   1.98183   0.36668  -4.91979
   2.22125   0.36668  -5.15921
   2.46066   0.12726  -5.63805
   2.22125  -0.11215  -5.63805
   2.22125  -0.11215  -5.87747
   2.22125  -0.35157  -5.63805
   2.46066  -0.35157  -5.63805
   2.22125  -0.35157  -5.63805
   2.46066  -0.59099  -5.39863
   2.46066  -0.59099  -5.39863
   2.46066  -0.35157  -5.39863
   2.22125  -0.35157  -5.15921
   2.22125  -0.59099  -4.91979
   1.98183  -0.59099  -4.91979
   2.22125  -0.59099  -4.68038
   2.22125  -0.35157  -4.44096
   2.46066  -0.35157  -4.44096
   2.22125  -0.35157  -4.44096
   2.46066  -0.59099  -4.20154
   2.22125  -0.59099  -3.72270
   2.46066  -0.59099  -3.24386
   2.46066  -0.35157  -3.24386
   2.70008  -0.35157  -2.76502
   2.46066  -0.35157  -2.52561
   2.22125  -0.35157  -2.04677
   2.46066  -0.35157  -2.04677
   2.46066  -0.35157  -1.80735
   2.70008  -0.35157  -1.32851
   2.70008  -0.11215  -0.84967
   2.70008   0.12726  -0.37083
   2.46066   0.12726  -0.13142
   2.70008   0.12726   0.34742
   2.70008  -0.11215   0.82626
   2.93950  -0.11215   1.06568
   2.93950  -0.11215   1.30510
   2.70008   0.12726   1.78394
   2.93950   0.12726   2.26277
   2.93950   0.12726   2.50219
   2.93950   0.12726   2.74161
   2.93950   0.12726   2.98103
   2.93950   0.12726   3.22045
   2.93950   0.12726   3.45987
   2.93950   0.12726   3.69929
   2.70008   0.12726   4.17813
   2.70008   0.12726   4.65696
   2.46066   0.36668   4.41754
   2.22125   0.12726   4.89638
   2.22125   0.12726   4.65696
   1.98183   0.12726   4.89638
   1.98183   0.12726   5.13580
   1.74241   0.12726   5.13580
   1.50299   0.12726   5.13580
   1.50299   0.12726   5.37522
   1.26357   0.36668   5.37522
   1.02415   0.36668   5.13580
   1.02415   0.12726   5.13580
   1.02415  -0.11215   4.89638
   1.02415   0.12726   4.89638
   0.78473   0.36668   4.65696
   0.78473   0.12726   4.65696
   0.54531   0.12726   4.41754
   0.54531   0.12726   4.41754
   0.30589  -0.11215   4.41754
   0.30589  -0.11215   4.17813
   0.30589  -0.35157   4.17813
   0.06648  -0.35157   3.93871
  -0.17294  -0.35157   3.93871
  -0.17294  -0.59099   3.69929
  -0.17294  -0.83041   3.45987
  -0.17294  -0.83041   3.22045
  -0.17294  -0.83041   2.98103
  -0.41236  -0.83041   2.74161
  -0.17294  -1.06983   2.50219
  -0.17294  -1.06983   2.26277
  -0.17294  -1.30925   2.26277
  -0.41236  -1.06983   2.02335
  -0.41236  -1.06983   1.54452
  -0.41236  -1.06983   1.06568
  -0.65178  -0.83041   1.06568
  -0.65178  -0.83041   0.82626
  -0.89120  -0.83041   0.34742
  -0.89120  -0.83041   0.10800
  -0.89120  -0.83041  -0.13142
  -1.13062  -0.83041  -0.13142
  -1.37004  -0.83041  -0.61025
  -1.37004  -0.83041  -0.61025
  -1.37004  -0.59099  -0.84967
  -1.37004  -0.59099  -1.08909
  -1.37004  -0.59099  -1.32851
  -1.60946  -0.59099  -1.56793
  -1.60946  -0.35157  -1.80735
  -1.84888  -0.35157  -1.80735
  -1.84888  -0.35157  -2.28619
  -1.84888  -0.35157  -2.52561
  -1.84888  -0.11215  -2.76502
  -1.84888  -0.35157  -3.00444
  -1.84888  -0.35157  -3.24386
  -1.84888  -0.35157  -3.48328
  -2.08830  -0.35157  -3.48328
  -2.08830  -0.35157  -3.48328
  -1.84888  -0.59099  -3.72270
  -1.84888  -0.59099  -3.72270
  -1.84888  -0.59099  -3.96212
  -1.84888  -0.83041  -3.96212
  -1.60946  -0.83041  -4.20154
  -1.84888  -0.59099  -4.20154
  -1.60946  -0.59099  -4.20154
  -1.60946  -0.59099  -4.44096
  -1.60946  -0.59099  -4.44096
  -1.37004  -0.35157  -4.44096
  -1.37004  -0.59099  -4.44096
  -1.37004  -0.35157  -4.20154
  -1.13062  -0.35157  -4.20154
  -1.13062  -0.11215  -3.96212
  -0.89120  -0.11215  -3.72270
  -0.89120  -0.35157  -3.48328
  -0.65178  -0.11215  -3.24386
  -0.65178  -0.35157  -2.76502
  -0.65178  -0.35157  -2.76502
  -0.41236  -0.59099  -2.52561
  -0.41236  -0.59099  -2.28619
  -0.41236  -0.59099  -1.80735
  -0.41236  -0.83041  -1.56793
  -0.41236  -1.06983  -1.32851
  -0.17294  -1.30925  -0.84967
  -0.17294  -1.06983  -0.84967
  -0.41236  -1.06983  -0.84967
  -0.17294  -1.30925  -0.61025
  -0.17294  -1.30925  -0.13142
  -0.17294  -1.06983   0.10800
  -0.17294  -1.06983   0.34742
  -0.17294  -0.83041   0.58684
  -0.17294  -0.83041   1.06568
  -0.17294  -0.59099   1.54452
  -0.17294  -0.59099   1.78394
  -0.17294  -0.35157   2.26277
  -0.17294  -0.35157   2.74161
  -0.17294  -0.35157   3.22045
  -0.41236  -0.35157   3.69929
  -0.41236  -0.35157   3.93871
  -0.41236  -0.35157   4.41754
  -0.41236  -0.11215   4.89638
  -0.41236  -0.35157   4.89638
  -0.41236  -0.11215   5.37522
  -0.65178  -0.35157   5.61464
  -0.65178  -0.11215   6.09348
  -0.65178  -0.35157   6.33290
  -0.65178  -0.35157   6.57231
  -0.65178  -0.11215   6.81173
  -0.89120  -0.11215   7.05115
  -0.89120  -0.11215   7.05115
  -0.89120  -0.11215   7.29057
  -1.13062  -0.11215   7.52999
  -1.13062   0.12726   7.76941
  -0.89120  -0.11215   8.00883
  -0.89120   0.12726   8.00883
  -0.89120   0.12726   8.00883
  -1.13062   0.12726   7.76941
  -1.37004   0.36668   7.52999
  -1.37004   0.36668   7.29057
  -1.37004   0.12726   7.05115
  -1.37004   0.36668   6.81173
  -1.37004   0.36668   6.57231
  -1.37004   0.36668   6.33290
  -1.60946   0.36668   5.85406
  -1.60946   0.36668   5.37522
  -1.84888   0.60610   5.13580
  -1.84888   0.60610   4.89638
  -1.84888   0.84552   4.41754
  -1.84888   0.84552   3.93871
  -1.84888   1.08494   3.69929
  -1.84888   1.08494   3.22045
  -1.60946   1.08494   2.74161
  -1.60946   1.08494   2.26277
  -1.60946   1.08494   2.02335
  -1.13062   1.32436   1.78394
  -1.13062   1.32436   1.54452
  -0.89120   1.32436   1.06568
  -0.65178   1.08494   0.58684
  -0.41236   1.08494   0.34742
  -0.17294   1.08494  -0.13142
  -0.17294   1.08494  -0.37083
   0.06648   1.32436  -0.84967
   0.54531   1.08494  -1.08909
   0.54531   1.08494  -1.32851
   0.78473   0.84552  -1.56793
   0.78473   1.08494  -1.80735
   1.26357   0.84552  -2.28619
   1.26357   0.84552  -2.52561
   1.50299   0.60610  -2.76502
   1.50299   0.60610  -2.76502
   1.74241   0.60610  -3.00444
   1.74241   0.60610  -3.00444
   1.98183   0.36668  -3.00444
   1.98183   0.36668  -3.00444
   1.98183   0.36668  -3.00444
   2.46066   0.12726  -3.00444
   2.46066  -0.11215  -3.00444
   2.46066   0.12726  -3.00444
   2.46066  -0.11215  -2.76502
   2.46066   0.12726  -2.76502
   2.70008  -0.11215  -2.76502
   2.46066   0.12726  -2.76502
   2.46066   0.12726  -3.00444
   2.22125  -0.11215  -3.00444
   2.22125  -0.11215  -2.76502
   1.98183  -0.11215  -2.76502
   1.98183  -0.11215  -2.76502
   1.74241  -0.11215  -2.76502
   1.74241  -0.11215  -2.52561
   1.74241  -0.11215  -2.76502
   1.50299  -0.11215  -2.76502
   1.26357   0.12726  -2.52561
   1.02415   0.12726  -2.28619
   1.02415   0.12726  -2.28619
   1.26357   0.12726  -2.28619
   1.02415   0.12726  -2.28619
   1.26357  -0.11215  -2.04677
   1.02415   0.12726  -2.04677
   1.02415   0.12726  -1.80735
   0.78473   0.12726  -1.80735
   0.78473   0.12726  -1.56793
   0.54531   0.12726  -1.56793
   0.54531   0.36668  -1.56793
   0.54531   0.36668  -1.32851
   0.30589   0.36668  -1.32851
   0.30589   0.36668  -1.08909
   0.06648   0.36668  -0.84967
   0.06648   0.36668  -0.61025
  -0.17294   0.36668  -0.84967
  -0.17294   0.36668  -0.61025
  -0.17294   0.36668  -0.37083
  -0.41236   0.36668  -0.37083
  -0.65178   0.12726   0.10800
  -0.65178   0.12726  -0.13142
  -0.65178   0.12726   0.10800
  -0.65178   0.12726  -0.13142
  -0.65178  -0.11215   0.10800
  -0.65178  -0.11215   0.10800
  -0.65178   0.12726   0.10800
  -0.65178  -0.11215   0.10800
  -0.65178  -0.35157   0.34742
  -0.41236  -0.35157   0.34742
  -0.41236  -0.35157   0.34742
  -0.17294  -0.35157   0.34742
  -0.17294  -0.35157   0.10800
   0.06648  -0.35157   0.10800
   0.06648  -0.35157   0.10800
   0.30589  -0.35157   0.10800
   0.30589  -0.35157   0.10800
   0.30589  -0.35157  -0.13142
   0.54531  -0.59099  -0.13142
   0.54531  -0.35157  -0.37083
   0.54531  -0.35157  -0.61025
   0.54531  -0.11215  -0.84967
   0.54531  -0.11215  -0.84967
   0.78473  -0.35157  -1.08909
   0.54531  -0.35157  -1.56793
   0.54531  -0.35157  -1.56793
   0.54531  -0.11215  -1.56793
   0.78473  -0.35157  -1.80735
   0.78473  -0.35157  -2.04677
   0.78473  -0.11215  -2.04677
   0.78473  -0.35157  -2.28619
   0.78473  -0.35157  -2.28619
   1.02415  -0.35157  -2.52561
   1.26357  -0.59099  -2.52561
   1.26357  -0.35157  -2.76502
   1.26357  -0.59099  -2.76502
   1.26357  -0.35157  -3.00444
   1.50299  -0.35157  -3.00444
   1.74241  -0.83041  -3.00444
   1.74241  -0.59099  -3.24386
   1.74241  -0.83041  -3.00444
   1.74241  -0.59099  -3.00444
   1.98183  -0.83041  -3.00444
   1.98183  -0.83041  -3.24386
   1.98183  -0.83041  -3.24386
   1.98183  -0.83041  -3.00444
   2.22125  -0.83041  -3.00444
   2.46066  -1.06983  -3.24386
   2.22125  -0.83041  -3.24386
   2.22125  -0.83041  -3.24386
   2.22125  -0.59099  -3.24386
   2.46066  -0.59099  -3.00444
   2.46066  -0.59099  -3.00444
   2.22125  -0.83041  -3.00444
   2.22125  -0.59099  -3.00444
   2.22125  -0.59099  -3.00444
   2.22125  -0.59099  -3.00444
   1.98183  -0.59099  -2.76502
   2.22125  -0.35157  -2.28619
   1.98183  -0.59099  -2.28619
   2.22125  -0.59099  -2.04677
   1.50299  -0.59099  -2.04677
   1.50299  -0.35157  -1.80735
   1.26357  -0.59099  -1.56793
   1.02415  -0.35157  -1.32851
   0.78473  -0.59099  -1.08909
   0.78473  -0.59099  -1.08909
   0.30589  -0.83041  -0.84967
   0.06648  -0.59099  -0.84967
  -0.17294  -0.83041  -0.61025
  -0.41236  -0.83041  -0.37083
