********************************************************************************
              CENTRO DE INSTRUMENTACION Y REGISTRO SISMICO  A.C.

    Anaxagoras 814, Col. Narvarte, Benito Juarez, C.P. 03020 Mexico, D.F.
           Tels. 5687 45 42/ 5687 45  82             Fax. 5669 25 12
********************************************************************************
ARCHIVO ESTANDAR DE ACELERACION:
VERSION DEL FORMATO                    : 2.0
NOMBRE DEL ARCHIVO                     : AU4620140418142723
FECHA Y HORA DE CREACION               : 13/MAY/14, 13:00
REF. CATALOGO ACELEROGRAMAS, SMIS 1996 : REGISTRO No.     /PAG.


================================================================================
DATOS DE LA ESTACION:
NOMBRE DE LA ESTACION                  : ESC. SEC. TÉC. NO. 14
CLAVE DE LA ESTACION                   : AU46
LOCALIZACION DE LA ESTACION            : Del. Benito Juárez, Col. del Valle,    
                                       : Entre Angel Urraza y Coyoacán.         
                                       :                                        
                                       :                                        
                                       : 
COORDENADAS DE LA ESTACION             : 19.3832 LAT. N
                                       : 99.1681 LONG. W
ALTITUD (msnm)                         : 2233
TIPO DE SUELO                          : Transición                          
                                       :                           
                                       : 
INSTITUCION RESPONSABLE                : CIRES
                                       : 

================================================================================
DATOS DEL ACELEROGRAFO:
MODELO DEL ACELEROGRAFO                : RADESD
NUMERO DE SERIE DEL ACELEROGRAFO       : 236
NUMERO DE CANALES                      : 3
ORIENTACION C1-C6 (rumbo;orientacion)  : /N00E/+V/N90W
ORIENTACION C7-C12 (rumbo;orientacion) : 
VEL. DE MUESTREO, C1-C6 (muestras/s)   : /100/100/100
VEL. DE MUESTREO, C7-C12 (muestras/s)  : 
ESC. COMPLETA DE SENSORES, C1-C6, (g)  : /0.5/0.5/0.5
ESC. COMPLETA DE SENSORES, C7-C12, (g) : 
FREC. NAT. DE SENSORES, C1-C6, (Hz)    : /33/30/30
FREC. NAT. DE SENSORES, C7-C12, (Hz)   : 
AMORTIGUAMIENTO DE SENSORES, C1-C6     : /0.735/0.733/0.730
AMORTIGUAMIENTO DE SENSORES, C7-C12    : 
INTERVALO DE MUESTREO, C1-C6, (s)      : /0.01/0.01/0.01
INTERVALO DE MUESTREO, C7-C12, (s)     : 
UMBRAL DE DISPARO, C1-C6, (Gal)        : /2.39/5.99/2.99
UMBRAL DE DISPARO, C7-C12, (Gal)       : 
MEMORIA DE PREEVENTO (s)               : 44.0
TIEMPO DE POSEVENTO (s)                : 64.0


================================================================================
DATOS DEL SISMO:
FECHA DEL SISMO (GMT)                  : 18/ABR/14
HORA EPICENTRO (GMT)                   : 14:27:23.0
MAGNITUD(ES)                           : /Mc=7.2
COORDENADAS DEL EPICENTRO              : 17.18 LAT. N
                                       : 101.19 LONG. W
PROFUNDIDAD FOCAL (km)                 : 10
FUENTE DE LOS DATOS EPICENTRALES       : SSN
                                       : INSTITUTO DE GEOFISICA, UNAM

================================================================================
DATOS DE ESTE REGISTRO:
HORA DE LA PRIMERA MUESTRA (GMT)       : 14:28:27.00
EXACTITUD DEL TIEMPO (s)               : 0.01
DURACION DEL REGISTRO (s), C1-C6       : /254.2/254.2/254.2
DURACION DEL REGISTRO (s), C7-C12      : 
NUM. TOTAL DE MUESTRAS, C1-C6          : /25420/25420/25420
NUM. TOTAL DE MUESTRAS, C7-C12         : 
ACEL. MAX. (Gal), C1-C6                : /22.01958/7.33028/22.51042
ACEL. MAX., C1-C6, EN LA MUESTRA       : /9270/8825/8782
ACEL. MAX. (Gal), C7-C12               : 
ACEL. MAX., C7-C12, EN LA MUESTRA      : 
UNIDADES DE LOS DATOS                  : Gal (cm/s/s)
FACTOR DE DECIMACION                   : 1
FORMATO DATOS (FORTRAN,10 campos/dato) : 3F10.5


================================================================================
CALIDAD DEL ACELEROGRAMA:
REGISTRO DIGITAL COMPLETO CON TIEMPO ABSOLUTO CORRECTO.


================================================================================
COMENTARIOS:














================================================================================
DATOS DE ACELERACION:
---------+---------+---------+---------+---------+---------+---------+---------+
   CANAL-1   CANAL-2   CANAL-3   CANAL-4   CANAL-5   CANAL-6   CANAL-7   CANAL-8
      N00E        +V      N90W
---------+---------+---------+---------+---------+---------+---------+---------+
[...]
  -6.05325  -6.77662  -2.23964
  -5.67916  -7.04597  -2.79329
  -5.43974  -7.16568  -3.18235
  -5.26017  -7.21057  -3.49659
  -4.96090  -7.07589  -3.82579
  -4.60177  -6.71676  -4.22982
  -4.10796  -6.19303  -4.63384
  -3.44956  -5.45981  -4.90318
  -2.55173  -4.65176  -5.05282
  -1.51923  -3.81379  -5.06779
  -0.42688  -3.00575  -5.02289
   0.80015  -2.21267  -4.96304
   2.04214  -1.52434  -4.94808
   3.28413  -1.07543  -4.96304
   4.51116  -0.86593  -5.00793
   5.75315  -0.79111  -5.02289
   6.92033  -0.83601  -5.08275
   7.98275  -0.79111  -5.17253
   8.97036  -0.58162  -5.26231
   9.92804  -0.26738  -5.36706
  10.84083   0.10671  -5.45684
  11.70873   0.57059  -5.53166
  12.60656   0.94468  -5.66634
  13.44453   1.22899  -5.71123
  14.17775   1.43849  -5.74116
  14.79127   1.55820  -5.69626
  15.32996   1.58812  -5.69626
  15.68909   1.54323  -5.77108
  15.97340   1.48338  -5.80101
  16.12304   1.49834  -5.80101
  16.22779   1.54323  -5.80101
  16.33253   1.63302  -5.86087
  16.24275   1.73776  -5.95065
  16.12304   1.79762  -6.11525
  15.85369   1.97718  -6.32474
  15.46463   2.18667  -6.63898
  15.01572   2.50091  -7.11782
  14.46206   2.77026  -7.62659
  13.81862   2.86004  -8.10543
  13.23503   2.86004  -8.56931
  12.75619   2.71041  -9.00325
  12.44196   2.30638  -9.33246
  12.17261   1.73776  -9.60181
  11.93319   1.06439  -9.81130
  11.73866   0.42095  -9.96094
  11.49924  -0.19256 -10.02079
  11.21493  -0.67140 -10.06568
  10.81091  -0.92579 -10.05072
  10.30214  -0.95572  -9.93101
   9.59884  -0.74622  -9.57188
   8.77583  -0.47687  -9.10800
   7.74333  -0.08782  -8.56931
   6.63602   0.46584  -8.07550
   5.39402   1.04943  -7.58170
   4.15203   1.72280  -7.10286
   2.98486   2.51588  -6.56416
   1.87754   3.24910  -5.99554
   0.90490   3.86262  -5.30721
   0.12678   4.32649  -4.49916
  -0.62141   4.67066  -3.63126
  -1.27981   4.86519  -2.65862
  -1.75865   4.91008  -1.65605
  -2.14771   4.88015  -0.69837
  -2.52181   4.77541   0.18449
  -2.76123   4.61080   1.05239
  -2.94079   4.31153   1.93525
  -3.04554   3.89254   2.78819
  -3.01561   3.44363   3.65609
  -2.89590   3.09946   4.62873
  -2.68641   2.77026   5.72109
  -2.35720   2.39617   6.73862
  -2.01304   2.00711   7.71127
  -1.65391   1.58812   8.68391
  -1.30974   1.18410   9.64159
  -1.04039   0.78008  10.65913
  -0.80097   0.39102  11.69163
  -0.63637   0.10671  12.64931
  -0.53162  -0.17760  13.54713
  -0.38199  -0.40206  14.35518
  -0.30717  -0.64148  15.01358
  -0.29220  -0.79111  15.56724
  -0.33710  -0.77615  16.04608
  -0.54659  -0.67140  16.53988
  -0.84586  -0.47687  16.94391
  -1.24989  -0.40206  17.34793
  -1.68383  -0.41702  17.76691
  -2.11778  -0.53673  18.06619
  -2.59662  -0.71629  18.27568
  -3.04554  -0.86593  18.17093
  -3.53934  -1.00061  17.60231
  -4.01818  -1.10535  16.62967
  -4.40724  -1.19514  15.35775
  -4.66162  -1.28492  13.89130
  -4.79630  -1.31485  12.21536
  -4.82622  -1.32981  10.49452
  -4.82622  -1.32981   8.78866
  -4.75141  -1.44952   7.23243
  -4.64666  -1.61412   5.73605
  -4.46709  -1.74879   4.47909
  -4.18278  -1.88347   3.40170
  -3.76380  -1.89843   2.48891
  -3.25503  -1.79369   1.68087
  -2.61159  -1.59916   0.96261
  -1.81851  -1.34477   0.19946
  -0.92068  -1.16521  -0.62355
   0.00707  -1.09039  -1.58123
   0.90490  -1.07543  -2.68855
   1.78776  -1.16521  -3.91558
   2.56587  -1.34477  -5.17253
   3.10457  -1.53930  -6.48934
   3.38888  -1.76376  -7.76126
   3.49363  -2.03311  -8.98829
   3.31406  -2.40720 -10.12554
   2.99982  -2.73640 -11.18796
   2.59580  -3.00575 -12.23543
   2.20674  -3.17035 -13.40260
   1.86258  -3.14042 -14.36028
   1.59323  -2.96086 -15.27307
   1.51841  -2.69151 -16.14097
   1.57827  -2.37727 -16.93405
   1.80272  -2.06303 -17.66727
   2.20674  -1.77872 -18.32568
   2.68558  -1.44952 -18.89430
   3.14946  -1.19514 -19.25343
   3.47866  -1.04550 -19.46292
   3.65823  -0.95572 -19.40307
   3.62830  -0.97068 -19.22350
   3.40384  -0.97068 -18.89430
   3.01479  -0.92579 -18.43042
   2.49105  -0.80608 -17.89173
   1.93740  -0.62651 -17.36800
   1.35381  -0.37213 -16.78441
   0.75526  -0.11774 -16.03622
   0.14174   0.21146 -15.24314
  -0.42688   0.63044 -14.31539
  -0.86083   0.92972 -13.25296
  -1.24989   1.19907 -12.17557
  -1.51923   1.43849 -10.88869
  -1.74369   1.63302  -9.46713
  -1.87836   1.81258  -8.25507
  -2.04296   1.85747  -6.90833
  -2.19260   1.81258  -5.42692
  -2.31231   1.64798  -3.99040
  -2.43202   1.34870  -2.44913
  -2.58166   0.98957  -1.01261
  -2.77619   0.61548   0.37902
  -3.00065   0.27131   1.72576
  -3.29992  -0.04293   3.05754
  -3.70394  -0.34220   4.38931
  -4.19775  -0.68637   5.70612
  -4.72148  -1.06046   7.08279
  -5.21528  -1.32981   8.38463
  -5.64923  -1.53930   9.58174
  -5.91858  -1.67398  10.52445
  -6.06822  -1.71887  11.25768
  -5.99340  -1.62908  11.94601
  -5.76894  -1.38966  12.52960
  -5.42477  -1.01557  13.08326
  -5.02075  -0.56666  13.59202
  -4.60177  -0.07285  13.95115
  -4.13789   0.28628  14.28036
  -3.70394   0.58555  14.59460
  -3.37474   0.75015  14.98365
  -3.16525   0.79504  15.50738
  -3.15028   0.76512  16.13586
  -3.25503   0.57059  16.74938
  -3.41963   0.25635  17.33296
  -3.67401  -0.26738  17.78188
  -3.97329  -0.88090  18.15597
  -4.22767  -1.61412  18.45525
  -4.52695  -2.40720  18.51510
  -4.78133  -3.17035  18.47021
  -5.03572  -3.84372  18.17093
  -5.27514  -4.42731  17.69209
  -5.43974  -4.92111  17.03369
  -5.49959  -5.19046  16.42017
  -5.60434  -5.37002  15.77673
  -5.67916  -5.44484  15.19315
  -5.69412  -5.38499  14.71431
  -5.69412  -5.13060  14.35518
  -5.66419  -4.71162  13.98108
  -5.61930  -4.11307  13.66684
  -5.52952  -3.24517  13.30771
  -5.48463  -2.24260  12.75405
  -5.52952  -1.26995  12.00586
  -5.61930  -0.34220  11.12300
  -5.81383   0.40599  10.22518
  -6.03829   0.89979   9.26750
  -6.33756   1.13921   8.29485
  -6.72662   1.12425   7.18753
  -7.10072   0.94468   5.99043
  -7.29524   0.58555   4.76340
  -7.37006   0.27131   3.43163
  -7.23539   0.00197   2.01007
  -6.93611  -0.20753   0.46881
  -6.48720  -0.23745  -1.14728
  -5.93354  -0.16264  -2.85315
  -5.29010   0.01693  -4.61887
  -4.54191   0.33117  -6.44445
  -3.73387   0.79504  -8.15032
  -2.89590   1.40856  -9.85619
  -2.01304   2.06696 -11.38249
  -1.05536   2.66551 -12.72923
  -0.14257   3.21917 -13.80662
   0.74029   3.59327 -14.39021
   1.60819   3.81772 -14.68948
   2.31149   4.02722 -14.88401
   2.98486   4.25167 -15.19825
   3.52355   4.41627 -15.76687
   4.06225   4.47613 -16.30557
   4.55605   4.52102 -16.93405
   5.09475   4.47613 -17.68224
   5.72323   4.29656 -18.38553
   6.48638   4.01225 -19.10379
   7.23457   3.59327 -19.74723
   8.07254   3.14436 -20.27097
   8.95540   2.72537 -20.66002
   9.91308   2.41113 -20.80966
  10.90069   1.97718 -20.85455
  11.81348   1.49834 -20.61513
  12.71130   0.98957 -20.10637
  13.59416   0.42095 -19.43300
  14.32739  -0.16264 -18.63992
  14.82119  -0.71629 -17.80195
  15.03069  -1.25499 -16.96398
  14.97083  -1.68894 -16.08111
  14.64163  -2.06303 -15.22818
  13.99819  -2.33238 -14.50992
  13.11532  -2.60173 -13.80662
  12.08283  -2.75137 -13.11829
  10.94558  -2.87108 -12.41499
   9.83826  -2.91597 -11.53213
   8.86562  -2.85611 -10.30510
   8.02765  -2.63166  -9.15289
   7.41413  -2.22763  -7.86601
   6.96522  -1.74879  -6.38460
   6.66594  -1.24003  -4.75355
   6.33674  -0.74622  -3.07761
   5.96265  -0.41702  -1.29692
   5.42395  -0.13271   0.54362
   4.67576   0.09175   2.35424
   3.76297   0.31620   4.10500
   2.68558   0.61548   5.69116
   1.41366   0.97461   7.20250
   0.08189   1.37863   8.56420
  -1.41449   1.69287   9.67152
  -2.82108   1.90236  10.65913
  -4.19775   2.09689  11.52702
  -5.49959   2.15675  12.23032
  -6.65180   2.12682  12.69420
  -7.59452   2.09689  12.97851
  -8.29782   2.06696  13.15807
  -8.82155   2.03704  13.20297
  -9.15075   2.15675  13.20297
  -9.30039   2.27646  13.08326
  -9.33032   2.44106  12.90369
  -9.30039   2.62062  12.90369
  -9.13579   2.68048  13.11318
  -8.91133   2.63559  13.57706
  -8.64198   2.54580  14.13072
  -8.29782   2.36624  14.60956
  -7.95365   2.06696  14.98365
  -7.57956   1.67791  15.16322
  -7.35510   1.13921  15.10336
  -7.13064   0.57059  14.78912
  -6.92115   0.00197  14.23546
  -6.74159  -0.50680  13.41246
  -6.62188  -0.92579  12.36499
  -6.51713  -1.16521  11.19782
  -6.42735  -1.26995   9.89597
  -6.32260  -1.32981   8.62405
  -6.12807  -1.28492   7.39703
  -5.88865  -1.09039   6.31964
  -5.49959  -0.80608   5.39188
  -4.94593  -0.50680   4.67362
  -4.31746  -0.22249   4.14989
  -3.62912   0.03189   3.77580
  -2.95575   0.21146   3.46156
  -2.31231   0.37606   3.13235
  -1.74369   0.45088   2.72833
  -1.29478   0.51073   2.12978
  -0.90572   0.46584   1.39656
  -0.65134   0.43591   0.49873
  -0.51666   0.49577  -0.50384
  -0.57652   0.52570  -1.58123
  -0.78601   0.61548  -2.61373
  -1.16010   0.63044  -3.60134
  -1.54916   0.67533  -4.40938
  -1.96815   0.79504  -5.06779
  -2.26742   1.03447  -5.60648
  -2.44699   1.37863  -6.07036
  -2.53677   1.69287  -6.48934
  -2.43202   2.00711  -6.99811
  -2.11778   2.26149  -7.55177
  -1.57909   2.41113  -8.13536
  -0.83090   2.53084  -8.76383
   0.00707   2.62062  -9.33246
   0.91986   2.66551  -9.97590
   1.89250   2.71041 -10.66423
   2.80529   2.68048 -11.32264
   3.58341   2.57573 -11.93615
   4.25678   2.42609 -12.66938
   4.70569   2.26149 -13.41756
   5.10971   2.08193 -14.10590
   5.48381   1.96222 -14.80919
   5.76812   1.79762 -15.60227
   6.08236   1.60309 -16.42528
   6.42652   1.54323 -17.18843
   6.78565   1.51331 -18.01144
   7.24953   1.61805 -18.75963
   7.74333   1.72280 -19.41803
   8.13239   1.72280 -19.89687
   8.46160   1.61805 -20.07644
   8.70102   1.40856 -19.89687
   8.79080   1.03447 -19.37314
   8.73094   0.57059 -18.43042
   8.58131   0.00197 -17.18843
   8.31196  -0.56666 -15.67709
   8.10246  -1.18017 -14.03108
   7.83312  -1.77872 -12.50477
   7.68348  -2.27253 -10.76898
   7.51888  -2.78129  -9.19778
   7.18968  -3.12546  -8.04557
   6.89040  -3.26013  -6.84847
   6.48638  -3.33495  -5.65137
   6.02250  -3.26013  -4.46924
   5.63344  -3.08057  -3.21228
   5.10971  -2.75137  -1.82065
   4.52613  -2.37727  -0.26442
   3.89765  -1.94332   1.51627
   3.16442  -1.58419   3.44659
   2.34142  -1.40463   5.54152
   1.39870  -1.38966   7.63645
   0.26145  -1.47945   9.64159
  -0.99550  -1.62908  11.52702
  -2.41706  -1.70390  13.20297
  -3.88351  -1.61412  14.66941
  -5.21528  -1.41959  15.91141
  -6.33756  -1.09039  16.92894
  -7.17553  -0.73126  17.87166
  -7.69927  -0.32724  18.69467
  -7.92372  -0.01300  19.56256
  -7.84890   0.33117  20.41550
  -7.59452   0.78008  21.23850
  -7.20546   1.30381  21.91187
  -6.75655   1.90236  22.34582
  -6.29267   2.51588  22.51042
  -5.82880   3.08450  22.43561
  -5.45470   3.54838  22.16626
  -5.11054   3.87758  21.79216
  -4.81126   3.99729  21.29836
  -4.57184   3.95240  20.80456
  -4.30249   3.78780  20.31075
  -4.04811   3.59327  19.84688
  -3.76380   3.36881  19.41293
  -3.44956   3.18925  19.06876
  -3.00065   2.96479  18.75452
  -2.55173   2.59070  18.32057
  -1.95318   2.08193  17.79684
  -1.30974   1.61805  17.09354
  -0.56155   1.06439  16.24061
   0.14174   0.58555  15.05847
   0.77022   0.07678  13.68181
   1.36877  -0.35716  12.09565
   1.95236  -0.73126  10.34489
   2.44616  -1.04550   8.57916
   2.91004  -1.26995   6.88826
   3.40384  -1.44952   5.31706
   3.85276  -1.56923   3.83565
   4.34656  -1.61412   2.35424
   4.79547  -1.59916   0.84290
   5.22942  -1.61412  -0.77319
   5.57359  -1.64405  -2.58380
   5.84294  -1.61412  -4.54405
   6.05243  -1.55427  -6.62402
   6.05243  -1.49441  -8.68902
   5.91776  -1.55427 -10.69416
   5.67834  -1.79369 -12.56463
   5.28928  -2.22763 -14.25553
   4.73562  -2.61669 -15.43767
   4.04729  -3.08057 -16.35046
   3.35895  -3.55941 -17.05376
   2.61076  -3.99336 -17.48771
   1.95236  -4.51709 -17.68224
   1.29395  -5.13060 -17.74209
   0.72533  -5.84886 -17.78698
   0.21656  -6.52223 -17.84684
  -0.17249  -6.97115 -17.87676
  -0.53162  -7.25546 -17.96655
  -0.87579  -7.33028 -18.11618
  -1.23492  -7.22553 -18.16108
  -1.54916  -6.92626 -18.02640
  -1.92325  -6.43245 -17.74209
  -2.16267  -5.78901 -17.38296
  -2.38713  -5.02586 -16.85923
  -2.49188  -4.17292 -16.35046
  -2.46195  -3.24517 -15.88658
  -2.25246  -2.34734 -15.39278
  -2.02800  -1.50937 -14.98876
  -1.72873  -0.61155 -14.62963
  -1.41449   0.33117 -14.28546
  -1.13018   1.28885 -13.91137
  -0.92068   2.17171 -13.55224
  -0.60644   3.06954 -13.02851
  -0.14257   3.78780 -12.41499
   0.29138   4.28160 -11.68177
   0.81511   4.53598 -10.54452
   1.41366   4.43124  -9.42224
   2.04214   4.10204  -8.25507
   2.64069   3.59327  -7.10286
   3.20932   2.96479  -5.96561
   3.71808   2.17171  -4.97800
   4.18196   1.34870  -4.21485
   4.52613   0.40599  -3.69112
   4.78051  -0.47687  -3.31703
   4.93015  -1.24003  -3.13746
   5.01993  -1.77872  -3.07761
   5.12468  -2.00318  -3.01775
   5.24439  -2.12289  -2.86811
   5.33417  -2.12289  -2.56884
   5.36410  -2.06303  -2.01518
   5.25935  -1.95829  -1.38670
   5.13964  -1.82361  -0.65348
   4.99000  -1.74879   0.12464
   4.84037  -1.64405   0.82794
   4.64584  -1.50937   1.44145
   4.48123  -1.35974   1.96518
   4.28671  -1.29988   2.48891
   4.07721  -1.37470   2.96775
   3.83779  -1.55427   3.52141
   3.58341  -1.91340   4.13493
   3.37392  -2.21267   4.77837
   3.17939  -2.48202   5.37692
   3.05968  -2.81122   5.96051
   2.96989  -3.08057   6.42438
   2.80529  -3.30503   6.73862
   2.53595  -3.45466   6.96308
   2.11696  -3.63423   7.02293
   1.63812  -3.73897   6.94811
   1.12935  -3.84372   6.82840
   0.57569  -3.88861   6.55906
   0.08189  -3.93350   6.12511
  -0.29220  -3.88861   5.63130
  -0.68126  -3.79883   5.10757
  -0.96557  -3.67912   4.56888
  -1.20499  -3.49955   3.91047
  -1.44441  -3.36488   3.32688
  -1.62398  -3.29006   2.86301
  -1.74369  -3.17035   2.59366
  -1.86340  -3.05064   2.32431
  -1.98311  -2.87108   2.05496
  -1.92325  -2.64662   1.95022
  -1.84844  -2.30245   1.98015
  -1.66887  -1.79369   2.26446
  -1.32470  -1.19514   2.59366
  -0.92068  -0.47687   2.93783
  -0.53162   0.28628   3.23710
  -0.14257   1.04943   3.56630
   0.27642   1.72280   3.89551
   0.68044   2.24653   4.13493
   1.06950   2.68048   4.38931
   1.45856   2.87501   4.62873
   1.81769   2.96479   4.73348
   2.16185   3.00968   4.79333
   2.52098   2.86004   4.89808
   2.89508   2.56077   4.95793
   3.19435   2.20164   5.00282
   3.58341   1.72280   5.21232
   3.97247   1.25892   5.43677
   4.42138   0.83994   5.63130
   4.82540   0.48081   5.93058
   5.16957   0.24139   6.17000
   5.43892   0.13664   6.40942
   5.55863   0.22642   6.54409
   5.58855   0.42095   6.63387
   5.36410   0.54066   6.63387
   4.96008   0.67533   6.54409
   4.42138   0.86986   6.43935
   3.80787   1.04943   6.34956
   3.14946   1.22899   6.09518
   2.50602   1.39360   5.88569
   1.84761   1.60309   5.61634
   1.26403   1.81258   5.40685
   0.74029   1.94725   5.28714
   0.20160   2.12682   5.30210
  -0.30717   2.15675   5.51159
  -0.87579   2.12682   5.85576
  -1.45938   2.00711   6.27474
  -2.05793   1.73776   6.72366
  -2.73130   1.45345   7.06782
  -3.49445   1.07936   7.44192
  -4.21271   0.69030   7.72623
  -4.88608   0.10671   7.99558
  -5.54448  -0.50680   8.23500
  -6.09814  -1.15024   8.45945
  -6.54706  -1.70390   8.62405
