********************************************************************************
              CENTRO DE INSTRUMENTACION Y REGISTRO SISMICO  A.C.

    Anaxagoras 814, Col. Narvarte, Benito Juarez, C.P. 03020 Mexico, D.F.
           Tels. 5687 45 42/ 5687 45  82             Fax. 5669 25 12
********************************************************************************
ARCHIVO ESTANDAR DE ACELERACION:
VERSION DEL FORMATO                    : 2.0
NOMBRE DEL ARCHIVO                     : AU4620130616051903
FECHA Y HORA DE CREACION               : 20/OCT/17, 10:33
REF. CATALOGO ACELEROGRAMAS, SMIS 1996 : REGISTRO No.     /PAG.


================================================================================
DATOS DE LA ESTACION:
NOMBRE DE LA ESTACION                  : ESC. SEC. TÉC. NO. 14
CLAVE DE LA ESTACION                   : AU46
LOCALIZACION DE LA ESTACION            : Del. Benito Juárez, Col. del Valle,    
                                       : Entre Angel Urraza y Coyoacán.         
                                       :                                        
                                       :                                        
                                       : 
COORDENADAS DE LA ESTACION             : 19.3832 LAT. N
                                       : 99.1681 LONG. W
ALTITUD (msnm)                         : 2233
TIPO DE SUELO                          : Transición                          
                                       :                           
                                       : 
INSTITUCION RESPONSABLE                : CIRES
                                       : 

================================================================================
DATOS DEL ACELEROGRAFO:
MODELO DEL ACELEROGRAFO                : RADESD
NUMERO DE SERIE DEL ACELEROGRAFO       : 236
NUMERO DE CANALES                      : 3
ORIENTACION C1-C6 (rumbo;orientacion)  : /N00E/+V/N90W
ORIENTACION C7-C12 (rumbo;orientacion) : 
VEL. DE MUESTREO, C1-C6 (muestras/s)   : /100/100/100
VEL. DE MUESTREO, C7-C12 (muestras/s)  : 
ESC. COMPLETA DE SENSORES, C1-C6, (g)  : /0.5/0.5/0.5
ESC. COMPLETA DE SENSORES, C7-C12, (g) : 
FREC. NAT. DE SENSORES, C1-C6, (Hz)    : /33/30/30
FREC. NAT. DE SENSORES, C7-C12, (Hz)   : 
AMORTIGUAMIENTO DE SENSORES, C1-C6     : /0.735/0.733/0.730
AMORTIGUAMIENTO DE SENSORES, C7-C12    : 
INTERVALO DE MUESTREO, C1-C6, (s)      : /0.01/0.01/0.01
INTERVALO DE MUESTREO, C7-C12, (s)     : 
UMBRAL DE DISPARO, C1-C6, (Gal)        : /1.65/4.49/1.8
UMBRAL DE DISPARO, C7-C12, (Gal)       :
MEMORIA DE PREEVENTO (s)               : 44.0
TIEMPO DE POSEVENTO (s)                : 137.0


================================================================================
DATOS DEL SISMO:
FECHA DEL SISMO (GMT)                  : 16/JUN/13
HORA EPICENTRO (GMT)                   : 05:19:03.0
MAGNITUD(ES)                           : /Mc=5.8
COORDENADAS DEL EPICENTRO              : 18.11 LAT. N
                                       : 99.22 LONG. W
PROFUNDIDAD FOCAL (km)                 : 55
FUENTE DE LOS DATOS EPICENTRALES       : SSN
                                       : INSTITUTO DE GEOFISICA, UNAM

================================================================================
DATOS DE ESTE REGISTRO:
HORA DE LA PRIMERA MUESTRA (GMT)       : 05:19:24.00
EXACTITUD DEL TIEMPO (s)               : 0.01
DURACION DEL REGISTRO (s), C1-C6       : /193.0/193.0/193.0
DURACION DEL REGISTRO (s), C7-C12      : 
NUM. TOTAL DE MUESTRAS, C1-C6          : /19300/19300/19300
NUM. TOTAL DE MUESTRAS, C7-C12         : 
ACEL. MAX. (Gal), C1-C6                : /19.65968/9.19758/17.59429
ACEL. MAX., C1-C6, EN LA MUESTRA       : /6023/4370/7041
ACEL. MAX. (Gal), C7-C12               : 
ACEL. MAX., C7-C12, EN LA MUESTRA      : 
UNIDADES DE LOS DATOS                  : Gal (cm/s/s)
FACTOR DE DECIMACION                   : 1
FORMATO DATOS (FORTRAN,10 campos/dato) : 3F10.5


================================================================================
CALIDAD DEL ACELEROGRAMA:
REGISTRO DIGITAL COMPLETO CON TIEMPO ABSOLUTO CORRECTO.


================================================================================
COMENTARIOS:














================================================================================
DATOS DE ACELERACION:
---------+---------+---------+---------+---------+---------+---------+---------+
   CANAL-1   CANAL-2   CANAL-3   CANAL-4   CANAL-5   CANAL-6   CANAL-7   CANAL-8
      N00E        +V      N90W
---------+---------+---------+---------+---------+---------+---------+---------+
[...]
  -0.04759   0.02480  -0.29618
  -0.07752  -0.28944  -0.28122
  -0.21219  -0.60368  -0.19144
  -0.31694  -0.94785   0.01806
  -0.55636  -1.15734   0.25748
  -0.79578  -1.26209   0.52683
  -1.06513  -1.20223   0.67646
  -1.30455  -1.15734   0.81114
  -1.46915  -0.97778   0.97574
  -1.57390  -0.78325   1.14034
  -1.39433  -0.43908   1.20019
  -1.11002  -0.05002   1.18523
  -0.73593   0.29414   1.17027
  -0.27205   0.57846   1.20019
  -0.00270   0.80291   1.17027
   0.17686   0.98248   1.18523
   0.35643   1.25182   1.06552
   0.41628   1.38650   0.88596
   0.43125   1.31168   0.73632
   0.38636   1.13211   0.69143
   0.37139   0.74306   0.85603
   0.29657   0.36896   0.94581
   0.08708   0.02480   0.99070
  -0.03263  -0.16973   1.00567
  -0.31694  -0.28944   1.05056
  -0.54140  -0.36426   1.12538
  -0.70600  -0.34930   1.09545
  -0.79578  -0.22959   1.05056
  -0.73593  -0.07995   0.96077
  -0.64614   0.12954   0.82610
  -0.57132   0.23429   0.78121
  -0.43665   0.36896   0.67646
  -0.34687   0.39889   0.46697
  -0.24212   0.27918   0.21259
  -0.18227  -0.02009   0.00309
  -0.06256  -0.21462  -0.07173
   0.01226  -0.36426  -0.19144
   0.01226  -0.49894  -0.35604
   0.04219  -0.64857  -0.62538
   0.14694  -0.84310  -0.84984
   0.29657  -0.96281  -1.02941
   0.40132  -0.91792  -1.16408
   0.44621  -0.78325  -1.50825
   0.35643  -0.57375  -1.73270
   0.16190  -0.34930  -1.83745
  -0.03263  -0.27448  -1.79256
  -0.19723  -0.31937  -1.79256
  -0.31694  -0.52886  -1.80752
  -0.31694  -0.64857  -1.80752
  -0.31694  -0.58872  -1.77759
  -0.37680  -0.52886  -1.59803
  -0.42169  -0.43908  -1.32868
  -0.43665  -0.36426  -0.99948
  -0.37680  -0.28944  -0.76006
  -0.34687  -0.18470  -0.73013
  -0.31694  -0.12484  -0.89473
  -0.28701  -0.02009  -0.99948
  -0.33190   0.12954  -1.02941
  -0.42169   0.33904  -1.01444
  -0.55636   0.51860  -0.92466
  -0.70600   0.60838  -0.78999
  -0.76585   0.63831  -0.62538
  -0.82571   0.51860  -0.44582
  -0.85564   0.27918  -0.40093
  -0.88556   0.03976  -0.43086
  -0.97535  -0.19966  -0.35604
  -1.06513  -0.36426  -0.26625
  -1.11002  -0.51390  -0.02683
  -1.15491  -0.67850   0.09288
  -1.06513  -0.78325   0.19762
  -0.88556  -0.75332   0.25748
  -0.67607  -0.75332   0.33230
  -0.48154  -0.79821   0.57172
  -0.36183  -0.79821   0.87099
  -0.28701  -0.73836   1.23012
  -0.24212  -0.48397   1.49947
  -0.12241  -0.16973   1.64911
  -0.03263   0.24925   1.72393
  -0.06256   0.59342   1.66407
  -0.09248   0.78795   1.55932
  -0.22716   0.80291   1.45458
  -0.34687   0.68320   1.37976
  -0.43665   0.63831   1.40969
  -0.45161   0.68320   1.45458
  -0.39176   0.75802   1.45458
  -0.15234   0.96751   1.33487
   0.13197   1.22190   1.26005
   0.52103   1.41643   1.30494
   0.88016   1.58103   1.43961
   1.25425   1.49124   1.67903
   1.53857   1.23686   1.73889
   1.77799   1.01240   1.93342
   2.01741   0.92262   1.91845
   2.03237   0.95255   1.72393
   2.06230   0.90766   1.40969
   2.06230   0.77298   1.02063
   1.97252   0.53356   0.78121
   1.86777   0.29414   0.64654
   1.73309   0.15947   0.52683
   1.64331   0.03976   0.51186
   1.50864  -0.03506   0.42208
   1.38893  -0.21462   0.34726
   1.29915  -0.28944   0.18266
   1.11958  -0.28944  -0.07173
   0.88016  -0.31937  -0.28122
   0.64074  -0.22959  -0.40093
   0.44621  -0.13980  -0.41589
   0.38636  -0.02009  -0.38596
   0.43125   0.09962  -0.35604
   0.53599   0.29414  -0.34107
   0.62578   0.45875  -0.46078
   0.73052   0.42882  -0.64035
   0.83527   0.27918  -0.86480
   0.86520   0.02480  -1.04437
   0.83527  -0.22959  -1.19401
   0.80534  -0.36426  -1.22393
   0.83527  -0.37923  -1.13415
   0.88016  -0.27448  -0.99948
   0.92505  -0.25952  -0.90970
   0.95498  -0.22959  -0.83488
   0.73052  -0.24455  -0.77502
   0.41628  -0.22959  -0.68524
   0.04219  -0.13980  -0.52064
  -0.30198  -0.03506  -0.44582
  -0.55636   0.11458  -0.44582
  -0.73593   0.30911  -0.61042
  -0.87060   0.38393  -0.77502
  -1.00527   0.48867  -1.01444
  -1.16987   0.44378  -1.19401
  -1.27462   0.23429  -1.20897
  -1.28958  -0.05002  -1.17904
  -1.19980  -0.39419  -0.96955
  -1.09506  -0.69346  -0.77502
  -0.93045  -0.96281  -0.62538
  -0.85564  -1.09749  -0.49071
  -0.88556  -1.20223  -0.49071
  -0.97535  -1.24712  -0.44582
  -1.15491  -1.30698  -0.41589
  -1.27462  -1.48654  -0.34107
  -1.30455  -1.53143  -0.31115
  -1.28958  -1.44165  -0.29618
  -1.18484  -1.20223  -0.31115
  -1.05016  -0.85807  -0.26625
  -0.85564  -0.43908  -0.32611
  -0.76585  -0.10988  -0.43086
  -0.79578   0.18940  -0.47575
  -0.84067   0.39889  -0.50567
  -0.93045   0.59342  -0.38596
  -0.97535   0.75802  -0.16151
  -1.09506   0.84780   0.13777
  -1.22973   0.77298   0.43704
  -1.31951   0.57846   0.64654
  -1.36440   0.33904   0.79617
  -1.37937   0.20436   0.76625
  -1.37937   0.20436   0.66150
  -1.28958   0.23429   0.54179
  -1.18484   0.23429   0.42208
  -0.99031   0.24925   0.36222
  -0.66111   0.32407   0.31733
  -0.28701   0.38393   0.25748
  -0.03263   0.60838   0.12280
   0.08708   0.84780  -0.04180
   0.05715   1.07226  -0.11662
  -0.07752   1.19197  -0.13158
  -0.19723   1.16204  -0.11662
  -0.19723   1.04233  -0.07173
  -0.13738   0.98248  -0.05676
  -0.01766   1.05730  -0.10165
   0.08708   1.14708  -0.22136
   0.29657   1.19197  -0.37100
   0.52103   1.05730  -0.46078
   0.82031   0.65327  -0.49071
   1.08965   0.12954  -0.49071
   1.38893  -0.34930  -0.59546
   1.67324  -0.63361  -0.70020
   1.91266  -0.61865  -0.76006
   2.01741  -0.52886  -0.67028
   2.09223  -0.48397  -0.52064
   1.95755  -0.55879  -0.29618
   1.82288  -0.66354  -0.04180
   1.65828  -0.72339   0.15273
   1.58346  -0.82814   0.28740
   1.67324  -0.90296   0.30237
   1.70317  -1.00770   0.34726
   1.80791  -1.08252   0.46697
   1.86777  -1.02267   0.61661
   1.83784  -0.93288   0.72135
   1.77799  -0.87303   0.88596
   1.62835  -0.85807   1.09545
   1.38893  -0.94785   1.28998
   1.08965  -1.21720   1.42465
   0.80534  -1.68107   1.51443
   0.62578  -2.08509   1.51443
   0.40132  -2.36941   1.49947
   0.28161  -2.41430   1.42465
   0.08708  -2.29459   1.21516
  -0.03263  -2.14495   0.97574
  -0.13738  -1.96538   0.78121
  -0.10745  -1.86064   0.69143
  -0.06256  -1.68107   0.60164
   0.04219  -1.38180   0.46697
   0.19183  -0.85807   0.33230
   0.31154  -0.13980   0.16769
   0.38636   0.57846   0.12280
   0.52103   1.23686   0.10784
   0.64074   1.61096   0.21259
   0.64074   1.80548   0.30237
   0.44621   1.76059   0.42208
   0.17686   1.89527   0.52683
  -0.21219   2.28432   0.55675
  -0.61622   2.79309   0.43704
  -0.93045   3.30186   0.19762
  -1.15491   3.66099  -0.04180
  -1.31951   3.93034  -0.25129
  -1.42426   4.10990  -0.47575
  -1.61879   4.24458  -0.74509
  -1.82828   4.27450  -0.93962
  -2.00785   4.19969  -0.92466
  -2.02281   4.00516  -0.83488
  -1.85821   3.69092  -0.71517
  -1.57390   3.30186  -0.73013
  -1.21477   2.92777  -0.76006
  -0.96038   2.59856  -0.80495
  -0.78082   2.23943  -0.84984
  -0.63118   1.88030  -0.86480
  -0.37680   1.40146  -0.76006
  -0.09248   1.07226  -0.65531
   0.34147   0.74306  -0.55057
   0.71556   0.51860  -0.56553
   0.99987   0.14451  -0.64035
   1.14951  -0.27448  -0.62538
   1.04476  -0.58872  -0.46078
   0.88016  -0.78325  -0.32611
   0.71556  -0.87303  -0.17647
   0.58089  -0.88799  -0.05676
   0.58089  -0.88799  -0.05676
   0.62578  -0.87303  -0.17647
   0.61081  -1.06756  -0.40093
   0.56592  -1.29201  -0.67028
   0.49110  -1.48654  -1.04437
   0.44621  -1.62122  -1.22393
   0.41628  -1.72596  -1.35861
   0.49110  -1.83071  -1.43343
   0.73052  -1.78582  -1.55314
   1.07469  -1.62122  -1.67285
   1.37396  -1.39676  -1.77759
   1.68820  -1.17230  -1.86738
   2.07726  -1.17230  -1.80752
   2.46632  -1.38180  -1.59803
   2.79552  -1.74093  -1.17904
   3.00501  -2.08509  -0.78999
   3.00501  -2.18984  -0.56553
   2.88530  -2.04020  -0.43086
   2.66085  -1.65114  -0.43086
   2.33165  -1.14238  -0.40093
   2.06230  -0.57375  -0.34107
   1.77799  -0.28944  -0.11662
   1.56849  -0.34930   0.25748
   1.43382  -0.57375   0.69143
   1.31411  -0.81317   1.09545
   1.20936  -0.78325   1.46954
   1.08965  -0.52886   1.90349
   1.05973  -0.15477   2.24766
   1.19440   0.02480   2.47211
   1.44878   0.06969   2.53197
   1.67324   0.02480   2.45715
   1.88273  -0.03506   2.24766
   2.06230   0.18940   1.90349
   2.21194   0.47371   1.37976
   2.42143   0.83284   0.66150
   2.66085   1.11715  -0.31115
   2.84041   1.16204  -1.43343
   2.84041   0.95255  -2.64549
   2.67581   0.42882  -3.69296
   2.52617  -0.36426  -4.54589
   2.27179  -1.30698  -5.05466
   1.98748  -2.04020  -5.17437
   1.71813  -2.48912  -4.96487
   1.35900  -2.56393  -4.45611
   1.01483  -2.26466  -3.75281
   0.82031  -1.84567  -2.91484
   0.77541  -1.50151  -1.91227
   0.83527  -1.15734  -0.80495
   0.98491  -0.88799   0.42208
   1.26922  -0.57375   1.64911
   1.73309  -0.24455   2.57686
   2.19697   0.06969   3.35498
   2.55610   0.36896   3.99842
   2.64588   0.84780   4.56704
   2.42143   1.14708   5.25537
   1.76302   1.14708   5.97363
   0.86520   0.74306   6.66197
  -0.18227   0.29414   7.47001
  -1.52900  -0.22959   8.12842
  -3.26480  -0.76828   8.56236
  -5.18016  -1.29201   8.68207
  -7.27509  -1.71100   8.69704
  -9.32512  -1.92049   8.63718
 -11.15070  -1.84567   8.50251
 -12.63211  -1.62122   8.12842
 -13.78432  -1.53143   7.48497
 -14.51755  -1.65114   6.69189
 -14.98143  -1.87560   5.86889
 -15.17595  -2.12999   4.94113
 -15.32559  -2.42926   3.95353
 -15.55005  -2.68364   2.66664
 -15.65479  -2.86321   1.34983
 -15.65479  -2.89314   0.06295
 -15.59494  -2.72854  -1.07430
 -15.56501  -2.36941  -2.04694
 -15.52012  -1.80078  -2.75024
 -15.53508  -1.08252  -3.19915
 -15.60990  -0.34930  -3.51339
 -15.75954   0.36896  -3.78274
 -15.92414   0.96751  -3.94734
 -15.99896   1.50621  -4.00719
 -15.95407   1.89527  -4.02216
 -15.62487   2.17958  -4.03712
 -15.01135   2.25440  -3.99223
 -14.12849   2.28432  -4.18676
 -12.91643   2.32922  -4.47107
 -11.47991   2.59856  -5.05466
  -9.77404   3.03251  -5.92256
  -7.90357   3.52632  -6.89520
  -6.01813   3.82559  -7.82295
  -4.17759   3.87048  -8.75071
  -2.45676   3.52632  -9.76824
  -0.76585   2.88287 -10.93542
   0.89512   2.34418 -12.11755
   2.51121   1.98505 -13.25480
   4.03751   1.94016 -13.89824
   5.39922   1.83541 -14.16759
   6.65617   1.79052 -14.03291
   7.89816   1.79052 -13.40444
   9.12519   1.94016 -12.58143
  10.42704   2.35914 -11.74346
  11.71392   2.76316 -10.81571
  12.91102   2.95769  -9.78321
  14.00338   2.86791  -8.82553
  14.96106   2.50878  -7.76310
  15.94867   2.19454  -6.86527
  16.83153   1.91023  -6.28169
  17.71439   1.74563  -5.90759
  18.50747   1.50621  -5.60832
  19.15091   1.01240  -5.03969
  19.52501   0.18940  -4.15683
  19.65968  -0.90296  -2.89988
  19.59982  -2.11502  -1.41846
  19.21077  -3.34205   0.07791
  18.43265  -4.43440   1.61918
  17.31037  -5.33223   2.99585
  15.97859  -6.33480   4.28273
  14.57200  -7.05306   5.43494
  13.10555  -7.42716   6.52729
  11.62414  -7.29248   7.44008
  10.21755  -6.58919   8.15834
   8.99052  -5.61654   8.57733
   8.07773  -4.41944   8.71200
   7.44925  -3.40190   8.51747
   7.23976  -2.36941   8.12842
   7.20983  -1.23216   7.73936
   7.25472   0.05472   7.51490
   7.26969   1.43139   7.42512
   7.09012   2.85295   7.78425
   6.56639   4.10990   8.60726
   5.69849   4.90298   9.69961
   4.59117   5.15737  10.95657
   3.21451   4.97780  12.21352
   1.74806   4.61867  13.44055
   0.19183   4.18472  14.53290
  -1.33448   3.55624  15.41577
  -2.68121   2.80806  16.22381
  -3.86335   1.74563  16.68769
  -4.85096   0.47371  16.88222
  -5.67397  -0.82814  16.58294
  -6.51194  -1.92049  15.84972
  -7.27509  -2.50408  14.66758
  -8.15795  -2.57890  13.27595
  -8.95103  -2.26466  11.73468
  -9.53462  -1.63618  10.10363
  -9.89375  -0.82814   8.33791
  -9.98353  -0.05002   6.55722
  -9.89375   0.65327   4.68675
  -9.75907   1.20693   2.89110
  -9.44483   1.59599   1.26005
  -9.16052   1.91023   0.06295
  -8.60686   2.05987  -0.64035
  -7.81378   2.05987  -0.99948
  -6.75136   1.70074  -1.04437
  -5.62908   1.14708  -0.89473
  -4.71629   0.48867  -0.41589
  -4.14766  -0.21462   0.27244
  -4.19255  -0.85807   0.91588
  -4.71629  -1.39676   1.57429
  -5.70389  -1.68107   1.88853
  -6.67654  -1.89056   1.81371
  -7.45465  -1.89056   1.26005
  -7.84371  -1.71100   0.16769
  -7.87364  -1.47158  -1.05933
  -7.55940  -1.18727  -2.46593
  -6.91596  -1.09749  -3.81267
  -5.91339  -1.06756  -5.12948
  -4.74621  -1.06756  -6.28169
  -3.53415  -0.97778  -7.07477
  -2.45676  -0.63361  -7.59850
  -1.58886  -0.13980  -7.62842
  -0.99031   0.39889  -7.17951
  -0.72096   0.75802  -6.26672
  -0.70600   0.92262  -5.06962
  -0.87060   0.95255  -3.87252
  -1.11002   0.95255  -2.78017
  -1.28958   1.02737  -2.16665
  -1.30455   1.13211  -2.13672
  -0.88556   1.31168  -2.58564
  -0.03263   1.53614  -3.30390
   1.16447   1.94016  -4.06705
   2.58603   2.58360  -4.87509
   4.14226   3.34675  -5.45868
   5.71346   3.93034  -5.93752
   7.09012   4.30443  -5.99737
   8.16751   4.57378  -5.62328
   8.87081   4.67853  -4.86013
   9.33469   4.69349  -3.94734
   9.57411   4.43911  -2.97469
   9.69382   3.81063  -2.00205
   9.78360   2.88287  -1.19401
   9.93324   1.82045  -0.59546
  10.15769   0.68320  -0.31115
  10.51682  -0.39419  -0.25129
  11.10041  -1.35187  -0.34107
  11.77378  -2.14495  -0.53560
  12.53693  -2.90810  -0.81991
  13.06066  -3.68622  -1.35861
  13.27015  -4.68879  -1.97212
  13.18037  -5.70632  -2.61556
  12.70153  -6.49940  -3.16922
  11.83363  -7.02313  -3.57325
  10.62157  -7.27752  -3.87252
   9.09527  -7.39723  -3.81267
   7.62882  -7.24759  -3.51339
   6.40179  -6.81364  -3.21411
   5.66856  -6.11035  -3.12433
   5.45907  -5.15266  -3.39368
   5.72842  -4.09024  -3.84259
   6.29704  -2.89314  -4.15683
   7.01530  -1.69604  -4.09698
   7.64378  -0.79821  -3.67799
   7.97298   0.00983  -2.89988
   7.80838   0.62335  -1.76263
   6.92552   1.13211  -0.67028
   5.27951   1.37153   0.10784
   3.09480   1.34161   0.64654
   0.41628   1.01240   0.91588
  -2.63632   0.59342   1.00567
  -5.82360   0.21933   1.05056
  -8.86125  -0.07995   0.94581
 -11.43501  -0.22959   0.72135
 -13.20074  -0.00513   0.45201
 -14.23324   0.35400   0.31733
 -14.71208   0.48867   0.40712
 -14.65222   0.20436   0.72135
 -14.39784  -0.31937   1.37976
 -14.06864  -1.06756   2.21773
 -13.55987  -1.77085   2.84621
 -13.06606  -2.42926   3.11556
 -12.57226  -2.86321   3.11556
 -12.25802  -2.99788   2.81628
 -12.06349  -2.69861   2.42722
 -12.16824  -2.02524   1.97831
 -12.51240  -1.29201   1.42465
 -13.03614  -0.46901   0.78121
 -13.57483   0.51860   0.06295
 -13.94893   1.65585  -0.87977
 -14.03871   2.91280  -2.01701
 -13.75440   4.31940  -3.25901
 -13.09599   5.80081  -4.44114
 -12.16824   7.13258  -5.30904
 -10.92625   7.89573  -5.77292
  -9.62440   7.97055  -5.87766
  -8.29262   7.38697  -5.63824
  -7.03567   6.45921  -5.02473
  -5.86850   5.62124  -4.08201
  -4.65643   4.91795  -2.98966
  -3.32466   4.22961  -1.79256
  -1.75346   3.40661  -0.68524
   0.23672   2.58360   0.24251
   2.57107   1.70074   0.84106
   5.20469   0.87773   1.00567
   7.91313   0.06969   0.76625
  10.47193  -0.51390   0.28740
  12.68657  -0.91792  -0.28122
  14.54207  -1.17230  -0.62538
  16.06838  -1.39676  -0.53560
  17.04102  -1.66611  -0.02683
  17.46001  -2.01027   0.88596
  17.35526  -2.41430   1.96335
