********************************************************************************
               CENTRO DE INSTRUMENTACION Y REGISTRO SISMICO  A.C.  
                       Coordinacion de Servicios Tecnicos
     Anaxagoras 814, Col. Narvarte, Benito Juarez, C.P. 03020 Mexico, D.F.
            Tels. 687 45 42/ 687 45  82             Fax. 669 25 12
********************************************************************************
ARCHIVO ESTANDAR DE ACELERACION:
VERSION DEL FORMATO                    : 2.0
NOMBRE DEL ARCHIVO                     : AU460110.081
FECHA Y HORA DE CREACION               : 06/JUL/04, 11:20
REF. CATALOGO ACELEROGRAMAS, SMIS 1996 : REGISTRO No.     /PAG.


================================================================================
DATOS DE LA ESTACION:
NOMBRE DE LA ESTACION                  : ANGEL URRAZA
CLAVE DE LA ESTACION                   : AU46
LOCALIZACION DE LA ESTACION            : Esc Sec Tec # 14, 5 de Mayo Av
                                       : Coyoacan y Angel Urraza, Col de
                                       : Valle, Benito Juarez
                                       :
                                       :
COORDENADAS DE LA ESTACION             : 19.383 LAT. N 
                                       : 99.168 LONG. W 
ALTITUD (msnm)                         : 2233
TIPO DE SUELO                          : TRANSICION
                                       : 
                                       : 
INSTITUCION RESPONSABLE                : CIRES
                                       :

================================================================================
DATOS DEL ACELEROGRAFO:
MODELO DEL ACELEROGRAFO                : RAD-851
NUMERO DE SERIE DEL ACELEROGRAFO       : 236
NUMERO DE CANALES                      : 3
ORIENTACION C1-C6 (rumbo;orientacion)  : /N00E/+V/N90W
ORIENTACION C7-C12 (rumbo;orientacion) :
VEL. DE MUESTREO, C1-C6 (muestras/s)   : /100/100/100
VEL. DE MUESTREO, C7-C12 (muestras/s)  :
ESC. COMPLETA DE SENSORES, C1-C6, (g)  : /0.5/0.5/0.5
ESC. COMPLETA DE SENSORES, C7-C12, (g) :
FREC. NAT. DE SENSORES, C1-C6, (Hz)    : /33/30/30
FREC. NAT. DE SENSORES, C7-C12, (Hz)   :
AMORTIGUAMIENTO DE SENSORES, C1-C6     : /0.735/0.733/0.730
AMORTIGUAMIENTO DE SENSORES, C7-C12    :
INTERVALO DE MUESTREO, C1-C6, (s)      : /0.01/0.01/0.01
INTERVALO DE MUESTREO, C7-C12, (s)     :
UMBRAL DE DISPARO, C1-C6, (Gal)        : /1.71/2.44/1.71
UMBRAL DE DISPARO, C7-C12, (Gal)       :
MEMORIA DE PREEVENTO (s)               : 24
TIEMPO DE POSEVENTO (s)                : 64


================================================================================
DATOS DEL SISMO:
FECHA DEL SISMO (GMT)                  : 08/OCT/01
HORA EPICENTRO (GMT)                   : 03:39:19:3
MAGNITUD(ES)                           : /Mb=5.6/Ms=5.4/Mc=5.5/Ma=7.6/Me=6.1
COORDENADAS DEL EPICENTRO              : 16.94 LAT. N
                                       : 100.14 LONG. W
PROFUNDIDAD FOCAL (km)                 : 4.0
FUENTE DE LOS DATOS EPICENTRALES       : SSN
                                       : INSTITUTO DE GEOFISICA, UNAM

================================================================================
DATOS DE ESTE REGISTRO:
HORA DE LA PRIMERA MUESTRA (GMT)       : 03:40:42.00
EXACTITUD DEL TIEMPO (s)               : 0.01
DURACION DEL REGISTRO (s), C1-C6       : /110.75/110.75/110.75
DURACION DEL REGISTRO (s), C7-C12      :
NUM. TOTAL DE MUESTRAS, C1-C6          : /11075/11075/11075
NUM. TOTAL DE MUESTRAS, C7-C12         :
ACEL. MAX. (Gal), C1-C6                : /-5.74126/2.47171/6.14160
ACEL. MAX., C1-C6, EN LA MUESTRA       :
ACEL. MAX. (Gal), C7-C12               :
ACEL. MAX., C7-C12, EN LA MUESTRA      :
UNIDADES DE LOS DATOS                  : Gal (cm/s/s)
FACTOR DE DECIMACION                   : 1
FORMATO DATOS (FORTRAN,10 campos/dato) : 3F10.5


================================================================================
CALIDAD DEL ACELEROGRAMA:
REGISTRO DIGITAL COMPLETO CON TIEMPO ABSOLUTO CORRECTO.


================================================================================
COMENTARIOS:














================================================================================
DATOS DE ACELERACION:
---------+---------+---------+---------+---------+---------+---------+---------+
   CANAL-1   CANAL-2   CANAL-3   CANAL-4   CANAL-5   CANAL-6   CANAL-7   CANAL-8
      N00E        +V      N90W
---------+---------+---------+---------+---------+---------+---------+---------+
[...]
   0.00480   0.07752   1.83206
   0.24422   0.31694   2.07148
   0.48364   0.55636   2.07148
   0.48364   0.55636   2.31090
   0.48364   0.79578   2.31090
   0.72306   0.79578   2.31090
   0.72306   0.79578   1.83206
   0.72306   0.79578   1.83206
   0.96247   0.79578   1.59264
   0.96247   0.55636   1.35322
   1.20189   0.55636   1.11380
   1.20189   0.55636   0.87438
   1.20189   0.31694   0.63496
   1.44131   0.07752   0.39554
   1.44131  -0.16190   0.39554
   1.68073  -0.40132   0.15612
   1.68073  -0.40132  -0.08329
   1.68073  -0.64073  -0.08329
   1.68073  -0.64073  -0.08329
   1.68073  -0.88015  -0.08329
   1.68073  -0.88015  -0.08329
   1.44131  -0.88015  -0.08329
   1.68073  -1.11957  -0.08329
   1.44131  -1.11957  -0.56213
   1.20189  -0.88015  -0.56213
   1.20189  -0.64073  -0.56213
   0.96247  -0.40132  -0.80155
   0.96247  -0.16190  -1.04097
   0.96247   0.07752  -0.80155
   0.96247   0.31694  -0.80155
   0.96247   0.31694  -0.80155
   0.72306   0.55636  -0.80155
   0.48364   0.55636  -0.80155
   0.48364   0.55636  -0.80155
   0.24422   0.79578  -0.80155
  -0.23462   0.79578  -0.56213
  -0.47404   0.79578  -0.56213
  -0.71346   0.55636  -0.32271
  -0.95288   0.31694  -0.32271
  -1.19230   0.07752  -0.32271
  -1.43171   0.07752  -0.56213
  -1.67113  -0.40132  -0.56213
  -1.91055  -0.40132  -0.80155
  -1.67113  -0.40132  -1.04097
  -1.43171  -0.40132  -1.28039
  -1.67113  -0.16190  -1.51981
  -1.43171   0.07752  -1.75923
  -1.67113  -0.16190  -1.75923
  -1.43171  -0.16190  -1.51981
  -1.43171  -0.16190  -1.51981
  -1.43171  -0.16190  -1.28039
  -1.67113   0.31694  -1.04097
  -1.67113   0.55636  -0.80155
  -1.91055   0.31694  -0.80155
  -1.91055   0.55636  -0.56213
  -1.91055   0.55636  -0.32271
  -1.91055   0.31694  -0.08329
  -1.67113   0.31694  -0.08329
  -1.67113   0.31694  -0.08329
  -0.95288   0.31694  -0.32271
  -0.71346   0.55636  -0.32271
  -0.47404   0.55636  -0.32271
  -0.23462   0.31694  -0.32271
   0.24422   0.07752  -0.56213
   0.48364  -0.16190  -0.56213
   0.48364  -0.16190  -0.56213
   0.48364  -0.16190  -0.80155
   0.48364  -0.40132  -0.80155
   0.48364  -0.40132  -0.80155
   0.72306  -0.40132  -0.80155
   0.72306  -0.64073  -1.04097
   0.72306  -0.64073  -0.80155
   0.72306  -0.64073  -1.04097
   0.72306  -0.88015  -0.80155
   0.72306  -1.11957  -0.80155
   0.72306  -1.11957  -0.56213
   0.48364  -1.11957  -0.32271
   0.48364  -1.35899  -0.08329
   0.24422  -1.11957   0.39554
   0.24422  -1.11957   0.63496
   0.00480  -0.64073   1.11380
  -0.23462  -0.40132   1.59264
  -0.71346  -0.40132   1.59264
  -0.71346  -0.40132   2.07148
  -0.71346  -0.16190   2.31090
  -0.71346  -0.16190   2.31090
  -0.71346   0.07752   2.31090
  -0.47404   0.07752   2.55031
  -0.47404   0.31694   2.31090
  -0.71346   0.07752   2.07148
  -0.95288   0.31694   2.07148
  -0.95288   0.55636   2.07148
  -1.19230   0.55636   1.83206
  -1.43171   0.55636   1.59264
  -1.67113   0.55636   1.35322
  -1.91055   0.55636   1.35322
  -2.14997   0.31694   1.11380
  -2.62881   0.31694   1.11380
  -2.62881   0.31694   0.87438
  -2.62881   0.07752   0.87438
  -2.62881   0.31694   1.11380
  -2.62881   0.07752   1.35322
  -2.38939   0.07752   1.35322
  -1.91055  -0.16190   1.59264
  -1.67113  -0.16190   1.83206
  -1.19230  -0.16190   2.07148
  -0.71346  -0.16190   2.31090
  -0.47404   0.07752   2.31090
   0.00480   0.07752   2.31090
   0.72306   0.31694   2.07148
   1.20189   0.31694   1.83206
   1.68073   0.31694   1.59264
   1.92015   0.31694   1.11380
   2.39899   0.31694   0.63496
   2.39899   0.07752   0.15612
   2.15957   0.31694  -0.08329
   2.39899   0.07752  -0.56213
   2.39899   0.07752  -1.04097
   2.39899   0.31694  -1.04097
   2.63841   0.55636  -1.04097
   2.87783   0.55636  -1.04097
   2.87783   0.55636  -1.04097
   3.11725   0.55636  -1.28039
   3.11725   0.55636  -1.51981
   3.11725   0.31694  -1.51981
   3.11725   0.31694  -1.75923
   2.87783   0.31694  -1.75923
   2.87783   0.07752  -1.99865
   3.11725  -0.40132  -1.99865
   2.63841  -0.40132  -1.99865
   2.39899  -0.88015  -1.99865
   2.15957  -0.88015  -2.47748
   1.92015  -1.11957  -2.47748
   1.20189  -1.11957  -2.95632
   0.96247  -1.59841  -3.43516
   0.48364  -1.35899  -3.43516
   0.00480  -1.35899  -3.67458
  -0.47404  -1.35899  -3.91400
  -0.71346  -1.11957  -3.91400
  -0.95288  -0.88015  -3.67458
  -1.19230  -0.64073  -3.43516
  -1.67113  -0.16190  -3.19574
  -1.67113   0.07752  -2.71690
  -1.67113   0.07752  -2.71690
  -1.91055   0.31694  -2.47748
  -1.91055   0.31694  -2.47748
  -1.67113   0.55636  -2.23806
  -1.43171   0.55636  -2.47748
  -1.19230   0.79578  -2.47748
  -1.19230   0.79578  -2.47748
  -0.95288   0.79578  -2.47748
  -0.71346   0.55636  -2.47748
  -0.71346   0.55636  -1.99865
  -0.47404   0.31694  -1.75923
  -0.47404   0.07752  -1.04097
  -0.47404  -0.16190  -0.80155
  -0.23462  -0.40132  -0.56213
   0.00480  -0.40132  -0.08329
   0.00480  -0.40132   0.15612
   0.24422  -0.40132   0.15612
   0.48364  -0.40132   0.39554
   0.72306  -0.16190   0.39554
   0.96247   0.07752   0.63496
   1.44131   0.55636   0.63496
   1.92015   0.55636   0.63496
   1.92015   0.79578   0.63496
   2.39899   0.79578   0.87438
   2.63841   0.79578   1.11380
   3.11725   0.55636   1.11380
   2.87783   0.31694   1.11380
   2.87783   0.31694   1.35322
   2.63841   0.07752   1.35322
   2.63841   0.07752   1.35322
   2.87783  -0.16190   1.11380
   2.63841  -0.16190   1.11380
   2.39899  -0.16190   1.11380
   2.39899  -0.40132   1.11380
   2.15957  -0.40132   0.87438
   1.92015  -0.64073   0.87438
   1.44131  -0.64073   0.87438
   1.20189  -0.64073   1.11380
   0.72306  -0.40132   0.87438
   0.48364  -0.16190   1.11380
   0.24422   0.07752   1.11380
   0.00480   0.07752   1.11380
   0.00480   0.07752   1.35322
  -0.23462   0.31694   1.59264
  -0.23462   0.31694   1.59264
  -0.23462   0.31694   1.83206
  -0.71346   0.31694   1.83206
  -0.47404   0.55636   1.83206
  -0.95288   1.03520   1.83206
  -0.95288   1.03520   2.07148
  -1.43171   0.79578   2.31090
  -1.67113   0.55636   2.55031
  -1.91055   0.55636   3.02915
  -2.14997   0.31694   3.50799
  -2.38939   0.07752   3.98683
  -2.62881  -0.16190   4.22625
  -2.38939  -0.16190   4.22625
  -2.62881  -0.16190   4.46567
  -2.62881  -0.16190   4.22625
  -2.86823   0.07752   3.74741
  -2.86823   0.07752   3.02915
  -3.10765   0.07752   2.07148
  -3.10765   0.07752   1.35322
  -3.10765  -0.16190   0.63496
  -2.86823   0.07752   0.15612
  -2.86823   0.07752  -0.32271
  -2.62881   0.31694  -0.32271
  -2.38939   0.55636  -0.32271
  -2.38939   0.79578  -0.08329
  -2.14997   1.03520  -0.08329
  -2.14997   1.03520  -0.08329
  -2.14997   1.27462  -0.08329
  -2.14997   1.27462  -0.32271
  -2.38939   1.51404  -0.56213
  -2.62881   1.51404  -1.04097
  -2.62881   1.51404  -1.28039
  -2.86823   1.03520  -1.75923
  -2.86823   0.55636  -1.99865
  -2.86823   0.07752  -1.99865
  -3.10765  -0.40132  -1.99865
  -3.10765  -0.88015  -1.75923
  -2.86823  -1.11957  -1.99865
  -2.62881  -1.35899  -1.99865
  -2.38939  -1.59841  -2.23806
  -1.91055  -1.59841  -2.47748
  -1.91055  -1.59841  -2.71690
  -1.67113  -1.83783  -2.95632
  -1.67113  -1.59841  -3.43516
  -1.67113  -1.35899  -3.43516
  -1.91055  -1.11957  -3.91400
  -1.67113  -1.11957  -4.39284
  -1.67113  -0.88015  -4.39284
  -1.19230  -0.88015  -4.15342
  -0.71346  -0.40132  -3.91400
  -0.23462  -0.16190  -3.43516
   0.24422  -0.16190  -2.95632
   0.72306   0.07752  -2.47748
   0.96247   0.31694  -1.99865
   1.44131   0.31694  -1.99865
   1.44131   0.55636  -1.51981
   1.20189   0.79578  -1.28039
   1.20189   0.79578  -1.28039
   0.96247   0.79578  -1.04097
   0.48364   0.79578  -0.80155
   0.24422   0.55636  -0.56213
   0.24422   0.31694  -0.32271
   0.48364   0.07752  -0.08329
   0.48364  -0.16190   0.39554
   0.96247  -0.40132   0.63496
   1.44131  -0.64073   1.11380
   1.92015  -0.64073   1.35322
   2.15957  -0.88015   1.83206
   2.63841  -0.88015   2.07148
   3.11725  -0.88015   2.31090
   3.59608  -0.88015   2.78973
   3.83550  -0.64073   3.02915
   4.07492  -0.40132   3.26857
   4.31434  -0.16190   3.26857
   4.31434   0.31694   3.50799
   4.31434   0.79578   3.74741
   4.55376   1.03520   3.98683
   4.55376   1.03520   3.98683
   4.07492   1.27462   4.46567
   4.07492   1.03520   4.46567
   3.83550   1.03520   4.46567
   3.83550   1.03520   4.22625
   3.59608   0.79578   4.22625
   3.59608   0.55636   4.22625
   3.59608   0.07752   4.22625
   3.83550   0.07752   4.46567
   3.83550  -0.40132   4.46567
   4.31434  -0.64073   4.22625
   4.55376  -0.88015   4.22625
   4.55376  -1.11957   3.98683
   4.55376  -1.35899   3.98683
   4.31434  -1.83783   3.50799
   4.07492  -1.83783   3.26857
   3.83550  -1.83783   2.78973
   3.35666  -1.59841   2.31090
   2.87783  -1.35899   1.83206
   2.39899  -1.11957   1.11380
   1.92015  -0.88015   0.87438
   1.44131  -0.40132   0.63496
   0.96247  -0.16190   0.39554
   0.72306   0.07752   0.15612
   0.00480   0.79578  -0.08329
  -0.47404   1.03520  -0.32271
  -0.95288   1.27462  -0.56213
  -1.67113   1.27462  -0.80155
  -2.14997   1.27462  -0.80155
  -2.38939   1.03520  -1.04097
  -2.86823   0.79578  -1.51981
  -3.34707   0.55636  -1.99865
  -3.58648   0.31694  -2.23806
  -3.82590  -0.16190  -2.71690
  -4.30474  -0.40132  -2.95632
  -4.30474  -0.64073  -3.19574
  -4.30474  -0.88015  -3.43516
  -4.30474  -0.88015  -3.67458
  -4.54416  -1.11957  -3.91400
  -4.78358  -1.11957  -4.15342
  -4.78358  -1.11957  -4.39284
  -5.50184  -0.88015  -4.39284
  -5.74126  -0.88015  -4.63225
  -5.74126  -0.40132  -4.87167
  -5.74126   0.07752  -4.87167
  -5.74126   0.31694  -4.87167
  -5.50184   0.79578  -4.87167
  -5.26242   0.79578  -4.87167
  -5.02300   1.03520  -4.87167
  -4.54416   1.03520  -4.87167
  -4.06532   1.27462  -4.87167
  -3.58648   1.27462  -4.39284
  -3.10765   1.27462  -4.15342
  -2.62881   1.03520  -3.91400
  -2.14997   1.03520  -3.67458
  -1.91055   0.79578  -3.43516
  -1.67113   0.79578  -3.19574
  -1.19230   0.31694  -3.19574
  -0.95288   0.31694  -2.95632
  -0.47404   0.07752  -2.71690
   0.00480  -0.16190  -2.71690
   0.48364  -0.16190  -2.71690
   0.96247  -0.16190  -2.71690
   1.68073  -0.16190  -2.71690
   1.92015  -0.40132  -2.47748
   2.15957  -0.16190  -2.23806
   2.39899  -0.16190  -1.75923
   2.63841   0.07752  -1.51981
   3.11725   0.07752  -1.28039
   2.87783   0.31694  -0.80155
   2.87783   0.55636  -0.32271
   2.87783   0.55636   0.15612
   2.87783   0.79578   0.63496
   2.63841   0.79578   1.11380
   2.87783   0.79578   1.35322
   2.63841   0.79578   1.83206
   2.87783   0.55636   2.31090
   2.87783   0.31694   2.55031
   2.87783  -0.16190   3.26857
   3.11725  -0.40132   3.50799
   3.11725  -0.88015   3.98683
   2.87783  -0.88015   4.46567
   2.63841  -0.88015   4.94450
   2.15957  -1.11957   5.42334
   1.68073  -1.11957   5.90218
   1.20189  -1.11957   6.14160
   0.72306  -0.88015   5.90218
   0.72306  -0.64073   6.14160
   0.48364  -0.64073   5.90218
   0.48364  -0.16190   5.90218
   0.48364  -0.16190   5.66276
   0.72306   0.07752   5.42334
   0.96247   0.31694   5.66276
   1.20189   0.55636   5.18392
   1.20189   0.79578   5.18392
   1.44131   0.79578   4.94450
   1.44131   1.03520   4.70508
   1.44131   0.79578   4.46567
   1.44131   0.79578   4.46567
   1.20189   0.55636   4.22625
   1.20189   0.07752   4.22625
   0.96247  -0.16190   3.98683
   0.96247  -0.64073   3.98683
   1.20189  -0.88015   3.50799
   0.96247  -1.11957   3.26857
   1.20189  -1.11957   2.55031
   1.20189  -0.88015   2.07148
   1.20189  -0.64073   1.59264
   1.44131  -0.64073   0.87438
   1.44131  -0.40132   0.15612
   1.44131  -0.40132  -0.08329
   1.20189  -0.16190  -0.56213
   0.96247   0.07752  -0.80155
   0.48364   0.31694  -0.80155
   0.24422   0.79578  -0.80155
  -0.23462   1.27462  -1.04097
  -0.47404   1.75345  -1.04097
  -0.71346   1.99287  -1.51981
  -0.95288   2.23229  -1.99865
  -1.19230   2.47171  -2.47748
  -1.19230   2.23229  -2.71690
  -1.43171   2.23229  -3.19574
  -1.67113   1.99287  -3.43516
  -1.91055   1.75345  -3.91400
  -2.38939   1.51404  -3.91400
  -2.38939   1.27462  -4.15342
  -2.86823   0.79578  -4.15342
  -3.10765   0.31694  -3.91400
  -3.10765   0.07752  -4.15342
  -3.10765  -0.16190  -4.15342
  -2.86823  -0.40132  -4.39284
  -2.62881  -0.64073  -4.63225
  -2.38939  -0.88015  -4.87167
  -2.14997  -0.88015  -5.35051
  -1.67113  -1.11957  -5.58993
  -1.67113  -1.11957  -5.58993
  -1.43171  -1.11957  -5.82935
  -1.43171  -1.11957  -5.58993
  -1.43171  -1.11957  -5.35051
  -1.43171  -0.88015  -5.11109
  -1.67113  -0.88015  -4.63225
  -1.91055  -0.64073  -3.91400
  -1.91055  -0.40132  -3.43516
  -1.91055  -0.40132  -2.71690
  -1.43171  -0.16190  -2.23806
  -1.19230   0.07752  -1.51981
  -0.71346   0.07752  -1.04097
  -0.23462   0.07752  -1.04097
   0.24422   0.07752  -1.04097
   0.48364  -0.16190  -1.28039
   0.72306  -0.16190  -1.28039
   0.72306  -0.16190  -1.51981
   0.48364  -0.16190  -1.75923
   0.00480  -0.40132  -1.75923
  -0.23462  -0.40132  -1.75923
  -0.71346  -0.40132  -1.28039
  -0.95288  -0.64073  -0.80155
  -1.19230  -0.40132  -0.32271
  -1.43171  -0.40132  -0.08329
  -1.43171  -0.16190   0.15612
  -1.43171   0.07752   0.39554
  -1.19230   0.07752   0.63496
  -0.95288   0.31694   0.63496
  -0.71346   0.31694   0.87438
  -0.47404   0.31694   0.87438
  -0.71346   0.79578   1.11380
  -0.47404   0.55636   1.35322
  -0.71346   0.79578   1.35322
  -0.95288   0.79578   1.83206
  -1.43171   0.55636   2.07148
  -1.67113   0.55636   2.55031
  -1.91055   0.07752   2.78973
  -1.91055  -0.16190   3.26857
  -1.91055  -0.40132   3.26857
  -1.91055  -0.64073   3.02915
  -1.67113  -0.88015   3.02915
  -1.19230  -1.11957   2.78973
  -0.71346  -1.35899   2.78973
   0.00480  -1.11957   2.78973
   0.72306  -1.11957   2.55031
   1.20189  -0.88015   3.02915
   1.92015  -0.88015   3.02915
   2.15957  -0.40132   3.26857
   2.63841  -0.16190   3.26857
   2.39899  -0.16190   3.26857
   2.39899  -0.16190   2.78973
   2.15957   0.31694   2.55031
   1.92015   0.55636   2.07148
   1.92015   0.79578   1.59264
   1.92015   0.79578   1.35322
   1.92015   0.79578   0.87438
   1.92015   0.79578   1.11380
   2.39899   0.55636   1.11380
   2.63841   0.55636   1.35322
   2.87783   0.55636   1.59264
   3.11725   0.55636   1.83206
   3.11725   0.55636   2.31090
   3.11725   0.55636   2.31090
   2.87783   0.55636   2.55031
   2.63841   0.55636   2.78973
   2.39899   0.31694   2.55031
   1.92015   0.31694   2.31090
   1.44131   0.07752   2.07148
   1.20189  -0.16190   1.83206
   0.72306  -0.16190   1.59264
   0.48364  -0.16190   1.35322
   0.48364  -0.16190   1.11380
   0.48364  -0.40132   0.87438
   0.48364  -0.40132   0.63496
   0.72306  -0.64073   0.15612
   0.72306  -0.88015  -0.32271
   0.72306  -0.88015  -0.56213
   0.72306  -0.64073  -0.80155
   0.72306  -0.64073  -1.04097
   0.96247  -0.40132  -1.28039
   0.72306  -0.40132  -1.28039
   0.72306  -0.40132  -1.28039
   0.72306  -0.16190  -1.28039
   0.48364  -0.16190  -1.04097
   0.24422   0.07752  -0.80155
   0.24422   0.07752  -0.80155
   0.00480  -0.16190  -1.04097
   0.00480  -0.16190  -1.04097
   0.00480  -0.16190  -1.04097
   0.00480  -0.16190  -1.51981
   0.24422  -0.40132  -1.51981
   0.00480  -0.40132  -1.75923
   0.00480  -0.40132  -1.99865
  -0.47404  -0.40132  -1.99865
  -0.71346  -0.40132  -2.23806
  -1.19230  -0.40132  -2.47748
  -1.67113  -0.16190  -2.47748
  -1.91055  -0.16190  -2.47748
  -2.14997  -0.16190  -2.47748
  -2.14997   0.07752  -2.47748
