********************************************************************************
              CENTRO DE INSTRUMENTACION Y REGISTRO SISMICO  A.C.

    Anaxagoras 814, Col. Narvarte, Benito Juarez, C.P. 03020 Mexico, D.F.
           Tels. 5687 45 42/ 5687 45  82             Fax. 5669 25 12
********************************************************************************
ARCHIVO ESTANDAR DE ACELERACION:
VERSION DEL FORMATO                    : 2.0
NOMBRE DEL ARCHIVO                     : AU4620130821123830
FECHA Y HORA DE CREACION               : 11/SEP/13, 15:00
REF. CATALOGO ACELEROGRAMAS, SMIS 1996 : REGISTRO No.     /PAG.


================================================================================
DATOS DE LA ESTACION:
NOMBRE DE LA ESTACION                  : ESC. SEC. TÉC. NO. 14
CLAVE DE LA ESTACION                   : AU46
LOCALIZACION DE LA ESTACION            : Del. Benito Juárez, Col. del Valle,    
                                       : Entre Angel Urraza y Coyoacán.         
                                       :                                        
                                       :                                        
                                       : 
COORDENADAS DE LA ESTACION             : 19.3832 LAT. N
                                       : 99.1681 LONG. W
ALTITUD (msnm)                         : 2233
TIPO DE SUELO                          : Transición                          
                                       :                           
                                       : 
INSTITUCION RESPONSABLE                : CIRES
                                       : 

================================================================================
DATOS DEL ACELEROGRAFO:
MODELO DEL ACELEROGRAFO                : RADESD
NUMERO DE SERIE DEL ACELEROGRAFO       : 236
NUMERO DE CANALES                      : 3
ORIENTACION C1-C6 (rumbo;orientacion)  : /N00E/+V/N90W
ORIENTACION C7-C12 (rumbo;orientacion) : 
VEL. DE MUESTREO, C1-C6 (muestras/s)   : /100/100/100
VEL. DE MUESTREO, C7-C12 (muestras/s)  : 
ESC. COMPLETA DE SENSORES, C1-C6, (g)  : /0.5/0.5/0.5
ESC. COMPLETA DE SENSORES, C7-C12, (g) : 
FREC. NAT. DE SENSORES, C1-C6, (Hz)    : /33/30/30
FREC. NAT. DE SENSORES, C7-C12, (Hz)   : 
AMORTIGUAMIENTO DE SENSORES, C1-C6     : /0.735/0.733/0.730
AMORTIGUAMIENTO DE SENSORES, C7-C12    : 
INTERVALO DE MUESTREO, C1-C6, (s)      : /0.01/0.01/0.01
INTERVALO DE MUESTREO, C7-C12, (s)     : 
UMBRAL DE DISPARO, C1-C6, (Gal)        : /26.34/71.83/28.73
UMBRAL DE DISPARO, C7-C12, (Gal)       : 
MEMORIA DE PREEVENTO (s)               : 56.0
TIEMPO DE POSEVENTO (s)                : 80.0


================================================================================
DATOS DEL SISMO:
FECHA DEL SISMO (GMT)                  : 21/AGO/13
HORA EPICENTRO (GMT)                   : 12:38:30.0
MAGNITUD(ES)                           : /Mc=6.0
COORDENADAS DEL EPICENTRO              : 16.79 LAT. N
                                       : 99.56 LONG. W
PROFUNDIDAD FOCAL (km)                 : 20
FUENTE DE LOS DATOS EPICENTRALES       : SSN
                                       : INSTITUTO DE GEOFISICA, UNAM

================================================================================
DATOS DE ESTE REGISTRO:
HORA DE LA PRIMERA MUESTRA (GMT)       : 12:39:53.00
EXACTITUD DEL TIEMPO (s)               : 0.01
DURACION DEL REGISTRO (s), C1-C6       : /155.0/155.0/155.0
DURACION DEL REGISTRO (s), C7-C12      : 
NUM. TOTAL DE MUESTRAS, C1-C6          : /15500/15500/15500
NUM. TOTAL DE MUESTRAS, C7-C12         : 
ACEL. MAX. (Gal), C1-C6                : /5.83706/1.66046/5.28964
ACEL. MAX., C1-C6, EN LA MUESTRA       : /5338/5902/5421
ACEL. MAX. (Gal), C7-C12               : 
ACEL. MAX., C7-C12, EN LA MUESTRA      : 
UNIDADES DE LOS DATOS                  : Gal (cm/s/s)
FACTOR DE DECIMACION                   : 1
FORMATO DATOS (FORTRAN,10 campos/dato) : 3F10.5


================================================================================
CALIDAD DEL ACELEROGRAMA:
REGISTRO DIGITAL COMPLETO CON TIEMPO ABSOLUTO CORRECTO.


================================================================================
COMENTARIOS:














================================================================================
DATOS DE ACELERACION:
---------+---------+---------+---------+---------+---------+---------+---------+
   CANAL-1   CANAL-2   CANAL-3   CANAL-4   CANAL-5   CANAL-6   CANAL-7   CANAL-8
      N00E        +V      N90W
---------+---------+---------+---------+---------+---------+---------+---------+
[...]
  -2.30323   0.35965   1.74333
  -2.10870   0.35965   1.74333
  -1.86928   0.43447   1.77326
  -1.55504   0.44943   1.90793
  -1.24080   0.28483   2.05757
  -0.76196   0.06038   2.20721
  -0.53750   0.07534   2.20721
  -0.40283   0.03045   2.32692
  -0.13348  -0.07430   2.43166
   0.07601  -0.25386   2.47655
   0.30047  -0.35861   2.53641
   0.43514  -0.46336   2.47655
   0.62967  -0.59803   2.38677
   0.82420  -0.58307   2.40174
   1.15340  -0.53817   2.50648
   1.51253  -0.50825   2.65612
   1.70706  -0.47832   2.91050
   2.03626  -0.29875   3.04518
   2.45525  -0.13415   3.22474
   2.81438   0.07534   3.52402
   3.02387   0.15016   3.76344
   3.26329   0.13520   3.98789
   3.44286   0.29980   4.00286
   3.47279   0.53922   4.00286
   3.50271   0.71878   3.97293
   3.51768   0.94324   3.85322
   3.41293   1.01806   3.68862
   3.29322   1.03302   3.55395
   3.23337   1.06295   3.50905
   3.12862   1.06295   3.52402
   2.94905   1.09288   3.46416
   2.84431   0.98813   3.41927
   2.73956   0.91331   3.28460
   2.72460   0.83849   3.22474
   2.72460   0.77864   3.17985
   2.70963   0.76367   3.12000
   2.76949   0.79360   3.01525
   2.94905   0.91331   2.80576
   3.11366   0.92827   2.64116
   3.20344   0.95820   2.38677
   3.20344   1.04798   2.13239
   3.21840   1.06295   1.93786
   3.14358   1.06295   1.63858
   2.93409   0.97317   1.29442
   2.84431   0.77864   0.95025
   2.67971   0.68885   0.75572
   2.47021   0.68885   0.59112
   2.29065   0.58411   0.33674
   2.18590   0.47936   0.15717
   2.03626   0.43447  -0.02239
   1.88663   0.37462  -0.24685
   1.76692   0.31476  -0.42642
   1.69210   0.21001  -0.59102
   1.61728   0.16512  -0.87533
   1.48261   0.18009  -1.12971
   1.34793   0.18009  -1.30928
   1.03369   0.25491  -1.47388
   0.70449   0.18009  -1.57862
   0.49500  -0.01444  -1.69833
   0.13587  -0.22394  -1.81804
  -0.35794  -0.46336  -1.86294
  -0.83678  -0.62796  -1.89286
  -1.25576  -0.80752  -1.87790
  -1.65978  -1.03198  -1.75819
  -2.09373  -1.30133  -1.75819
  -2.42294  -1.45096  -1.84797
  -2.76710  -1.42104  -1.92279
  -3.05141  -1.30133  -1.93775
  -3.18609  -1.30133  -1.77315
  -3.36565  -1.33125  -1.57862
  -3.48536  -1.30133  -1.29431
  -3.59011  -1.13672  -1.08482
  -3.69486  -0.94220  -0.80051
  -3.67989  -0.67285  -0.63591
  -3.78464  -0.47832  -0.47131
  -3.90435  -0.34365  -0.30670
  -3.90435  -0.20897  -0.09721
  -3.91931  -0.07430   0.08235
  -3.97917  -0.08926   0.23199
  -3.93428  -0.17904   0.32177
  -3.84449  -0.17904   0.57616
  -3.78464  -0.10423   0.84550
  -3.62004  -0.28379   1.06996
  -3.26091  -0.44839   1.24953
  -2.99156  -0.35861   1.48895
  -2.70725  -0.19401   1.69844
  -2.48279  -0.17904   1.78822
  -2.27330  -0.29875   1.86304
  -2.01891  -0.37357   1.84808
  -1.70468  -0.35861   1.74333
  -1.49518  -0.17904   1.53384
  -1.37547   0.01549   1.26449
  -1.12109   0.01549   1.04003
  -0.65721  -0.02941   0.69587
  -0.20830  -0.01444   0.41156
   0.16579   0.13520   0.24695
   0.67456   0.38958   0.02250
   1.22822   0.49433  -0.24685
   1.75195   0.58411  -0.51620
   2.32058   0.70382  -0.65087
   2.87424   0.94324  -0.71073
   3.35308   1.15273  -0.74065
   3.69724   1.21259  -0.93518
   3.95163   1.31733  -1.33920
   4.10126   1.31733  -1.72826
   4.32572   1.36222  -2.13228
   4.41550   1.42208  -2.56623
   4.40054   1.40711  -2.92536
   4.43047   1.33230  -3.26953
   4.44543   1.03302  -3.73341
   4.61003   0.77864  -4.07757
   4.83449   0.56914  -4.30203
   4.93923   0.31476  -4.40678
   5.04398   0.04541  -4.37685
   5.16369  -0.19401  -4.42174
   5.23851  -0.41846  -4.45167
   5.23851  -0.46336  -4.39181
   5.14873  -0.50825  -4.25714
   5.01405  -0.53817  -4.24217
   4.69981  -0.37357  -4.19728
   4.37061  -0.20897  -4.18232
   4.01148  -0.14912  -4.10750
   3.65235  -0.10423  -4.04765
   3.29322  -0.10423  -3.97283
   3.06876   0.07534  -3.94290
   2.84431   0.15016  -3.94290
   2.58992   0.18009  -4.00275
   2.58992   0.15016  -4.03268
   2.63482   0.19505  -3.92793
   2.54503   0.44943  -3.68851
   2.35050   0.62900  -3.40420
   2.06619   0.68885  -3.13486
   1.72203   0.64396  -2.89544
   1.36290   0.56914  -2.62609
   0.86909   0.52425  -2.37170
   0.43514   0.53922  -2.10236
   0.04608   0.59907  -1.89286
  -0.32801   0.59907  -1.71330
  -0.70210   0.53922  -1.60855
  -1.09116   0.43447  -1.45891
  -1.37547   0.35965  -1.23446
  -1.58497   0.29980  -1.05489
  -1.82439   0.10527  -0.90526
  -2.10870  -0.11919  -0.74065
  -2.52768  -0.32868  -0.59102
  -2.84192  -0.46336  -0.48627
  -3.09631  -0.55314  -0.41145
  -3.44047  -0.53817  -0.26181
  -3.93428  -0.38854  -0.17203
  -4.33830  -0.28379  -0.18699
  -4.51786  -0.20897  -0.18699
  -4.63757  -0.08926  -0.11218
  -4.63757   0.03045  -0.05232
  -4.57772   0.12023   0.14221
  -4.48793   0.10527   0.42652
  -4.24851   0.12023   0.75572
  -3.88938   0.10527   1.04003
  -3.67989   0.19505   1.27945
  -3.54522   0.18009   1.54880
  -3.30580   0.13520   1.75829
  -3.11127  -0.05933   2.02764
  -2.91674  -0.17904   2.28203
  -2.94667  -0.29875   2.50648
  -3.02149  -0.43343   2.71597
  -2.97660  -0.53817   2.94043
  -2.76710  -0.64292   3.09007
  -2.55761  -0.70278   3.28460
  -2.27330  -0.71774   3.46416
  -1.94410  -0.74767   3.65869
  -1.51015  -0.77759   3.92804
  -0.97145  -0.80752   4.19739
  -0.46268  -0.74767   4.33206
   0.00119  -0.70278   4.48170
   0.40521  -0.61299   4.60141
   0.76435  -0.58307   4.67623
   1.06362  -0.46336   4.73608
   1.12348  -0.26883   4.61637
   1.16837  -0.13415   4.48170
   1.10851  -0.01444   4.28717
   1.00377   0.10527   4.04775
   0.95887   0.21001   3.82329
   0.94391   0.29980   3.56891
   0.97384   0.31476   3.34445
   0.91398   0.35965   3.19481
   0.85413   0.37462   3.03021
   0.88406   0.28483   2.91050
   0.92895   0.18009   2.76087
   0.89902   0.12023   2.67108
   0.95887   0.04541   2.58130
   0.94391  -0.04437   2.44663
   0.94391  -0.08926   2.26706
   0.97384  -0.07430   2.10246
   0.97384  -0.04437   1.96779
   0.98880   0.06038   1.83311
   1.03369   0.15016   1.65355
   1.06362   0.09030   1.54880
   1.06362   0.07534   1.41413
   1.06362  -0.02941   1.27945
   1.15340  -0.11919   1.18967
   1.19829  -0.02941   1.08492
   1.22822   0.01549   1.06996
   1.22822   0.01549   0.93529
   1.12348  -0.05933   0.74076
   1.06362  -0.07430   0.62105
   0.88406   0.06038   0.41156
   0.74938   0.04541   0.30681
   0.58478   0.01549   0.14221
   0.42018   5.2E-40   0.03746
   0.31543   0.07534  -0.14210
   0.21069   0.15016  -0.39649
   0.13587   0.15016  -0.56109
   0.16579   0.13520  -0.77058
   0.09098   0.07534  -0.92022
  -0.02873  -0.07430  -1.11475
  -0.10355  -0.20897  -1.29431
  -0.23823  -0.31372  -1.50381
  -0.43276  -0.38854  -1.71330
  -0.59736  -0.46336  -1.84797
  -0.77692  -0.59803  -1.89286
  -1.00138  -0.71774  -1.92279
  -1.22584  -0.65788  -1.93775
  -1.49518  -0.50825  -1.96768
  -1.68971  -0.46336  -1.86294
  -1.79446  -0.47832  -1.78812
  -1.92913  -0.46336  -1.74323
  -2.04884  -0.31372  -1.47388
  -2.15359  -0.05933  -1.23446
  -2.19848   0.04541  -0.96511
  -2.10870   0.16512  -0.68080
  -2.07877   0.23994  -0.50123
  -2.04884   0.31476  -0.24685
  -2.13862   0.40454  -0.02239
  -2.19848   0.41951   0.35170
  -2.06381   0.49433   0.80061
  -2.07877   0.55418   1.08492
  -2.13862   0.58411   1.39916
  -2.10870   0.64396   1.59369
  -2.06381   0.68885   1.78822
  -1.97402   0.77864   1.93786
  -1.95906   0.80856   2.13239
  -1.86928   0.83849   2.29699
  -1.68971   0.82353   2.28203
  -1.39044   0.71878   2.25210
  -1.04627   0.73375   2.11742
  -0.74699   0.77864   2.01268
  -0.46268   0.62900   1.89297
  -0.26815   0.53922   1.71340
  -0.08859   0.46440   1.45902
   0.09098   0.34469   1.09989
   0.15083   0.25491   0.83054
   0.13587   0.09030   0.69587
   0.07601  -0.07430   0.57616
   0.07601  -0.23890   0.45645
   0.06105  -0.32868   0.29185
   0.06105  -0.43343   0.05243
   0.21069  -0.44839  -0.26181
   0.13587  -0.49328  -0.66584
   0.24061  -0.62796  -1.01000
   0.49500  -0.61299  -1.35417
   0.52492  -0.56810  -1.74323
   0.62967  -0.52321  -2.20710
   0.76435  -0.41846  -2.58120
   0.88406  -0.25386  -2.79069
   0.89902  -0.08926  -2.95529
   0.79427  -0.10423  -3.07500
   0.71945  -0.23890  -3.22464
   0.65960  -0.32868  -3.37428
   0.65960  -0.34365  -3.61370
   0.67456  -0.32868  -3.74837
   0.58478  -0.34365  -3.77830
   0.76435  -0.46336  -3.79326
   1.01873  -0.49328  -3.88304
   1.25815  -0.55314  -4.03268
   1.54246  -0.70278  -4.16736
   1.85670  -0.79256  -4.15239
   2.09612  -0.82249  -4.12246
   2.29065  -0.83745  -4.06261
   2.51510  -0.95716  -3.97283
   2.63482  -0.92723  -3.91297
   2.67971  -0.92723  -3.76333
   2.61985  -0.85241  -3.55384
   2.51510  -0.82249  -3.41917
   2.53007  -0.86738  -3.26953
   2.51510  -0.77759  -3.06004
   2.27568  -0.55314  -2.79069
   2.02130  -0.44839  -2.68594
   1.88663  -0.46336  -2.50638
   1.73699  -0.40350  -2.34178
   1.58735  -0.31372  -2.11732
   1.49757  -0.05933  -1.80308
   1.21326   0.12023  -1.48884
   0.88406   0.21001  -1.26439
   0.64463   0.26987  -1.06986
   0.31543   0.23994  -0.78555
   0.03112   0.16512  -0.47131
  -0.35794   0.09030  -0.17203
  -0.88167  -0.01444   0.08235
  -1.30065  -0.05933   0.20206
  -1.64482  -0.13415   0.36666
  -2.00395  -0.25386   0.63601
  -2.30323  -0.37357   0.89040
  -2.36308  -0.52321   1.23456
  -2.37804  -0.40350   1.65355
  -2.51272  -0.25386   2.13239
  -2.54265  -0.10423   2.59626
  -2.45286  -0.13415   3.00029
  -2.31819  -0.04437   3.43424
  -2.37804   0.35965   3.71855
  -2.46783   0.59907   3.94300
  -2.51272   0.65893   4.04775
  -2.66236   0.64396   4.07768
  -2.73717   0.68885   4.00286
  -2.90178   0.70382   3.89811
  -3.05141   0.73375   3.76344
  -3.17112   0.67389   3.55395
  -3.23098   0.43447   3.50905
  -3.26091   0.32972   3.46416
  -3.30580   0.19505   3.41927
  -3.17112   0.12023   3.22474
  -3.06638  -0.02941   3.01525
  -2.93170  -0.04437   2.85065
  -2.69228  -0.04437   2.67108
  -2.42294   0.01549   2.43166
  -2.04884   0.06038   2.20721
  -1.65978   0.10527   1.98275
  -1.24080   0.12023   1.78822
  -0.85174   0.23994   1.54880
  -0.35794   0.35965   1.32434
   0.16579   0.47936   1.06996
   0.59974   0.43447   0.87543
   1.01873   0.40454   0.69587
   1.43771   0.35965   0.62105
   1.99137   0.31476   0.69587
   2.51510   0.31476   0.78565
   3.02387   0.19505   0.81558
   3.45782  -0.04437   0.60608
   3.78702  -0.11919   0.41156
   4.07134  -0.08926   0.32177
   4.31076  -0.08926   0.11228
   4.72974  -0.11919  -0.00743
   4.99909  -0.04437  -0.12714
   4.95420  -0.08926  -0.24685
   5.20858  -0.17904  -0.23189
   5.55275  -0.10423  -0.32167
   5.68742  -0.08926  -0.42642
   5.76224  -0.08926  -0.44138
   5.83706  -0.16408  -0.63591
   5.73231  -0.37357  -0.75562
   5.64253  -0.46336  -0.93518
   5.53778  -0.43343  -1.12971
   5.23851  -0.55314  -1.26439
   4.93923  -0.64292  -1.30928
   4.53521  -0.50825  -1.45891
   4.14615  -0.56810  -1.65344
   3.68228  -0.64292  -1.69833
   3.24833  -0.55314  -1.69833
   2.82934  -0.46336  -1.47388
   2.35050  -0.34365  -1.24942
   1.75195  -0.28379  -1.12971
   1.21326  -0.28379  -0.89029
   0.82420  -0.07430  -0.51620
   0.52492   5.2E-40  -0.12714
   0.36032  -0.05933   0.26192
   0.06105  -0.07430   0.62105
  -0.25319   0.07534   1.05500
  -0.34297   0.23994   1.33931
  -0.38786   0.25491   1.62362
  -0.52254   0.35965   1.84808
  -0.88167   0.43447   1.95282
  -1.09116   0.46440   2.10246
  -1.34555   0.59907   2.14735
  -1.68971   0.62900   2.23713
  -1.98899   0.56914   2.35684
  -2.27330   0.49433   2.49152
  -2.45286   0.41951   2.58130
  -2.70725   0.35965   2.62619
  -2.96163   0.26987   2.65612
  -3.06638   0.31476   2.74590
  -3.20105   0.28483   2.80576
  -3.47040   0.18009   2.91050
  -3.60507   0.10527   3.01525
  -3.70982   0.18009   3.03021
  -3.87442   0.16512   2.97036
  -3.99413   0.18009   2.88058
  -4.14377   0.26987   2.74590
  -4.21859   0.34469   2.64116
  -4.21859   0.44943   2.47655
  -4.29341   0.52425   2.19224
  -4.44304   0.49433   2.01268
  -4.45801   0.53922   1.81815
  -4.42808   0.58411   1.66851
  -4.51786   0.64396   1.44406
  -4.54779   0.61404   1.26449
  -4.48793   0.67389   1.02507
  -4.45801   0.73375   0.77069
  -4.44304   0.76367   0.53127
  -4.30837   0.77864   0.27688
  -4.06895   0.83849   0.02250
  -3.76967   0.80856  -0.03736
  -3.44047   0.80856  -0.29174
  -3.03645   0.71878  -0.59102
  -2.58754   0.56914  -0.78555
  -2.16855   0.59907  -0.84540
  -1.79446   0.67389  -1.01000
  -1.39044   0.71878  -1.17460
  -0.88167   0.68885  -1.27935
  -0.47765   0.62900  -1.41402
  -0.04370   0.65893  -1.65344
   0.36032   0.56914  -1.77315
   0.68953   0.46440  -1.92279
   1.03369   0.37462  -2.16221
   1.40779   0.18009  -2.38667
   1.70706   0.04541  -2.61112
   2.09612  -0.05933  -2.85054
   2.33554   5.2E-40  -3.07500
   2.51510  -0.13415  -3.29946
   2.76949  -0.22394  -3.59873
   2.99395  -0.29875  -3.82319
   3.21840  -0.29875  -4.04765
   3.42789  -0.25386  -4.22721
   3.38300  -0.26883  -4.36188
   3.38300  -0.25386  -4.63123
   3.50271  -0.29875  -4.78087
   3.56257  -0.23890  -4.87065
   3.65235  -0.17904  -4.93051
   3.72717  -0.10423  -5.08014
   3.60746  -0.13415  -5.16993
   3.56257  -0.28379  -5.11007
   3.56257  -0.14912  -5.21482
   3.35308  -0.28379  -5.28964
   3.26329  -0.50825  -5.15496
   3.18847  -0.44839  -5.08014
   2.69467  -0.40350  -5.09511
   2.24576  -0.52321  -5.02029
   2.11108  -0.61299  -4.79583
   2.11108  -0.44839  -4.51152
   1.57239  -0.44839  -4.39181
   1.00377  -0.71774  -4.22721
   0.92895  -0.85241  -4.04765
   0.76435  -0.70278  -3.71844
   0.50996  -0.64292  -3.49399
   0.48003  -0.74767  -3.29946
   0.46507  -0.89730  -3.16478
   0.31543  -0.91227  -2.98522
   0.28550  -0.88234  -2.82062
   0.19572  -0.98709  -2.64105
  -0.07363  -1.09183  -2.44652
  -0.16341  -1.00205  -2.10236
  -0.31305  -1.12176  -1.80308
  -0.85174  -1.28636  -1.47388
  -1.24080  -1.31629  -1.09978
  -1.43533  -1.24147  -0.81547
  -1.80942  -1.36118  -0.38152
  -2.18352  -1.42104   0.09732
  -2.52768  -1.42104   0.60608
  -2.76710  -1.36118   1.06996
  -3.03645  -1.22651   1.47398
  -3.20105  -1.22651   1.98275
  -3.18609  -1.18162   2.35684
  -3.32076  -1.01701   2.74590
  -3.42551  -0.77759   3.10503
  -3.39558  -0.53817   3.40431
  -3.23098  -0.49328   3.65869
  -3.33573  -0.34365   3.82329
  -3.45544  -0.25386   4.12257
  -3.38062  -0.07430   4.22731
  -3.48536   0.13520   4.31710
  -3.38062   0.25491   4.43681
  -3.23098   0.38958   4.34702
  -3.17112   0.38958   4.31710
  -3.21602   0.47936   4.33206
  -3.05141   0.49433   4.57148
  -2.72221   0.65893   4.60141
  -2.55761   0.64396   4.51163
  -2.24337   0.59907   4.40688
  -1.80942   0.62900   4.25724
  -1.37547   0.68885   4.21235
  -0.98641   0.82353   4.15250
  -0.61232   0.79360   4.00286
  -0.13348   0.67389   3.85322
   0.30047   0.68885   3.70358
   0.64463   0.71878   3.65869
   1.09355   0.88338   3.50905
   1.43771   1.01806   3.35942
   1.75195   0.97317   3.35942
   2.03626   1.03302   3.16489
   2.30561   1.07791   2.97036
   2.73956   1.21259   2.74590
   2.96402   1.36222   2.49152
   3.09869   1.27244   2.38677
   3.38300   1.22755   2.14735
   3.74213   1.18266   2.02764
   3.98155   1.24251   1.90793
   3.98155   1.13777   1.68348
   4.19105   1.03302   1.63858
   4.41550   1.03302   1.50391
