********************************************************************************
               CENTRO DE INSTRUMENTACION Y REGISTRO SISMICO  A.C.  
                       Coordinacion de Servicios Tecnicos
     Anaxagoras 814, Col. Narvarte, Benito Juarez, C.P. 03020 Mexico, D.F.
            Tels. 687 45 42/ 687 45  82             Fax. 669 25 12
********************************************************************************
ARCHIVO ESTANDAR DE ACELERACION:
VERSION DEL FORMATO                    : 2.0
NOMBRE DEL ARCHIVO                     : AU469510.211
FECHA Y HORA DE CREACION               : MARZO 14, 1996/17:27
REF. CATALOGO ACELEROGRAMAS, SMIS 1995 : REGISTRO No.     /PAG.


================================================================================
DATOS DE LA ESTACION:
NOMBRE DE LA ESTACION                  : ANGEL URRAZA
CLAVE DE LA ESTACION                   : AU46
LOCALIZACION DE LA ESTACION            : Esc Sec Tec # 14, 5 de Mayo Av
                                       : Coyoacan y Angel Urraza, Col de
                                       : Valle, Benito Juarez
                                       :
                                       :
COORDENADAS DE LA ESTACION             : 19.383 LAT. N 
                                       : 99.168 LONG. W 
ALTITUD (msnm)                         : 2233
TIPO DE SUELO                          : TRANSICION
                                       : 
                                       : 
INSTITUCION RESPONSABLE                : CIRES
                                       :

================================================================================
DATOS DEL ACELEROGRAFO:
MODELO DEL ACELEROGRAFO                : DCA-333
NUMERO DE SERIE DEL ACELEROGRAFO       : 236
NUMERO DE CANALES                      : 3
ORIENTACION C1-C6 (rumbo;orientacion)  : /N00E/+V/N90W
ORIENTACION C7-C12 (rumbo;orientacion) :
VEL. DE MUESTREO, C1-C6 (muestras/s)   : /100/100/100
VEL. DE MUESTREO, C7-C12 (muestras/s)  :
ESC. COMPLETA DE SENSORES, C1-C6, (g)  : /0.5/0.5/0.5
ESC. COMPLETA DE SENSORES, C7-C12, (g) :
FREC. NAT. DE SENSORES, C1-C6, (Hz)    : /30/30/30
FREC. NAT. DE SENSORES, C7-C12, (Hz)   :
AMORTIGUAMIENTO DE SENSORES, C1-C6     : /0.700/0.700/0.700
AMORTIGUAMIENTO DE SENSORES, C7-C12    :
INTERVALO DE MUESTREO, C1-C6, (s)      : /0.01/0.01/0.01
INTERVALO DE MUESTREO, C7-C12, (s)     :
UMBRAL DE DISPARO, C1-C6, (Gal)        : /1.5/1.5/1.5
UMBRAL DE DISPARO, C7-C12, (Gal)       :
MEMORIA DE PREEVENTO (s)               : 4
TIEMPO DE POSEVENTO (s)                : 15


================================================================================
DATOS DEL SISMO:
FECHA DEL SISMO (GMT)                  : 21/OCT/95
HORA EPICENTRO (GMT)                   : 02:38:59,0
MAGNITUD(ES)                           : /Mc=6.2/ME=6.5
COORDENADAS DEL EPICENTRO              : 16.92 LAT. N
                                       : 93.62 LONG. W
PROFUNDIDAD FOCAL (km)                 : 98
FUENTE DE LOS DATOS EPICENTRALES       : SSN
                                       : INSTITUTO DE GEOFISICA, UNAM

================================================================================
DATOS DE ESTE REGISTRO:
HORA DE LA PRIMERA MUESTRA (GMT)       : 02:42:09.00
EXACTITUD DEL TIEMPO (s)               : 0.01
DURACION DEL REGISTRO (s), C1-C6       : /54.01/54.01/54.01
DURACION DEL REGISTRO (s), C7-C12      :
NUM. TOTAL DE MUESTRAS, C1-C6          : /5401/5401/5401
NUM. TOTAL DE MUESTRAS, C7-C12         :
ACEL. MAX. (Gal), C1-C6                : /1.63/0.68/1.92
ACEL. MAX., C1-C6, EN LA MUESTRA       :
ACEL. MAX. (Gal), C7-C12               :
ACEL. MAX., C7-C12, EN LA MUESTRA      :
UNIDADES DE LOS DATOS                  : Gal (cm/s/s)
FACTOR DE DECIMACION                   : 1
FORMATO DATOS (FORTRAN,10 campos/dato) : 3F10.2


================================================================================
CALIDAD DEL ACELEROGRAMA:
REGISTRO DIGITAL COMPLETO CON TIEMPO ABSOLUTO CORRECTO.


================================================================================
COMENTARIOS:














================================================================================
DATOS DE ACELERACION:
---------+---------+---------+---------+---------+---------+---------+---------+
   CANAL-1   CANAL-2   CANAL-3   CANAL-4   CANAL-5   CANAL-6   CANAL-7   CANAL-8
      N00E        +V      N90W
---------+---------+---------+---------+---------+---------+---------+---------+
[...]
      1.48      0.20     -0.72
      1.48      0.20     -0.48
      1.48      0.20     -0.48
      1.48      0.20     -0.48
      1.48      0.20     -0.48
      1.48      0.20     -0.48
      1.48      0.20     -0.24
      1.48     -0.04     -0.24
      1.48     -0.04     -0.24
      1.48     -0.04     -0.00
      1.48      0.20     -0.00
      1.48     -0.04     -0.00
      1.48     -0.04     -0.00
      1.48     -0.04     -0.00
      1.24     -0.04     -0.00
      1.24     -0.04      0.24
      1.24     -0.04      0.24
      1.00     -0.04      0.24
      1.00     -0.04      0.48
      1.00     -0.04      0.48
      1.00     -0.04      0.48
      0.76     -0.04      0.48
      0.76     -0.04      0.72
      0.52     -0.04      0.72
      0.52     -0.04      0.96
      0.28     -0.04      0.96
      0.28     -0.04      0.96
      0.04     -0.04      0.96
      0.04     -0.04      1.20
      0.04     -0.04      1.20
     -0.20     -0.04      1.20
     -0.20     -0.04      1.20
     -0.44     -0.04      1.43
     -0.44     -0.04      1.20
     -0.44     -0.04      1.20
     -0.44     -0.04      1.20
     -0.68     -0.04      1.20
     -0.68     -0.04      1.20
     -0.68      0.20      1.20
     -0.68     -0.04      1.20
     -0.68     -0.04      1.20
     -0.68     -0.04      1.20
     -0.91     -0.04      1.20
     -0.91     -0.04      1.20
     -0.91      0.20      0.96
     -1.15     -0.04      0.96
     -1.15     -0.04      0.96
     -1.15      0.20      0.96
     -1.39      0.20      0.96
     -1.39      0.20      0.72
     -1.39      0.20      0.72
     -1.39      0.20      0.48
     -1.39      0.20      0.48
     -1.39      0.20      0.48
     -1.39     -0.04      0.48
     -1.39     -0.04      0.48
     -1.39     -0.04      0.48
     -1.39     -0.04      0.24
     -1.39     -0.04      0.24
     -1.39      0.20     -0.00
     -1.15     -0.04     -0.00
     -1.15     -0.04     -0.00
     -1.15     -0.04     -0.00
     -0.91     -0.04     -0.24
     -0.91     -0.04     -0.24
     -0.68     -0.04     -0.48
     -0.68     -0.04     -0.48
     -0.44     -0.04     -0.48
     -0.44     -0.04     -0.72
     -0.20     -0.04     -0.72
     -0.20      0.20     -0.72
      0.04     -0.04     -0.72
      0.04     -0.04     -0.72
      0.04     -0.04     -0.72
      0.04     -0.04     -0.72
      0.04     -0.04     -0.72
      0.04     -0.04     -0.72
      0.04     -0.04     -0.72
      0.28     -0.04     -0.72
      0.28     -0.04     -0.72
      0.52      0.20     -0.72
      0.52     -0.04     -0.72
      0.76     -0.04     -0.72
      0.76      0.20     -0.72
      0.76     -0.04     -0.72
      0.76     -0.04     -0.72
      0.76     -0.04     -0.72
      0.76     -0.04     -0.72
      0.76     -0.04     -0.72
      0.76     -0.04     -0.48
      0.76     -0.04     -0.48
      0.52     -0.04     -0.48
      0.52     -0.04     -0.48
      0.52     -0.28     -0.48
      0.52     -0.28     -0.48
      0.52     -0.28     -0.24
      0.28     -0.28     -0.24
      0.28     -0.28     -0.24
      0.28     -0.28     -0.00
      0.28     -0.28     -0.00
      0.28     -0.28     -0.00
      0.04     -0.04      0.24
      0.04     -0.04      0.24
      0.04     -0.04      0.24
      0.04     -0.04      0.24
      0.04     -0.04      0.48
      0.04     -0.04      0.48
     -0.20     -0.04      0.48
     -0.20      0.20      0.48
     -0.20     -0.04      0.72
     -0.20     -0.04      0.72
     -0.44     -0.04      0.72
     -0.44     -0.04      0.72
     -0.44      0.20      0.72
     -0.68     -0.04      0.72
     -0.68      0.20      0.96
     -0.68     -0.04      0.96
     -0.91     -0.04      0.96
     -0.91     -0.04      0.96
     -0.91     -0.04      0.96
     -0.91     -0.04      0.72
     -1.15     -0.04      0.72
     -1.15     -0.04      0.72
     -0.91     -0.04      0.72
     -0.91     -0.04      0.72
     -0.91     -0.04      0.72
     -0.91     -0.04      0.48
     -0.91     -0.04      0.48
     -0.91     -0.04      0.48
     -0.91     -0.04      0.24
     -0.91      0.20      0.24
     -1.15      0.20     -0.00
     -1.15      0.20     -0.00
     -1.15     -0.04     -0.00
     -1.15     -0.04     -0.00
     -1.15     -0.04     -0.00
     -1.15     -0.04     -0.00
     -1.15     -0.04     -0.00
     -1.15     -0.04     -0.00
     -1.15     -0.04     -0.00
     -1.15     -0.04     -0.00
     -1.15     -0.04     -0.00
     -1.15     -0.04     -0.00
     -1.15     -0.04     -0.00
     -1.15     -0.04     -0.24
     -0.91     -0.04     -0.24
     -0.91     -0.04     -0.24
     -0.91     -0.04     -0.24
     -0.91     -0.04     -0.48
     -0.68      0.20     -0.48
     -0.68     -0.04     -0.48
     -0.68     -0.04     -0.48
     -0.68     -0.04     -0.72
     -0.44     -0.04     -0.72
     -0.44     -0.04     -0.72
     -0.44     -0.04     -0.72
     -0.20     -0.04     -0.96
     -0.20     -0.04     -0.96
      0.04     -0.04     -0.96
      0.04     -0.04     -0.96
      0.04     -0.04     -0.96
      0.04     -0.04     -0.96
      0.04     -0.04     -0.96
      0.28     -0.04     -0.96
      0.28     -0.04     -0.96
      0.28     -0.04     -0.96
      0.52      0.20     -0.96
      0.52     -0.04     -0.96
      0.52     -0.04     -0.96
      0.52     -0.04     -0.96
      0.76     -0.04     -0.96
      0.76      0.20     -0.96
      0.76      0.20     -0.96
      0.76      0.20     -0.96
      1.00     -0.04     -0.96
      1.00      0.20     -0.96
      1.00      0.20     -0.72
      1.00      0.20     -0.72
      1.00     -0.04     -0.72
      1.00     -0.04     -0.72
      1.00     -0.04     -0.48
      1.00     -0.04     -0.72
      1.00     -0.04     -0.48
      1.00      0.20     -0.48
      1.00     -0.04     -0.48
      1.24     -0.04     -0.24
      1.24     -0.04     -0.24
      1.24     -0.04     -0.24
      1.24     -0.04     -0.00
      1.24     -0.04     -0.00
      1.24     -0.04     -0.00
      1.00     -0.04      0.24
      1.00     -0.04      0.24
      1.00     -0.04      0.24
      1.00     -0.04      0.24
      1.00     -0.04      0.48
      0.76     -0.04      0.48
      0.76     -0.04      0.48
      0.76      0.20      0.72
      0.76     -0.04      0.72
      0.76     -0.04      0.72
      0.76     -0.04      0.72
      0.52     -0.04      0.72
      0.52     -0.04      0.72
      0.52      0.20      0.72
      0.52     -0.04      0.72
      0.52      0.20      0.96
      0.52      0.20      0.96
      0.28     -0.04      0.96
      0.28     -0.04      0.96
      0.28     -0.04      0.96
      0.28      0.20      0.96
      0.28      0.20      0.96
      0.28      0.20      0.96
      0.04      0.20      0.96
      0.04      0.20      0.96
      0.28      0.44      0.96
      0.04      0.20      0.96
      0.04      0.20      0.72
      0.04      0.20      0.72
      0.04      0.20      0.72
      0.04      0.20      0.72
      0.04      0.20      0.72
      0.04      0.20      0.72
      0.04      0.20      0.72
     -0.20      0.20      0.72
     -0.20      0.20      0.72
     -0.20      0.20      0.48
     -0.20      0.20      0.48
     -0.20     -0.04      0.24
     -0.20      0.20      0.24
     -0.20     -0.04      0.24
     -0.20     -0.04      0.24
     -0.20     -0.04     -0.00
     -0.44     -0.04     -0.00
     -0.44     -0.04     -0.00
     -0.44     -0.04     -0.24
     -0.44     -0.04     -0.24
     -0.44     -0.04     -0.24
     -0.44     -0.04     -0.24
     -0.68     -0.04     -0.48
     -0.68     -0.04     -0.48
     -0.68     -0.04     -0.72
     -0.68     -0.28     -0.72
     -0.68     -0.04     -0.96
     -0.68     -0.04     -1.20
     -0.68     -0.04     -1.20
     -0.68     -0.28     -1.44
     -0.68     -0.28     -1.44
     -0.68     -0.28     -1.44
     -0.68     -0.04     -1.44
     -0.68     -0.28     -1.68
     -0.68     -0.28     -1.68
     -0.68     -0.28     -1.68
     -0.68     -0.28     -1.68
     -0.68     -0.28     -1.68
     -0.44     -0.28     -1.68
     -0.44     -0.28     -1.68
     -0.44     -0.28     -1.68
     -0.44     -0.28     -1.68
     -0.20     -0.28     -1.68
     -0.20     -0.28     -1.44
      0.04     -0.04     -1.44
      0.04     -0.04     -1.20
      0.04     -0.04     -1.20
      0.04     -0.04     -1.20
      0.04     -0.04     -0.96
      0.28     -0.04     -0.96
      0.28     -0.04     -0.72
      0.28     -0.04     -0.72
      0.28     -0.04     -0.48
      0.52     -0.04     -0.24
      0.52     -0.04     -0.24
      0.76     -0.04     -0.24
      0.76     -0.04     -0.00
      0.76     -0.04     -0.00
      1.00     -0.04     -0.00
      1.00     -0.04      0.24
      1.00     -0.04      0.24
      1.00     -0.04      0.48
      1.00     -0.04      0.48
      1.00     -0.04      0.72
      1.00     -0.04      0.72
      1.00     -0.04      0.96
      1.00     -0.04      0.96
      1.00     -0.04      0.96
      1.00     -0.04      0.96
      1.00     -0.04      1.20
      0.76     -0.04      1.20
      0.76     -0.04      1.20
      0.76     -0.04      1.43
      0.76     -0.04      1.43
      0.76     -0.28      1.43
      0.52     -0.04      1.67
      0.52     -0.04      1.67
      0.52     -0.04      1.67
      0.52     -0.04      1.67
      0.52     -0.04      1.91
      0.52     -0.04      1.67
      0.52     -0.04      1.67
      0.28     -0.04      1.91
      0.28     -0.04      1.91
      0.28     -0.04      1.91
      0.28     -0.04      1.67
      0.28     -0.04      1.91
      0.28     -0.04      1.91
      0.28     -0.04      1.67
      0.28     -0.04      1.67
      0.04     -0.04      1.67
      0.28     -0.04      1.67
      0.28      0.20      1.43
      0.28     -0.04      1.43
      0.04     -0.04      1.43
      0.04     -0.04      1.43
      0.04     -0.04      1.43
      0.04     -0.04      1.43
      0.04      0.20      1.20
      0.04      0.20      1.20
      0.04     -0.04      1.20
      0.04      0.20      0.96
     -0.20      0.20      0.96
     -0.20      0.20      0.72
     -0.20     -0.04      0.72
     -0.20      0.20      0.72
     -0.20      0.20      0.72
     -0.44      0.20      0.48
     -0.44      0.20      0.48
     -0.44      0.20      0.24
     -0.44      0.20      0.24
     -0.68      0.20     -0.00
     -0.68      0.20     -0.00
     -0.68      0.20     -0.00
     -0.68      0.20     -0.24
     -0.68     -0.04     -0.24
     -0.68     -0.04     -0.24
     -0.68     -0.04     -0.48
     -0.68     -0.04     -0.48
     -0.68     -0.04     -0.48
     -0.68     -0.04     -0.72
     -0.68     -0.28     -0.72
     -0.68     -0.28     -0.96
     -0.68     -0.28     -0.96
     -0.68     -0.28     -1.20
     -0.44     -0.28     -1.20
     -0.44     -0.28     -1.44
     -0.44     -0.28     -1.44
     -0.44     -0.28     -1.44
     -0.20     -0.04     -1.68
     -0.20     -0.28     -1.68
     -0.20     -0.04     -1.92
     -0.20     -0.04     -1.92
     -0.20     -0.04     -1.92
     -0.20     -0.04     -1.92
      0.04     -0.28     -1.92
      0.04     -0.04     -1.92
      0.04     -0.04     -1.92
      0.04     -0.04     -1.92
      0.04     -0.04     -1.68
      0.04     -0.04     -1.68
      0.28     -0.04     -1.68
      0.28     -0.04     -1.44
      0.28     -0.04     -1.44
      0.28     -0.04     -1.44
      0.28     -0.04     -1.44
      0.28     -0.04     -1.44
      0.28     -0.04     -1.20
      0.28     -0.04     -1.20
      0.28     -0.04     -1.20
      0.28     -0.04     -1.20
      0.04      0.20     -0.96
      0.04     -0.04     -0.96
      0.04     -0.04     -0.96
      0.04      0.20     -0.72
      0.04      0.20     -0.72
      0.04      0.20     -0.48
      0.04      0.20     -0.48
      0.04      0.20     -0.24
      0.04      0.20     -0.24
      0.04      0.20     -0.00
      0.04      0.20     -0.00
      0.04      0.20     -0.00
      0.04      0.20      0.24
      0.04      0.20      0.24
      0.04      0.20      0.48
      0.04      0.20      0.48
      0.04      0.44      0.48
     -0.20      0.20      0.48
     -0.20      0.20      0.72
     -0.20      0.20      0.72
     -0.20      0.20      0.72
     -0.44      0.20      0.96
     -0.20      0.20      0.96
     -0.44     -0.04      0.96
     -0.44      0.20      0.96
     -0.44      0.20      0.96
     -0.44     -0.04      1.20
     -0.68      0.20      1.20
     -0.68      0.20      1.20
     -0.68      0.20      1.20
     -0.68      0.20      1.20
     -0.68      0.20      1.20
     -0.68      0.20      1.20
     -0.68      0.20      1.20
     -0.68      0.20      1.20
     -0.68      0.20      1.20
     -0.68      0.20      1.20
     -0.68     -0.04      1.20
     -0.68      0.20      1.20
     -0.68     -0.04      1.20
     -0.68     -0.04      0.96
     -0.68     -0.04      0.96
     -0.68     -0.04      0.96
     -0.68     -0.04      0.72
     -0.68     -0.04      0.72
     -0.44     -0.04      0.48
     -0.44      0.20      0.48
     -0.44     -0.04      0.24
     -0.44     -0.04      0.24
     -0.44     -0.04     -0.00
     -0.44     -0.04     -0.00
     -0.44     -0.28     -0.00
     -0.20     -0.04     -0.24
     -0.20     -0.04     -0.24
     -0.20     -0.04     -0.48
     -0.20     -0.28     -0.48
      0.04     -0.28     -0.72
      0.04     -0.04     -0.72
      0.04     -0.04     -0.72
      0.04     -0.04     -0.96
      0.04     -0.28     -0.96
      0.04     -0.04     -0.96
      0.04     -0.04     -0.96
      0.04     -0.04     -0.96
      0.04     -0.04     -0.96
      0.28     -0.04     -0.96
      0.28     -0.04     -0.96
      0.28     -0.28     -1.20
      0.28     -0.04     -0.96
      0.28     -0.04     -0.96
      0.28     -0.04     -0.96
      0.04     -0.28     -0.96
      0.04     -0.04     -0.96
      0.04     -0.04     -0.96
      0.04     -0.28     -0.96
      0.04     -0.04     -0.96
      0.04     -0.04     -0.72
      0.04     -0.04     -0.72
      0.04     -0.04     -0.72
      0.04     -0.04     -0.48
      0.04     -0.04     -0.48
      0.04     -0.04     -0.48
      0.04     -0.04     -0.48
      0.04     -0.04     -0.48
      0.04     -0.04     -0.24
      0.04      0.20     -0.24
      0.04     -0.04     -0.24
     -0.20     -0.04     -0.24
     -0.20      0.20     -0.00
     -0.20      0.20     -0.00
     -0.20      0.20     -0.00
     -0.20      0.20     -0.00
     -0.20      0.20      0.24
     -0.20      0.20      0.24
     -0.20      0.20      0.24
     -0.20     -0.04      0.24
     -0.20      0.20      0.48
     -0.20      0.20      0.48
     -0.20      0.20      0.48
     -0.20      0.20      0.72
     -0.20      0.20      0.72
     -0.20      0.20      0.72
     -0.20      0.20      0.72
     -0.20      0.20      0.72
     -0.20      0.20      0.72
     -0.20      0.20      0.72
      0.04     -0.04      0.72
      0.04     -0.04      0.72
      0.04     -0.04      0.72
      0.04     -0.04      0.72
      0.04     -0.04      0.72
      0.04     -0.04      0.72
      0.28     -0.04      0.72
      0.28     -0.04      0.48
      0.28     -0.04      0.48
      0.28      0.20      0.48
      0.28     -0.04      0.24
      0.52     -0.04      0.24
      0.52     -0.04      0.24
      0.52     -0.04      0.48
      0.76     -0.04      0.48
      0.76     -0.28      0.48
      0.76     -0.04      0.48
      0.76     -0.04      0.48
      0.76     -0.04      0.48
      0.76     -0.04      0.48
      0.76     -0.04      0.48
      1.00     -0.04      0.48
      0.76     -0.04      0.48
      1.00     -0.04      0.24
      0.76     -0.04      0.24
