********************************************************************************
              CENTRO DE INSTRUMENTACION Y REGISTRO SISMICO  A.C.

    Anaxagoras 814, Col. Narvarte, Benito Juarez, C.P. 03020 Mexico, D.F.
           Tels. 5687 45 42/ 5687 45  82             Fax. 5669 25 12
********************************************************************************
ARCHIVO ESTANDAR DE ACELERACION:
VERSION DEL FORMATO                    : 2.0
NOMBRE DEL ARCHIVO                     : AU4620110426110728
FECHA Y HORA DE CREACION               : 30/JUN/11, 11:42
REF. CATALOGO ACELEROGRAMAS, SMIS 1996 : REGISTRO No.     /PAG.


================================================================================
DATOS DE LA ESTACION:
NOMBRE DE LA ESTACION                  : ESC. SEC. TÉC. NO. 14
CLAVE DE LA ESTACION                   : AU46
LOCALIZACION DE LA ESTACION            : Del. Benito Juárez, Col. del Valle,    
                                       : Entre Angel Urraza y Coyoacán.         
                                       :                                        
                                       :                                        
                                       : 
COORDENADAS DE LA ESTACION             : 19.3832 LAT. N
                                       : 99.1681 LONG. W
ALTITUD (msnm)                         : 2233
TIPO DE SUELO                          : Transición                          
                                       :                           
                                       : 
INSTITUCION RESPONSABLE                : CIRES
                                       : 

================================================================================
DATOS DEL ACELEROGRAFO:
MODELO DEL ACELEROGRAFO                : RADESD
NUMERO DE SERIE DEL ACELEROGRAFO       : 236
NUMERO DE CANALES                      : 3
ORIENTACION C1-C6 (rumbo;orientacion)  : /N00E/+V/N90W
ORIENTACION C7-C12 (rumbo;orientacion) : 
VEL. DE MUESTREO, C1-C6 (muestras/s)   : /100/100/100
VEL. DE MUESTREO, C7-C12 (muestras/s)  : 
ESC. COMPLETA DE SENSORES, C1-C6, (g)  : /0.5/0.5/0.5
ESC. COMPLETA DE SENSORES, C7-C12, (g) : 
FREC. NAT. DE SENSORES, C1-C6, (Hz)    : /33/30/30
FREC. NAT. DE SENSORES, C7-C12, (Hz)   : 
AMORTIGUAMIENTO DE SENSORES, C1-C6     : /0.735/0.733/0.730
AMORTIGUAMIENTO DE SENSORES, C7-C12    : 
INTERVALO DE MUESTREO, C1-C6, (s)      : /0.01/0.01/0.01
INTERVALO DE MUESTREO, C7-C12, (s)     : 
UMBRAL DE DISPARO, C1-C6, (Gal)        : /1.92/4.31/1.92
UMBRAL DE DISPARO, C7-C12, (Gal)       : 
MEMORIA DE PREEVENTO (s)               : 32.0
TIEMPO DE POSEVENTO (s)                : 64.0


================================================================================
DATOS DEL SISMO:
FECHA DEL SISMO (GMT)                  : 26/ABR/11
HORA EPICENTRO (GMT)                   : 11:07:28.0
MAGNITUD(ES)                           : /Mc=5.5
COORDENADAS DEL EPICENTRO              : 16.71 LAT. N
                                       : 99.69 LONG. W
PROFUNDIDAD FOCAL (km)                 : 7
FUENTE DE LOS DATOS EPICENTRALES       : SSN
                                       : INSTITUTO DE GEOFISICA, UNAM

================================================================================
DATOS DE ESTE REGISTRO:
HORA DE LA PRIMERA MUESTRA (GMT)       : 11:08:51.00
EXACTITUD DEL TIEMPO (s)               : 0.01
DURACION DEL REGISTRO (s), C1-C6       : /101.5/101.5/101.5
DURACION DEL REGISTRO (s), C7-C12      : 
NUM. TOTAL DE MUESTRAS, C1-C6          : /10150/10150/10150
NUM. TOTAL DE MUESTRAS, C7-C12         : 
ACEL. MAX. (Gal), C1-C6                : /2.41477/0.91836/1.69986
ACEL. MAX., C1-C6, EN LA MUESTRA       : /3183/6388/2644
ACEL. MAX. (Gal), C7-C12               : 
ACEL. MAX., C7-C12, EN LA MUESTRA      : 
UNIDADES DE LOS DATOS                  : Gal (cm/s/s)
FACTOR DE DECIMACION                   : 1
FORMATO DATOS (FORTRAN,10 campos/dato) : 3F10.5


================================================================================
CALIDAD DEL ACELEROGRAMA:
REGISTRO DIGITAL COMPLETO CON TIEMPO ABSOLUTO CORRECTO.


================================================================================
COMENTARIOS:














================================================================================
DATOS DE ACELERACION:
---------+---------+---------+---------+---------+---------+---------+---------+
   CANAL-1   CANAL-2   CANAL-3   CANAL-4   CANAL-5   CANAL-6   CANAL-7   CANAL-8
      N00E        +V      N90W
---------+---------+---------+---------+---------+---------+---------+---------+
[...]
  -0.21885  -0.03932   0.45492
  -0.21885  -0.03932   0.45492
  -0.21885  -0.03932   0.45492
   0.02057   0.20010   0.45492
   0.02057  -0.03932   0.69434
   0.02057  -0.03932   0.69434
   0.25999   0.20010   0.69434
   0.25999   0.20010   0.45492
   0.25999   0.20010   0.45492
   0.49941  -0.03932   0.69434
   0.49941  -0.03932   0.69434
   0.49941  -0.03932   0.69434
   0.49941  -0.03932   0.93376
   0.49941  -0.27874   0.69434
   0.49941  -0.03932   0.45492
   0.25999  -0.03932   0.45492
   0.49941  -0.03932   0.45492
   0.49941  -0.03932   0.69434
   0.49941  -0.03932   0.45492
   0.49941  -0.03932   0.45492
   0.73883  -0.03932   0.45492
   0.49941  -0.27874   0.45492
   0.49941  -0.27874   0.45492
   0.73883  -0.27874   0.45492
   0.73883  -0.27874   0.21550
   0.73883  -0.03932   0.21550
   0.73883  -0.03932   0.21550
   0.97825  -0.03932  -0.02392
   0.73883  -0.03932  -0.02392
   0.97825  -0.03932  -0.02392
   0.97825   0.20010   0.21550
   0.97825   0.20010   0.21550
   0.97825   0.43952   0.21550
   0.97825   0.20010   0.21550
   1.21767   0.20010   0.45492
   0.97825   0.43952   0.45492
   0.97825   0.43952   0.45492
   0.97825   0.20010   0.69434
   0.97825   0.43952   0.45492
   0.73883   0.43952   0.45492
   0.49941   0.20010   0.21550
   0.49941   0.20010   0.21550
   0.25999   0.20010   0.21550
   0.02057   0.20010  -0.26334
   0.02057   0.20010  -0.26334
   0.02057  -0.03932  -0.50276
  -0.21885  -0.03932  -0.26334
  -0.45827  -0.03932  -0.26334
  -0.45827  -0.03932  -0.26334
  -0.45827  -0.03932  -0.50276
  -0.69769  -0.03932  -0.26334
  -0.69769  -0.03932  -0.26334
  -0.69769  -0.03932  -0.26334
  -0.69769  -0.03932  -0.26334
  -0.93711  -0.03932  -0.26334
  -0.93711  -0.03932  -0.26334
  -0.93711  -0.03932  -0.26334
  -1.17653   0.20010  -0.26334
  -1.41595  -0.27874  -0.26334
  -1.17653  -0.03932  -0.26334
  -1.17653  -0.27874  -0.26334
  -1.41595  -0.27874  -0.26334
  -1.41595  -0.27874  -0.26334
  -1.17653  -0.27874  -0.26334
  -1.17653  -0.51816  -0.02392
  -1.17653  -0.27874   0.21550
  -1.17653  -0.27874  -0.02392
  -1.17653  -0.03932  -0.02392
  -1.17653  -0.03932  -0.02392
  -1.17653  -0.03932  -0.02392
  -0.93711  -0.03932   0.21550
  -0.93711   0.20010   0.21550
  -0.69769  -0.03932   0.21550
  -0.69769  -0.03932  -0.02392
  -0.69769  -0.03932  -0.02392
  -0.45827   0.20010  -0.02392
  -0.45827  -0.03932  -0.02392
  -0.21885  -0.03932  -0.02392
  -0.21885  -0.03932  -0.26334
  -0.45827  -0.03932  -0.26334
  -0.45827  -0.03932  -0.26334
  -0.21885  -0.03932  -0.26334
  -0.21885   0.20010  -0.26334
  -0.21885  -0.03932  -0.26334
   0.02057   0.20010  -0.50276
  -0.21885   0.43952  -0.50276
   0.02057   0.20010  -0.50276
   0.02057   0.20010  -0.26334
   0.25999   0.20010  -0.26334
   0.49941   0.43952  -0.26334
   0.73883   0.20010  -0.26334
   0.73883   0.20010  -0.26334
   0.73883   0.20010  -0.02392
   0.97825  -0.03932  -0.02392
   0.97825  -0.03932  -0.02392
   1.21767  -0.03932  -0.02392
   0.97825  -0.03932   0.21550
   0.97825  -0.03932   0.21550
   0.97825  -0.03932   0.21550
   0.97825  -0.03932   0.21550
   0.97825  -0.03932   0.45492
   0.97825  -0.03932   0.45492
   0.97825  -0.03932   0.21550
   0.97825  -0.03932   0.45492
   0.97825  -0.03932   0.45492
   0.97825  -0.03932   0.45492
   1.21767  -0.03932   0.45492
   1.21767  -0.03932   0.45492
   1.21767  -0.03932   0.45492
   1.21767  -0.27874   0.45492
   1.45709  -0.03932   0.45492
   1.45709  -0.03932   0.45492
   1.45709   0.20010   0.21550
   1.45709   0.20010   0.21550
   1.45709   0.20010   0.21550
   1.21767   0.20010   0.21550
   1.21767   0.20010   0.21550
   1.21767   0.20010  -0.02392
   0.97825   0.20010  -0.02392
   0.97825   0.20010  -0.02392
   0.73883  -0.03932  -0.02392
   0.73883  -0.03932  -0.26334
   0.97825  -0.27874  -0.26334
   0.97825  -0.27874  -0.50276
   0.73883  -0.27874  -0.50276
   0.73883  -0.27874  -0.50276
   0.73883  -0.27874  -0.50276
   0.73883  -0.27874  -0.50276
   0.49941  -0.27874  -0.74218
   0.25999  -0.27874  -0.50276
   0.25999  -0.27874  -0.50276
   0.25999  -0.03932  -0.74218
   0.25999  -0.03932  -0.50276
   0.02057  -0.03932  -0.26334
   0.02057  -0.03932  -0.50276
  -0.21885   0.20010  -0.74218
  -0.21885   0.20010  -0.74218
  -0.21885   0.20010  -0.50276
  -0.45827   0.43952  -0.74218
  -0.45827   0.43952  -0.74218
  -0.69769   0.43952  -0.74218
  -0.69769   0.43952  -0.74218
  -0.93711   0.43952  -0.50276
  -0.93711   0.43952  -0.50276
  -0.93711   0.20010  -0.50276
  -0.93711   0.43952  -0.50276
  -0.93711   0.20010  -0.50276
  -1.17653   0.20010  -0.26334
  -1.17653  -0.03932  -0.50276
  -1.17653  -0.03932  -0.26334
  -1.41595  -0.03932  -0.26334
  -1.17653  -0.03932  -0.26334
  -1.41595  -0.03932  -0.26334
  -1.41595  -0.03932  -0.26334
  -1.65537  -0.27874  -0.02392
  -1.65537  -0.27874  -0.02392
  -1.65537  -0.27874  -0.02392
  -1.89479  -0.27874  -0.02392
  -1.89479  -0.27874  -0.02392
  -1.89479  -0.27874  -0.02392
  -1.89479  -0.03932  -0.26334
  -1.89479  -0.27874  -0.02392
  -1.89479  -0.03932  -0.26334
  -1.65537  -0.03932  -0.26334
  -1.65537  -0.03932  -0.26334
  -1.41595  -0.03932  -0.02392
  -1.17653  -0.03932  -0.26334
  -1.17653   0.20010  -0.26334
  -0.93711   0.20010  -0.02392
  -0.69769  -0.03932   0.21550
  -0.69769   0.20010   0.21550
  -0.45827   0.20010   0.21550
  -0.21885  -0.03932   0.45492
  -0.21885  -0.03932   0.21550
   0.02057  -0.27874   0.21550
   0.02057  -0.51816   0.21550
   0.25999  -0.27874   0.21550
   0.25999  -0.27874  -0.02392
   0.49941  -0.27874  -0.02392
   0.73883  -0.51816  -0.02392
   0.97825  -0.27874  -0.02392
   1.21767  -0.03932  -0.26334
   1.21767  -0.03932  -0.02392
   1.45709  -0.03932  -0.02392
   1.45709   0.20010  -0.02392
   1.45709  -0.03932  -0.02392
   1.45709   0.20010   0.21550
   1.45709   0.43952   0.21550
   1.69651   0.43952   0.21550
   1.69651   0.43952   0.21550
   1.69651   0.43952   0.21550
   1.69651   0.20010   0.21550
   1.69651   0.20010   0.21550
   1.69651   0.20010   0.21550
   1.93593  -0.03932   0.21550
   1.93593  -0.03932   0.21550
   1.93593  -0.27874   0.21550
   1.93593  -0.27874   0.45492
   1.93593  -0.27874   0.21550
   1.93593  -0.03932   0.21550
   1.93593  -0.27874   0.21550
   1.69651  -0.27874   0.21550
   1.45709  -0.27874   0.21550
   1.45709  -0.27874   0.21550
   1.21767  -0.27874   0.45492
   1.21767  -0.03932   0.21550
   1.21767  -0.03932   0.45492
   0.97825  -0.27874   0.45492
   0.97825  -0.03932   0.69434
   0.73883   0.20010   0.45492
   0.73883   0.20010   0.69434
   0.49941  -0.03932   0.69434
   0.25999   0.20010   0.93376
  -0.21885  -0.03932   0.93376
  -0.45827  -0.03932   0.93376
  -0.69769  -0.03932   0.93376
  -0.93711  -0.03932   0.93376
  -1.41595   0.20010   0.93376
  -1.41595  -0.03932   1.17318
  -1.65537  -0.27874   1.17318
  -1.41595  -0.27874   0.69434
  -1.41595  -0.03932   0.93376
  -1.41595  -0.27874   0.93376
  -1.41595  -0.03932   0.69434
  -1.41595  -0.03932   0.45492
  -1.17653  -0.27874   0.69434
  -1.17653  -0.03932   0.45492
  -1.17653  -0.03932   0.21550
  -1.17653  -0.03932   0.21550
  -1.17653  -0.03932   0.21550
  -1.41595   0.20010   0.21550
  -1.17653   0.20010  -0.02392
  -1.41595   0.20010  -0.02392
  -1.41595   0.43952  -0.02392
  -1.41595   0.43952  -0.02392
  -1.65537   0.43952  -0.02392
  -1.65537   0.43952  -0.26334
  -1.41595   0.43952  -0.50276
  -1.41595   0.43952  -0.26334
  -1.17653   0.43952  -0.26334
  -1.17653   0.20010  -0.02392
  -0.93711   0.20010  -0.02392
  -0.93711  -0.03932  -0.02392
  -0.93711  -0.03932  -0.02392
  -0.93711  -0.03932  -0.26334
  -0.69769  -0.03932  -0.26334
  -0.69769  -0.27874  -0.26334
  -0.45827  -0.27874  -0.26334
  -0.21885  -0.27874  -0.50276
   0.02057  -0.51816  -0.50276
  -0.21885  -0.51816  -0.74218
   0.02057  -0.51816  -0.74218
   0.02057  -0.51816  -0.74218
   0.02057  -0.51816  -0.98160
   0.25999  -0.27874  -0.98160
   0.25999  -0.27874  -0.98160
   0.25999  -0.03932  -0.98160
   0.02057  -0.27874  -0.74218
   0.25999  -0.27874  -0.74218
   0.02057  -0.27874  -0.74218
   0.02057  -0.27874  -0.50276
   0.25999  -0.03932  -0.74218
   0.25999  -0.03932  -0.74218
   0.25999  -0.03932  -0.74218
   0.49941  -0.03932  -0.50276
   0.73883  -0.03932  -0.50276
   0.73883  -0.03932  -0.50276
   0.73883   0.20010  -0.26334
   0.97825   0.20010  -0.02392
   0.97825   0.20010  -0.02392
   0.97825   0.43952   0.21550
   0.97825   0.20010   0.45492
   0.73883   0.43952   0.45492
   0.73883   0.67894   0.45492
   0.73883   0.43952   0.69434
   0.49941   0.43952   0.69434
   0.73883   0.43952   0.45492
   0.73883   0.43952   0.45492
   0.49941   0.43952   0.45492
   0.73883   0.20010   0.45492
   0.73883   0.20010   0.21550
   0.73883  -0.03932   0.21550
   0.97825  -0.03932   0.21550
   0.97825  -0.03932   0.21550
   0.73883  -0.03932  -0.02392
   0.73883  -0.03932   0.21550
   0.73883  -0.27874   0.21550
   0.73883  -0.03932  -0.02392
   0.49941  -0.03932   0.21550
   0.73883  -0.03932   0.21550
   0.73883  -0.27874   0.21550
   0.73883  -0.03932   0.21550
   0.49941   0.20010  -0.02392
   0.49941   0.20010  -0.02392
   0.49941   0.20010  -0.02392
   0.49941   0.43952  -0.02392
   0.49941   0.20010  -0.26334
   0.49941   0.43952  -0.50276
   0.02057   0.20010  -0.50276
   0.02057   0.20010  -0.74218
  -0.21885  -0.03932  -0.50276
  -0.21885  -0.03932  -0.74218
  -0.45827  -0.27874  -0.74218
  -0.69769  -0.27874  -0.74218
  -0.93711  -0.51816  -0.98160
  -0.93711  -0.51816  -0.74218
  -0.93711  -0.51816  -0.74218
  -0.93711  -0.51816  -0.50276
  -0.93711  -0.51816  -0.50276
  -0.93711  -0.51816  -0.50276
  -1.17653  -0.51816  -0.26334
  -0.93711  -0.51816  -0.02392
  -0.93711  -0.27874  -0.26334
  -1.17653  -0.27874  -0.02392
  -1.17653  -0.03932  -0.02392
  -1.41595  -0.03932   0.21550
  -1.17653  -0.03932   0.45492
  -1.65537  -0.03932   0.45492
  -1.41595  -0.03932   0.45492
  -1.41595  -0.03932   0.21550
  -1.65537   0.20010   0.45492
  -1.65537   0.20010   0.45492
  -1.65537   0.20010   0.45492
  -1.41595   0.20010   0.21550
  -1.41595   0.20010   0.45492
  -1.41595   0.20010   0.21550
  -1.17653   0.20010   0.21550
  -1.41595   0.20010   0.21550
  -1.17653  -0.03932   0.21550
  -1.17653  -0.03932   0.21550
  -0.69769  -0.03932   0.21550
  -0.69769   0.20010  -0.02392
  -0.45827   0.20010   0.21550
  -0.21885   0.20010   0.21550
   0.02057   0.20010  -0.02392
   0.25999   0.20010   0.21550
   0.73883   0.20010  -0.02392
   0.73883   0.20010  -0.02392
   0.97825   0.43952   0.21550
   1.21767   0.20010  -0.02392
   1.69651   0.43952   0.21550
   1.93593   0.20010  -0.02392
   1.93593   0.43952  -0.02392
   2.17535   0.43952  -0.02392
   2.17535   0.67894  -0.02392
   2.17535   0.43952  -0.02392
   2.41477   0.20010   0.21550
   2.41477   0.20010  -0.02392
   2.41477   0.43952  -0.26334
   2.41477   0.20010  -0.02392
   2.41477   0.20010  -0.02392
   2.17535  -0.03932  -0.02392
   2.17535  -0.03932  -0.02392
   1.93593  -0.03932  -0.02392
   1.93593  -0.03932  -0.26334
   1.69651  -0.03932  -0.26334
   1.45709  -0.03932  -0.26334
   1.45709  -0.03932  -0.02392
   1.45709  -0.03932  -0.26334
   1.21767  -0.03932  -0.02392
   0.97825  -0.03932   0.21550
   0.97825  -0.27874   0.45492
   0.73883  -0.27874   0.21550
   0.49941  -0.27874   0.69434
   0.73883  -0.27874   0.69434
   0.49941  -0.27874   0.93376
   0.02057  -0.51816   0.93376
   0.02057  -0.51816   0.93376
  -0.21885  -0.51816   0.69434
  -0.21885  -0.51816   0.69434
  -0.45827  -0.51816   0.69434
  -0.45827  -0.51816   0.45492
  -0.45827  -0.51816   0.69434
  -0.69769  -0.27874   0.45492
  -0.69769  -0.27874   0.45492
  -0.69769  -0.03932   0.45492
  -0.69769  -0.27874   0.45492
  -0.93711  -0.03932   0.45492
  -1.17653  -0.03932   0.45492
  -1.17653   0.20010   0.45492
  -1.17653   0.20010   0.45492
  -1.41595   0.20010   0.45492
  -1.41595   0.20010   0.21550
  -1.41595   0.20010   0.21550
  -1.41595   0.20010  -0.02392
  -1.41595   0.20010   0.21550
  -1.41595   0.20010  -0.02392
  -1.17653   0.20010  -0.26334
  -1.41595   0.20010  -0.50276
  -1.17653  -0.03932  -0.26334
  -1.17653  -0.03932  -0.50276
  -0.93711  -0.03932  -0.50276
  -0.69769  -0.27874  -0.74218
  -0.93711  -0.03932  -0.74218
  -0.93711  -0.27874  -0.74218
  -0.93711  -0.03932  -0.98160
  -0.93711  -0.03932  -0.98160
  -0.93711  -0.03932  -0.98160
  -0.93711  -0.03932  -1.22102
  -0.93711   0.20010  -1.22102
  -1.17653  -0.03932  -0.98160
  -0.93711   0.20010  -1.22102
  -0.93711   0.43952  -1.22102
  -0.93711   0.43952  -0.98160
  -0.69769   0.43952  -0.74218
  -0.69769   0.43952  -0.74218
  -0.69769   0.20010  -0.74218
  -0.69769   0.20010  -0.50276
  -0.45827   0.20010  -0.50276
  -0.45827   0.20010  -0.50276
  -0.45827  -0.03932  -0.26334
  -0.21885  -0.03932  -0.26334
  -0.21885  -0.27874  -0.26334
  -0.21885  -0.27874  -0.26334
  -0.21885  -0.27874  -0.26334
   0.02057  -0.27874  -0.26334
   0.02057  -0.27874  -0.26334
   0.02057  -0.03932  -0.26334
   0.02057  -0.27874  -0.26334
   0.25999  -0.03932  -0.26334
   0.25999  -0.03932  -0.26334
   0.25999  -0.03932  -0.26334
   0.25999  -0.03932  -0.02392
   0.49941  -0.03932  -0.02392
   0.49941  -0.03932  -0.02392
   0.49941  -0.03932  -0.02392
   0.73883   0.20010   0.21550
   0.73883   0.20010   0.21550
   0.73883   0.20010   0.21550
   0.97825   0.20010   0.45492
   0.97825   0.20010   0.45492
   0.97825   0.20010   0.45492
   0.97825  -0.03932   0.69434
   1.21767   0.20010   0.69434
   1.21767   0.20010   0.69434
   1.21767   0.20010   0.69434
   1.45709  -0.03932   0.69434
   1.45709  -0.03932   0.93376
   1.21767  -0.27874   0.93376
   1.21767  -0.27874   0.93376
   1.21767  -0.51816   0.93376
   1.45709  -0.27874   0.93376
   1.45709  -0.27874   0.93376
   1.21767  -0.27874   0.93376
   1.45709  -0.27874   0.69434
   1.45709  -0.27874   0.69434
   1.45709  -0.27874   0.69434
   1.45709  -0.27874   0.69434
   1.21767  -0.03932   0.21550
   1.21767  -0.03932   0.21550
   0.97825  -0.03932   0.21550
   0.97825  -0.03932   0.45492
   0.97825  -0.03932   0.21550
   0.97825  -0.03932  -0.02392
   0.73883  -0.03932  -0.02392
   0.73883  -0.03932  -0.26334
   0.25999  -0.03932  -0.26334
   0.02057  -0.27874  -0.26334
  -0.21885  -0.27874  -0.26334
  -0.21885  -0.27874  -0.50276
  -0.45827  -0.03932  -0.50276
  -0.45827  -0.03932  -0.50276
  -0.69769  -0.27874  -0.50276
  -0.69769  -0.27874  -0.50276
  -0.93711  -0.03932  -0.74218
  -0.93711  -0.03932  -0.50276
  -0.93711  -0.27874  -0.74218
  -1.17653  -0.03932  -0.50276
  -1.17653  -0.03932  -0.50276
  -1.17653  -0.27874  -0.26334
  -1.17653  -0.03932  -0.50276
  -1.17653   0.20010  -0.50276
  -1.17653   0.20010  -0.50276
  -1.17653   0.20010  -0.50276
  -1.17653  -0.03932  -0.50276
  -1.17653  -0.03932  -0.50276
  -1.17653   0.20010  -0.50276
  -0.93711   0.20010  -0.74218
  -1.17653   0.43952  -0.74218
  -0.93711   0.20010  -0.74218
  -0.69769   0.20010  -0.74218
  -0.69769   0.20010  -0.74218
  -0.69769   0.20010  -0.74218
  -0.45827   0.43952  -0.98160
  -0.21885   0.43952  -0.74218
  -0.21885   0.43952  -0.74218
  -0.21885   0.43952  -0.74218
  -0.21885   0.20010  -0.50276
  -0.21885   0.43952  -0.74218
  -0.21885   0.43952  -0.74218
   0.02057   0.43952  -0.50276
   0.25999   0.43952  -0.50276
   0.02057   0.43952  -0.50276
   0.25999   0.43952  -0.26334
   0.25999   0.43952  -0.26334
   0.25999   0.43952  -0.02392
