********************************************************************************
               CENTRO DE INSTRUMENTACION Y REGISTRO SISMICO  A.C.  
                       Coordinacion de Servicios Tecnicos
     Anaxagoras 814, Col. Narvarte, Benito Juarez, C.P. 03020 Mexico, D.F.
            Tels. 687 45 42/ 687 45  82             Fax. 669 25 12
********************************************************************************
ARCHIVO ESTANDAR DE ACELERACION:
VERSION DEL FORMATO                    : 2.0
NOMBRE DEL ARCHIVO                     : AU469603.271
FECHA Y HORA DE CREACION               : 27/MAR/98, 13:06
REF. CATALOGO ACELEROGRAMAS, SMIS 1996 : REGISTRO No.     /PAG.


================================================================================
DATOS DE LA ESTACION:
NOMBRE DE LA ESTACION                  : ANGEL URRAZA
CLAVE DE LA ESTACION                   : AU46
LOCALIZACION DE LA ESTACION            : Esc Sec Tec # 14, 5 de Mayo Av
                                       : Coyoacan y Angel Urraza, Col de
                                       : Valle, Benito Juarez
                                       :
                                       :
COORDENADAS DE LA ESTACION             : 19.383 LAT. N 
                                       : 99.168 LONG. W 
ALTITUD (msnm)                         : 2233
TIPO DE SUELO                          : TRANSICION
                                       : 
                                       : 
INSTITUCION RESPONSABLE                : CIRES
                                       :

================================================================================
DATOS DEL ACELEROGRAFO:
MODELO DEL ACELEROGRAFO                : DCA-333
NUMERO DE SERIE DEL ACELEROGRAFO       : 236
NUMERO DE CANALES                      : 3
ORIENTACION C1-C6 (rumbo;orientacion)  : /N00E/+V/N90W
ORIENTACION C7-C12 (rumbo;orientacion) :
VEL. DE MUESTREO, C1-C6 (muestras/s)   : /100/100/100
VEL. DE MUESTREO, C7-C12 (muestras/s)  :
ESC. COMPLETA DE SENSORES, C1-C6, (g)  : /0.5/0.5/0.5
ESC. COMPLETA DE SENSORES, C7-C12, (g) :
FREC. NAT. DE SENSORES, C1-C6, (Hz)    : /33/30/30
FREC. NAT. DE SENSORES, C7-C12, (Hz)   :
AMORTIGUAMIENTO DE SENSORES, C1-C6     : /0.735/0.733/0.730
AMORTIGUAMIENTO DE SENSORES, C7-C12    :
INTERVALO DE MUESTREO, C1-C6, (s)      : /0.01/0.01/0.01
INTERVALO DE MUESTREO, C7-C12, (s)     :
UMBRAL DE DISPARO, C1-C6, (Gal)        : /1.5/1.5/1.5
UMBRAL DE DISPARO, C7-C12, (Gal)       :
MEMORIA DE PREEVENTO (s)               : 4
TIEMPO DE POSEVENTO (s)                : 15


================================================================================
DATOS DEL SISMO:
FECHA DEL SISMO (GMT)                  : 27/MAR/96
HORA EPICENTRO (GMT)                   : 12:34:48,2
MAGNITUD(ES)                           : /Mb=5.5/Ms=4.9/Mc=4.6
COORDENADAS DEL EPICENTRO              : 16.210 LAT. N
                                       : 98.250 LONG. W
PROFUNDIDAD FOCAL (km)                 : 7
FUENTE DE LOS DATOS EPICENTRALES       : SSN
                                       : INSTITUTO DE GEOFISICA, UNAM

================================================================================
DATOS DE ESTE REGISTRO:
HORA DE LA PRIMERA MUESTRA (GMT)       : 12:36:28.11
EXACTITUD DEL TIEMPO (s)               : 0.01
DURACION DEL REGISTRO (s), C1-C6       : /42.05/42.05/42.05
DURACION DEL REGISTRO (s), C7-C12      :
NUM. TOTAL DE MUESTRAS, C1-C6          : /4205/4205/4205
NUM. TOTAL DE MUESTRAS, C7-C12         :
ACEL. MAX. (Gal), C1-C6                : /2.54365/0.83703/2.41030
ACEL. MAX., C1-C6, EN LA MUESTRA       :
ACEL. MAX. (Gal), C7-C12               :
ACEL. MAX., C7-C12, EN LA MUESTRA      :
UNIDADES DE LOS DATOS                  : Gal (cm/s/s)
FACTOR DE DECIMACION                   : 1
FORMATO DATOS (FORTRAN,10 campos/dato) : 3F10.5


================================================================================
CALIDAD DEL ACELEROGRAMA:
REGISTRO DIGITAL COMPLETO CON TIEMPO ABSOLUTO CORRECTO.


================================================================================
COMENTARIOS:














================================================================================
DATOS DE ACELERACION:
---------+---------+---------+---------+---------+---------+---------+---------+
   CANAL-1   CANAL-2   CANAL-3   CANAL-4   CANAL-5   CANAL-6   CANAL-7   CANAL-8
      N00E        +V      N90W
---------+---------+---------+---------+---------+---------+---------+---------+
[...]
   0.38888  -0.12065   0.46272
   0.38888  -0.12065   0.46272
   0.38888  -0.12065   0.46272
   0.38888  -0.12065   0.70214
   0.14946  -0.12065   0.70214
   0.14946  -0.12065   0.70214
   0.14946  -0.12065   0.94156
   0.14946  -0.12065   0.94156
   0.14946   0.11877   0.94156
   0.14946   0.11877   0.94156
   0.14946   0.11877   0.94156
   0.14946   0.11877   0.94156
   0.14946   0.11877   0.94156
   0.14946   0.35819   0.94156
   0.14946   0.35819   1.18098
   0.38888   0.35819   1.18098
   0.38888   0.35819   1.18098
   0.62830   0.35819   1.18098
   0.38888   0.59761   1.18098
   0.38888   0.59761   1.18098
   0.38888   0.59761   1.18098
   0.62830   0.35819   1.18098
   0.86772   0.35819   1.18098
   0.86772   0.35819   0.94156
   0.86772   0.35819   0.70214
   0.86772   0.35819   0.70214
   0.86772   0.35819   0.70214
   0.62830   0.35819   0.70214
   0.62830   0.35819   0.70214
   0.62830   0.35819   0.70214
   0.62830   0.11877   0.46272
   0.62830   0.11877   0.22331
   0.38888   0.11877  -0.01611
   0.38888   0.35819  -0.01611
   0.38888   0.11877  -0.01611
   0.14946  -0.12065  -0.01611
   0.38888  -0.12065  -0.01611
   0.38888  -0.12065  -0.25553
   0.14946   0.11877  -0.49495
   0.14946   0.11877  -0.49495
  -0.08996   0.11877  -0.49495
  -0.08996  -0.12065  -0.49495
  -0.08996  -0.36007  -0.73437
  -0.08996  -0.36007  -0.73437
  -0.32938  -0.36007  -0.97379
  -0.32938  -0.36007  -0.97379
  -0.32938  -0.12065  -1.21321
  -0.56880  -0.36007  -1.21321
  -0.56880  -0.36007  -1.21321
  -0.56880  -0.36007  -1.21321
  -0.80822  -0.36007  -1.45263
  -0.80822  -0.36007  -1.45263
  -1.04764  -0.12065  -1.45263
  -1.04764   0.11877  -1.45263
  -1.04764  -0.36007  -1.21321
  -1.04764  -0.36007  -1.21321
  -1.04764  -0.36007  -0.97379
  -1.28705  -0.12065  -0.97379
  -1.28705  -0.12065  -0.97379
  -1.28705  -0.12065  -1.21321
  -1.28705   0.11877  -0.97379
  -1.28705   0.11877  -0.97379
  -1.28705   0.11877  -0.97379
  -1.28705   0.11877  -0.73437
  -1.28705   0.11877  -0.73437
  -1.04764   0.11877  -0.73437
  -1.04764   0.11877  -0.73437
  -1.28705   0.11877  -0.49495
  -1.28705   0.11877  -0.49495
  -1.04764   0.11877  -0.25553
  -1.04764   0.11877  -0.25553
  -1.04764   0.11877  -0.25553
  -0.80822   0.11877  -0.01611
  -0.80822   0.11877  -0.01611
  -0.80822   0.11877  -0.01611
  -0.80822   0.11877  -0.01611
  -0.56880   0.11877  -0.01611
  -0.56880  -0.12065   0.22331
  -0.32938   0.11877   0.22331
  -0.32938  -0.12065   0.22331
  -0.32938   0.11877   0.22331
  -0.08996   0.11877   0.22331
  -0.08996   0.11877   0.22331
  -0.08996   0.11877   0.22331
  -0.08996   0.11877   0.46272
  -0.08996   0.11877   0.46272
  -0.08996   0.11877   0.46272
  -0.08996   0.11877   0.46272
  -0.08996   0.11877   0.46272
  -0.08996   0.11877   0.46272
  -0.08996   0.11877   0.46272
  -0.08996   0.35819   0.70214
  -0.08996   0.11877   0.46272
  -0.08996   0.11877   0.46272
  -0.08996   0.35819   0.46272
  -0.08996   0.11877   0.46272
  -0.08996   0.11877   0.70214
  -0.08996   0.11877   0.70214
   0.14946   0.11877   0.70214
   0.14946   0.11877   0.46272
   0.38888  -0.12065   0.46272
   0.14946  -0.12065   0.70214
   0.38888  -0.12065   0.70214
   0.38888  -0.12065   0.70214
   0.38888  -0.12065   0.46272
   0.38888  -0.12065   0.46272
   0.38888  -0.12065   0.46272
   0.62830  -0.12065   0.46272
   0.62830  -0.12065   0.46272
   0.62830  -0.12065   0.46272
   0.62830  -0.12065   0.46272
   0.62830  -0.12065   0.46272
   0.62830  -0.12065   0.22331
   0.62830  -0.12065  -0.01611
   0.86772   0.11877  -0.01611
   0.86772   0.11877  -0.01611
   0.86772   0.11877  -0.01611
   0.86772   0.11877  -0.01611
   0.86772   0.11877   0.22331
   0.86772   0.11877   0.22331
   0.86772   0.11877   0.22331
   0.86772   0.11877   0.22331
   0.86772  -0.12065   0.22331
   0.86772   0.11877  -0.01611
   0.86772   0.11877   0.22331
   0.62830   0.11877   0.22331
   0.62830   0.11877   0.22331
   0.62830   0.11877   0.22331
   0.62830   0.11877   0.46272
   0.38888   0.11877   0.46272
   0.38888   0.11877   0.46272
   0.38888   0.11877   0.46272
   0.38888   0.11877   0.46272
   0.14946   0.11877   0.46272
   0.14946   0.11877   0.70214
  -0.08996   0.11877   0.70214
  -0.08996   0.11877   0.70214
  -0.08996   0.11877   0.46272
  -0.08996   0.11877   0.46272
  -0.08996   0.11877   0.46272
  -0.08996   0.11877   0.46272
  -0.32938  -0.12065   0.46272
  -0.32938  -0.12065   0.46272
  -0.32938  -0.12065   0.46272
  -0.08996   0.11877   0.46272
  -0.08996   0.11877   0.22331
  -0.32938   0.11877   0.22331
  -0.56880  -0.12065   0.22331
  -0.56880  -0.12065   0.22331
  -0.56880  -0.12065   0.22331
  -0.56880  -0.12065   0.22331
  -0.56880  -0.12065  -0.01611
  -0.56880  -0.12065  -0.01611
  -0.56880  -0.12065  -0.25553
  -0.56880  -0.12065  -0.25553
  -0.56880  -0.12065  -0.25553
  -0.56880   0.11877  -0.25553
  -0.56880   0.11877  -0.25553
  -0.56880  -0.12065  -0.25553
  -0.56880  -0.12065  -0.49495
  -0.56880   0.11877  -0.49495
  -0.56880   0.11877  -0.73437
  -0.56880   0.11877  -0.73437
  -0.32938   0.11877  -0.73437
  -0.32938   0.11877  -0.73437
  -0.32938  -0.12065  -0.73437
  -0.32938  -0.12065  -0.73437
  -0.32938  -0.12065  -0.73437
  -0.08996   0.11877  -0.73437
  -0.08996  -0.12065  -0.73437
  -0.08996  -0.12065  -0.73437
  -0.08996  -0.12065  -0.73437
  -0.08996  -0.12065  -0.97379
  -0.08996  -0.12065  -0.73437
   0.14946  -0.12065  -0.73437
   0.14946  -0.36007  -0.73437
   0.38888  -0.36007  -0.73437
   0.38888  -0.12065  -0.73437
   0.38888  -0.12065  -0.49495
   0.62830  -0.12065  -0.73437
   0.62830  -0.12065  -0.73437
   0.86772  -0.12065  -0.73437
   0.86772  -0.12065  -0.49495
   0.86772  -0.36007  -0.25553
   0.86772  -0.36007  -0.25553
   0.86772  -0.12065  -0.01611
   0.86772  -0.36007  -0.01611
   1.10713  -0.12065  -0.25553
   1.10713  -0.36007  -0.25553
   1.10713  -0.36007  -0.25553
   1.10713  -0.36007  -0.01611
   1.10713  -0.36007  -0.01611
   1.34655  -0.12065  -0.01611
   1.10713  -0.12065   0.22331
   1.34655  -0.12065   0.22331
   1.10713  -0.12065   0.22331
   1.10713  -0.12065   0.46272
   1.10713  -0.12065   0.46272
   0.86772   0.11877   0.70214
   0.86772  -0.12065   0.70214
   0.86772   0.11877   0.70214
   0.62830  -0.12065   0.70214
   0.62830  -0.12065   0.94156
   0.62830   0.11877   0.94156
   0.38888  -0.12065   1.18098
   0.38888  -0.12065   1.18098
   0.14946   0.11877   0.94156
  -0.08996   0.11877   0.94156
  -0.08996   0.11877   0.94156
  -0.08996   0.35819   0.94156
  -0.08996   0.11877   1.18098
  -0.32938   0.11877   1.18098
  -0.32938   0.11877   1.18098
  -0.80822   0.11877   0.94156
  -0.80822   0.35819   0.94156
  -0.80822   0.35819   0.94156
  -0.80822   0.35819   0.94156
  -0.80822   0.35819   0.94156
  -0.80822   0.35819   0.70214
  -1.04764   0.35819   0.70214
  -1.28705   0.59761   0.70214
  -1.28705   0.35819   0.70214
  -1.28705   0.11877   0.46272
  -1.28705   0.35819   0.46272
  -1.28705   0.11877   0.22331
  -1.28705   0.11877   0.22331
  -1.52647   0.35819  -0.01611
  -1.52647   0.35819  -0.01611
  -1.52647   0.35819  -0.01611
  -1.52647   0.11877  -0.01611
  -1.52647   0.35819  -0.01611
  -1.52647   0.11877  -0.01611
  -1.28705   0.11877  -0.01611
  -1.28705   0.35819  -0.25553
  -1.28705   0.59761  -0.25553
  -1.28705   0.35819  -0.01611
  -1.28705   0.11877  -0.01611
  -1.04764   0.11877  -0.01611
  -1.04764   0.11877  -0.01611
  -0.80822   0.11877  -0.01611
  -0.56880   0.35819  -0.25553
  -0.56880   0.11877  -0.25553
  -0.56880   0.11877  -0.25553
  -0.32938   0.11877  -0.25553
  -0.08996   0.11877  -0.49495
  -0.08996   0.11877  -0.73437
  -0.08996   0.11877  -0.73437
  -0.08996   0.11877  -0.73437
   0.14946  -0.12065  -0.73437
   0.14946  -0.12065  -0.73437
   0.38888  -0.36007  -0.73437
   0.38888  -0.36007  -0.73437
   0.62830  -0.36007  -1.21321
   0.62830  -0.36007  -1.21321
   0.86772  -0.36007  -1.45263
   0.86772  -0.36007  -1.45263
   1.10713  -0.36007  -1.45263
   1.10713  -0.12065  -1.45263
   1.10713  -0.36007  -1.45263
   1.10713  -0.36007  -1.45263
   1.34655  -0.36007  -1.45263
   1.34655  -0.36007  -1.45263
   1.58597  -0.36007  -1.45263
   1.58597  -0.12065  -1.45263
   1.58597  -0.36007  -1.45263
   1.58597  -0.36007  -1.45263
   1.58597  -0.36007  -1.21321
   1.82539  -0.36007  -0.97379
   1.82539  -0.36007  -0.73437
   1.82539  -0.36007  -0.73437
   1.82539  -0.36007  -0.73437
   1.58597  -0.36007  -0.73437
   1.58597  -0.36007  -0.49495
   1.58597  -0.36007  -0.25553
   1.58597  -0.36007  -0.25553
   1.58597  -0.12065  -0.25553
   1.58597  -0.12065  -0.25553
   1.34655  -0.12065  -0.01611
   1.10713  -0.12065  -0.01611
   0.86772   0.11877   0.22331
   0.86772  -0.12065   0.46272
   0.86772  -0.12065   0.46272
   0.86772   0.11877   0.22331
   0.62830   0.11877   0.22331
   0.38888   0.11877   0.22331
   0.14946   0.11877   0.46272
  -0.08996   0.11877   0.70214
  -0.08996   0.35819   0.70214
  -0.08996   0.35819   0.70214
  -0.32938   0.35819   0.70214
  -0.56880   0.11877   0.70214
  -0.80822   0.11877   0.70214
  -0.80822   0.11877   0.70214
  -1.04764   0.35819   0.70214
  -1.28705   0.35819   0.70214
  -1.28705   0.35819   0.70214
  -1.52647   0.35819   0.70214
  -1.52647   0.11877   0.70214
  -1.52647   0.11877   0.94156
  -1.76589   0.11877   0.70214
  -1.76589   0.11877   0.70214
  -1.76589   0.11877   0.46272
  -1.76589   0.35819   0.22331
  -1.76589   0.35819   0.22331
  -2.00531   0.35819   0.22331
  -2.00531   0.35819   0.22331
  -2.00531   0.35819   0.46272
  -2.24473   0.35819   0.46272
  -2.00531   0.35819   0.22331
  -2.00531   0.59761   0.22331
  -2.00531   0.35819  -0.01611
  -2.00531   0.35819  -0.01611
  -2.24473   0.35819  -0.25553
  -2.24473   0.59761  -0.25553
  -2.24473   0.35819  -0.25553
  -2.00531   0.35819  -0.01611
  -1.76589   0.11877  -0.25553
  -1.76589   0.11877  -0.49495
  -1.76589   0.11877  -0.49495
  -1.76589   0.11877  -0.73437
  -1.52647   0.11877  -0.49495
  -1.28705   0.11877  -0.49495
  -1.28705   0.11877  -0.49495
  -1.28705   0.11877  -0.49495
  -1.04764   0.11877  -0.49495
  -0.80822   0.11877  -0.73437
  -0.56880   0.11877  -0.73437
  -0.32938   0.11877  -0.49495
  -0.08996  -0.12065  -0.49495
  -0.08996  -0.12065  -0.49495
   0.14946  -0.36007  -0.49495
   0.38888  -0.12065  -0.49495
   0.62830  -0.12065  -0.49495
   0.62830   0.11877  -0.49495
   0.86772   0.11877  -0.49495
   1.10713  -0.12065  -0.25553
   1.10713  -0.12065  -0.01611
   1.34655  -0.12065  -0.01611
   1.34655  -0.12065  -0.01611
   1.34655  -0.12065  -0.01611
   1.58597  -0.12065  -0.01611
   1.82539  -0.12065  -0.01611
   1.82539  -0.12065   0.22331
   2.06481  -0.12065   0.46272
   2.06481  -0.12065   0.46272
   2.06481  -0.12065   0.46272
   2.06481  -0.12065   0.70214
   2.30423  -0.36007   0.70214
   2.30423  -0.36007   0.70214
   2.54365  -0.36007   0.70214
   2.54365  -0.36007   0.70214
   2.54365  -0.12065   0.94156
   2.54365  -0.12065   0.94156
   2.54365  -0.12065   0.94156
   2.30423  -0.12065   0.94156
   2.30423  -0.36007   0.94156
   2.30423  -0.12065   0.94156
   2.30423  -0.12065   0.94156
   2.30423   0.11877   0.94156
   2.06481   0.11877   0.94156
   1.82539   0.11877   0.70214
   1.58597  -0.12065   0.70214
   1.58597   0.11877   0.70214
   1.34655   0.11877   0.70214
   1.34655   0.11877   0.70214
   1.10713   0.11877   0.94156
   0.86772  -0.12065   0.94156
   0.86772  -0.12065   0.94156
   0.62830   0.11877   0.70214
   0.38888  -0.12065   0.46272
   0.38888   0.11877   0.46272
   0.14946   0.11877   0.46272
   0.14946   0.11877   0.46272
  -0.08996  -0.12065   0.46272
  -0.08996  -0.12065   0.22331
  -0.08996  -0.12065   0.22331
  -0.32938  -0.12065  -0.01611
  -0.32938  -0.12065  -0.01611
  -0.56880  -0.12065  -0.01611
  -0.80822  -0.12065  -0.01611
  -1.04764  -0.12065  -0.01611
  -1.28705  -0.12065  -0.25553
  -1.52647  -0.12065  -0.49495
  -1.52647  -0.12065  -0.73437
  -1.52647  -0.12065  -0.73437
  -1.76589   0.11877  -0.73437
  -1.76589  -0.12065  -0.73437
  -1.76589  -0.36007  -0.73437
  -2.00531  -0.36007  -0.97379
  -2.00531  -0.36007  -1.21321
  -2.00531  -0.12065  -1.21321
  -2.00531  -0.12065  -1.21321
  -2.00531  -0.12065  -0.97379
  -2.00531  -0.12065  -0.97379
  -2.00531  -0.12065  -1.21321
  -2.00531  -0.12065  -1.21321
  -1.76589   0.11877  -1.21321
  -1.76589   0.11877  -0.97379
  -1.76589   0.11877  -0.97379
  -1.76589   0.11877  -0.97379
  -1.76589  -0.12065  -0.97379
  -1.76589  -0.12065  -0.97379
  -1.52647  -0.12065  -0.97379
  -1.52647   0.11877  -0.73437
  -1.28705   0.11877  -0.49495
  -1.04764   0.11877  -0.49495
  -1.04764   0.11877  -0.73437
  -1.04764   0.11877  -0.73437
  -0.80822   0.11877  -0.73437
  -0.80822   0.11877  -0.49495
  -0.56880   0.11877  -0.25553
  -0.32938   0.11877  -0.25553
  -0.08996  -0.12065  -0.25553
  -0.08996  -0.12065  -0.25553
  -0.08996  -0.12065  -0.25553
   0.14946   0.11877  -0.25553
   0.14946   0.11877  -0.25553
   0.38888   0.11877  -0.01611
   0.62830   0.35819   0.22331
   0.62830   0.11877   0.22331
   0.62830   0.11877   0.22331
   0.86772   0.11877   0.22331
   0.86772   0.11877   0.46272
   1.10713  -0.12065   0.46272
   1.34655  -0.12065   0.46272
   1.34655   0.11877   0.70214
   1.34655   0.11877   0.70214
   1.34655   0.35819   0.70214
   1.34655   0.35819   0.46272
   1.34655   0.11877   0.46272
   1.34655   0.11877   0.46272
   1.58597  -0.12065   0.70214
   1.58597  -0.12065   0.70214
   1.58597  -0.12065   0.70214
   1.58597   0.11877   0.70214
   1.58597  -0.12065   0.70214
   1.58597   0.11877   0.46272
   1.58597  -0.12065   0.70214
   1.34655  -0.12065   0.94156
   1.34655  -0.12065   0.94156
   1.10713  -0.36007   0.94156
   0.86772  -0.36007   0.94156
   0.86772  -0.36007   0.94156
   1.10713  -0.36007   0.94156
   0.86772  -0.36007   0.94156
   0.62830  -0.36007   0.70214
   0.38888  -0.36007   0.70214
   0.38888  -0.36007   0.70214
   0.38888  -0.36007   0.94156
   0.14946  -0.36007   0.94156
   0.14946  -0.36007   1.18098
  -0.08996  -0.36007   1.18098
  -0.08996  -0.36007   0.94156
  -0.32938  -0.36007   0.94156
  -0.32938  -0.36007   0.94156
  -0.32938  -0.36007   0.94156
  -0.32938  -0.36007   0.94156
  -0.56880  -0.12065   0.94156
  -0.56880  -0.12065   0.94156
  -0.80822  -0.12065   0.94156
  -0.80822  -0.12065   0.94156
  -1.04764  -0.12065   0.94156
  -1.04764  -0.12065   0.94156
  -1.04764  -0.12065   0.94156
  -0.80822  -0.12065   0.70214
  -1.04764  -0.12065   0.70214
  -1.04764   0.11877   0.70214
  -1.52647   0.11877   0.70214
  -1.52647   0.11877   0.94156
  -1.28705   0.11877   0.94156
  -1.28705   0.11877   0.46272
  -1.28705   0.11877   0.22331
  -1.28705   0.35819  -0.01611
  -1.52647   0.11877   0.22331
  -1.76589   0.11877   0.22331
  -1.52647   0.11877   0.22331
  -1.28705   0.11877   0.22331
  -1.04764   0.11877  -0.01611
  -1.04764   0.35819  -0.25553
  -1.04764   0.35819  -0.49495
  -1.04764   0.35819  -0.49495
  -1.04764   0.35819  -0.49495
  -0.80822   0.35819  -0.49495
  -0.80822   0.35819  -0.73437
  -0.56880   0.35819  -0.73437
  -0.56880   0.35819  -0.97379
  -0.32938   0.35819  -1.21321
  -0.08996   0.35819  -1.21321
  -0.08996   0.35819  -1.21321
  -0.08996   0.11877  -0.97379
  -0.08996   0.11877  -1.21321
  -0.08996   0.35819  -1.21321
   0.14946   0.35819  -1.45263
   0.38888   0.35819  -1.69205
   0.38888   0.11877  -1.69205
   0.62830   0.11877  -1.69205
   0.86772  -0.12065  -1.69205
   0.86772   0.11877  -1.69205
   1.10713   0.35819  -1.93146
   1.10713   0.11877  -1.93146
