********************************************************************************
               CENTRO DE INSTRUMENTACION Y REGISTRO SISMICO  A.C.  
                       Coordinacion de Servicios Tecnicos
     Anaxagoras 814, Col. Narvarte, Benito Juarez, C.P. 03020 Mexico, D.F.
            Tels. 687 45 42/ 687 45  82             Fax. 669 25 12
********************************************************************************
ARCHIVO ESTANDAR DE ACELERACION:
VERSION DEL FORMATO                    : 2.0
NOMBRE DEL ARCHIVO                     : AU460301.221
FECHA Y HORA DE CREACION               : 19/JUL/04, 9:00
REF. CATALOGO ACELEROGRAMAS, SMIS 1996 : REGISTRO No.     /PAG.


================================================================================
DATOS DE LA ESTACION:
NOMBRE DE LA ESTACION                  : ANGEL URRAZA
CLAVE DE LA ESTACION                   : AU46
LOCALIZACION DE LA ESTACION            : Esc Sec Tec # 14, 5 de Mayo Av
                                       : Coyoacan y Angel Urraza, Col de
                                       : Valle, Benito Juarez
                                       :
                                       :
COORDENADAS DE LA ESTACION             : 19.383 LAT. N 
                                       : 99.168 LONG. W 
ALTITUD (msnm)                         : 2233
TIPO DE SUELO                          : TRANSICION
                                       : 
                                       : 
INSTITUCION RESPONSABLE                : CIRES
                                       :

================================================================================
DATOS DEL ACELEROGRAFO:
MODELO DEL ACELEROGRAFO                : RAD-851
NUMERO DE SERIE DEL ACELEROGRAFO       : 236
NUMERO DE CANALES                      : 3
ORIENTACION C1-C6 (rumbo;orientacion)  : /N00E/+V/N90W
ORIENTACION C7-C12 (rumbo;orientacion) :
VEL. DE MUESTREO, C1-C6 (muestras/s)   : /100/100/100
VEL. DE MUESTREO, C7-C12 (muestras/s)  :
ESC. COMPLETA DE SENSORES, C1-C6, (g)  : /0.5/0.5/0.5
ESC. COMPLETA DE SENSORES, C7-C12, (g) :
FREC. NAT. DE SENSORES, C1-C6, (Hz)    : /33/30/30
FREC. NAT. DE SENSORES, C7-C12, (Hz)   :
AMORTIGUAMIENTO DE SENSORES, C1-C6     : /0.735/0.733/0.730
AMORTIGUAMIENTO DE SENSORES, C7-C12    :
INTERVALO DE MUESTREO, C1-C6, (s)      : /0.01/0.01/0.01
INTERVALO DE MUESTREO, C7-C12, (s)     :
UMBRAL DE DISPARO, C1-C6, (Gal)        : /1.71/2.44/1.71
UMBRAL DE DISPARO, C7-C12, (Gal)       :
MEMORIA DE PREEVENTO (s)               : 24
TIEMPO DE POSEVENTO (s)                : 64


================================================================================
DATOS DEL SISMO:
FECHA DEL SISMO (GMT)                  : 22/ENE/03
HORA EPICENTRO (GMT)                   : 02:06:34:5
MAGNITUD(ES)                           : /Mb=6.5/Ms=7.6/Mc=0.0/Ma=7.2/Me=7.6
COORDENADAS DEL EPICENTRO              : 18.60 LAT. N
                                       : 104.22 LONG. W
PROFUNDIDAD FOCAL (km)                 : 9.0
FUENTE DE LOS DATOS EPICENTRALES       : SSN
                                       : INSTITUTO DE GEOFISICA, UNAM

================================================================================
DATOS DE ESTE REGISTRO:
HORA DE LA PRIMERA MUESTRA (GMT)       : 02:09:08.00
EXACTITUD DEL TIEMPO (s)               : 0.01
DURACION DEL REGISTRO (s), C1-C6       : /136.75/136.75/136.75
DURACION DEL REGISTRO (s), C7-C12      :
NUM. TOTAL DE MUESTRAS, C1-C6          : /13675/13675/13675
NUM. TOTAL DE MUESTRAS, C7-C12         :
ACEL. MAX. (Gal), C1-C6                : /7.88764/2.19751/7.50224
ACEL. MAX., C1-C6, EN LA MUESTRA       :
ACEL. MAX. (Gal), C7-C12               :
ACEL. MAX., C7-C12, EN LA MUESTRA      :
UNIDADES DE LOS DATOS                  : Gal (cm/s/s)
FACTOR DE DECIMACION                   : 1
FORMATO DATOS (FORTRAN,10 campos/dato) : 3F10.5


================================================================================
CALIDAD DEL ACELEROGRAMA:
REGISTRO DIGITAL COMPLETO CON TIEMPO ABSOLUTO CORRECTO.


================================================================================
COMENTARIOS:














================================================================================
DATOS DE ACELERACION:
---------+---------+---------+---------+---------+---------+---------+---------+
   CANAL-1   CANAL-2   CANAL-3   CANAL-4   CANAL-5   CANAL-6   CANAL-7   CANAL-8
      N00E        +V      N90W
---------+---------+---------+---------+---------+---------+---------+---------+
[...]
  -0.49202   0.04274   0.55909
  -0.97086   0.28216   0.31967
  -1.21028   0.28216   0.31967
  -1.44970   0.04274   0.31967
  -1.92853   0.28216   0.31967
  -2.16795   0.28216   0.08026
  -2.16795   0.28216   0.08026
  -2.88621   0.28216  -0.15916
  -3.12563   0.28216  -0.39858
  -3.36505   0.28216  -0.39858
  -3.60447   0.28216  -0.63800
  -3.84389   0.28216  -0.63800
  -4.32272   0.28216  -0.63800
  -4.32272   0.28216  -0.87742
  -4.56214   0.28216  -1.11684
  -4.80156   0.28216  -1.11684
  -5.04098   0.04274  -1.35626
  -5.28040   0.04274  -1.59568
  -5.51982   0.28216  -1.59568
  -5.51982   0.28216  -1.59568
  -5.51982   0.04274  -1.83510
  -5.75924  -0.19668  -2.07451
  -5.75924  -0.19668  -1.83510
  -5.99866   0.04274  -2.07451
  -5.99866  -0.19668  -2.07451
  -5.99866  -0.43610  -2.07451
  -5.99866  -0.43610  -2.07451
  -5.99866  -0.43610  -2.07451
  -5.51982  -0.43610  -2.31393
  -5.51982  -0.43610  -1.83510
  -5.51982  -0.19668  -2.07451
  -5.28040  -0.43610  -2.07451
  -5.04098  -0.43610  -1.83510
  -5.04098  -0.19668  -2.07451
  -5.04098  -0.43610  -1.83510
  -4.80156  -0.19668  -1.59568
  -4.56214  -0.43610  -1.35626
  -4.56214  -0.67552  -1.35626
  -4.08331  -0.43610  -1.35626
  -4.32272  -0.43610  -1.11684
  -3.84389  -0.67552  -0.87742
  -3.60447  -0.43610  -0.87742
  -3.60447  -0.43610  -0.63800
  -3.36505  -0.43610  -0.39858
  -2.88621  -0.43610  -0.39858
  -2.64679  -0.19668  -0.39858
  -2.64679  -0.43610  -0.39858
  -2.40737  -0.67552  -0.15916
  -1.92853  -0.67552  -0.15916
  -1.92853  -0.43610  -0.15916
  -1.44970  -0.67552   0.08026
  -1.44970  -0.43610   0.31967
  -1.21028  -0.43610   0.31967
  -0.73144  -0.67552   0.08026
  -0.73144  -0.43610   0.08026
  -0.49202  -0.67552   0.31967
  -0.25260  -0.67552   0.31967
  -0.25260  -0.43610   0.08026
  -0.01318  -0.67552   0.08026
  -0.01318  -0.67552   0.08026
   0.22624  -0.67552   0.31967
   0.22624  -0.43610   0.08026
   0.22624  -0.43610   0.08026
   0.22624  -0.43610   0.08026
   0.46565  -0.67552  -0.15916
   0.46565  -0.43610   0.08026
   0.46565  -0.43610   0.08026
   0.46565  -0.43610  -0.15916
   0.46565  -0.43610   0.08026
   0.46565  -0.19668   0.08026
   0.46565  -0.43610   0.08026
   0.46565  -0.67552   0.08026
   0.46565  -0.43610   0.31967
   0.46565  -0.43610   0.08026
   0.46565  -0.19668   0.08026
   0.22624  -0.43610   0.08026
   0.22624  -0.43610   0.08026
  -0.01318  -0.43610   0.08026
   0.46565  -0.43610   0.08026
   0.22624  -0.19668   0.08026
  -0.01318  -0.43610   0.08026
  -0.25260  -0.43610   0.08026
  -0.25260  -0.19668   0.08026
  -0.25260  -0.19668  -0.39858
  -0.49202  -0.43610  -0.15916
  -0.73144  -0.43610  -0.15916
  -0.73144  -0.43610  -0.39858
  -0.73144  -0.43610  -0.39858
  -0.97086  -0.43610  -0.15916
  -1.21028  -0.43610  -0.39858
  -1.21028  -0.43610  -0.15916
  -1.44970  -0.43610  -0.39858
  -1.44970  -0.43610  -0.39858
  -1.68912  -0.43610  -0.39858
  -1.92853  -0.43610  -0.15916
  -1.92853  -0.43610  -0.15916
  -1.92853  -0.43610  -0.39858
  -2.16795  -0.43610  -0.15916
  -2.16795  -0.43610   0.08026
  -2.16795  -0.43610   0.08026
  -2.16795  -0.19668   0.31967
  -2.40737  -0.43610   0.08026
  -2.40737  -0.43610   0.08026
  -2.16795  -0.67552   0.31967
  -2.40737  -0.67552   0.31967
  -2.64679  -0.43610   0.55909
  -2.40737  -0.19668   0.55909
  -2.40737  -0.43610   0.55909
  -2.40737  -0.43610   0.79851
  -2.16795  -0.43610   0.79851
  -2.16795  -0.43610   0.79851
  -2.16795  -0.19668   1.03793
  -2.16795  -0.19668   1.27735
  -2.16795  -0.19668   1.27735
  -2.16795   0.04274   1.51677
  -1.92853  -0.43610   1.51677
  -1.68912  -0.19668   1.75619
  -1.68912  -0.19668   1.75619
  -1.68912  -0.19668   1.99561
  -1.68912  -0.19668   2.23503
  -1.44970  -0.19668   2.23503
  -1.44970  -0.19668   2.23503
  -1.44970  -0.43610   2.71386
  -1.21028  -0.43610   2.71386
  -1.21028  -0.43610   2.95328
  -0.97086  -0.19668   3.19270
  -0.97086  -0.19668   3.19270
  -0.97086  -0.43610   3.19270
  -0.97086  -0.43610   3.43212
  -0.73144  -0.43610   3.43212
  -0.73144  -0.43610   3.67154
  -0.49202  -0.43610   3.91096
  -0.73144  -0.43610   3.91096
  -0.49202  -0.43610   3.91096
  -0.73144  -0.43610   3.67154
  -0.73144  -0.19668   3.67154
  -0.49202  -0.43610   3.67154
  -0.49202  -0.19668   3.67154
  -0.73144  -0.19668   3.43212
  -0.73144  -0.19668   3.43212
  -0.73144  -0.19668   3.19270
  -0.49202  -0.43610   2.95328
  -0.73144  -0.19668   2.95328
  -0.73144  -0.19668   2.71386
  -0.49202  -0.19668   2.23503
  -0.73144  -0.19668   2.23503
  -0.49202  -0.19668   1.75619
  -0.49202  -0.19668   1.51677
  -0.49202  -0.19668   1.27735
  -0.49202  -0.19668   1.27735
  -0.25260   0.04274   1.03793
  -0.25260   0.04274   0.31967
  -0.25260   0.04274   0.08026
  -0.25260   0.04274  -0.15916
  -0.25260   0.04274  -0.39858
  -0.01318   0.04274  -0.87742
  -0.01318   0.04274  -0.87742
  -0.01318   0.28216  -1.35626
   0.22624   0.04274  -1.83510
  -0.01318   0.04274  -2.07451
  -0.01318  -0.19668  -2.31393
   0.22624  -0.19668  -2.55335
   0.46565  -0.19668  -2.55335
   0.46565   0.04274  -3.03219
   0.46565  -0.19668  -3.27161
   0.46565  -0.19668  -3.27161
   0.70507  -0.19668  -3.51103
   0.94449  -0.43610  -3.75045
   0.94449  -0.19668  -3.51103
   1.18391  -0.43610  -3.75045
   1.18391  -0.43610  -3.98987
   1.18391  -0.67552  -3.98987
   1.42333  -0.43610  -4.22929
   1.66275  -0.43610  -4.22929
   1.90217  -0.67552  -4.22929
   1.90217  -0.91494  -4.46870
   2.14159  -0.91494  -4.46870
   2.14159  -0.91494  -4.22929
   2.38101  -0.91494  -4.22929
   2.38101  -1.15436  -4.22929
   2.62043  -1.15436  -3.98987
   2.62043  -1.39378  -3.98987
   2.62043  -1.39378  -3.75045
   2.62043  -1.15436  -3.51103
   2.85984  -1.39378  -3.27161
   2.62043  -1.39378  -3.03219
   2.62043  -1.39378  -2.79277
   2.85984  -1.39378  -2.55335
   2.62043  -1.39378  -2.31393
   2.62043  -1.15436  -1.83510
   2.62043  -1.39378  -1.59568
   2.38101  -1.15436  -1.35626
   2.14159  -1.15436  -0.87742
   2.14159  -1.15436  -0.87742
   1.90217  -1.15436  -0.39858
   1.66275  -0.91494  -0.39858
   1.66275  -0.91494   0.08026
   1.42333  -0.91494   0.31967
   1.18391  -0.91494   0.55909
   0.94449  -0.91494   0.79851
   0.70507  -0.91494   1.03793
   0.46565  -0.67552   1.27735
   0.46565  -0.67552   1.51677
   0.22624  -0.91494   1.75619
   0.22624  -0.67552   1.99561
  -0.01318  -0.43610   2.23503
  -0.25260  -0.43610   2.47445
  -0.25260  -0.67552   2.47445
  -0.49202  -0.43610   2.47445
  -0.49202  -0.43610   2.95328
  -0.73144  -0.43610   3.19270
  -0.73144  -0.43610   2.95328
  -0.73144  -0.43610   3.19270
  -0.73144  -0.43610   3.19270
  -0.97086  -0.19668   2.95328
  -0.73144  -0.43610   2.95328
  -0.97086  -0.43610   2.95328
  -0.97086  -0.43610   2.95328
  -0.73144  -0.43610   2.95328
  -0.73144  -0.43610   2.95328
  -0.97086  -0.43610   2.95328
  -0.97086  -0.43610   2.71386
  -0.73144  -0.43610   2.71386
  -0.49202  -0.67552   2.47445
  -0.49202  -0.67552   2.23503
  -0.25260  -0.91494   2.23503
  -0.25260  -0.91494   1.99561
  -0.01318  -0.91494   1.99561
  -0.01318  -0.91494   1.99561
   0.22624  -0.91494   1.75619
   0.46565  -0.91494   1.51677
   0.22624  -1.15436   1.27735
   0.70507  -1.15436   1.03793
   0.70507  -0.91494   1.27735
   0.94449  -1.15436   1.03793
   0.94449  -0.91494   0.79851
   1.18391  -0.91494   0.55909
   1.42333  -1.15436   0.31967
   1.42333  -1.15436   0.31967
   1.42333  -0.91494   0.31967
   1.66275  -1.15436   0.08026
   1.66275  -1.15436   0.08026
   1.90217  -1.15436  -0.39858
   1.66275  -0.91494  -0.39858
   2.14159  -0.91494  -0.39858
   1.90217  -0.91494  -0.39858
   1.90217  -0.91494  -0.63800
   1.90217  -0.91494  -0.63800
   1.90217  -0.67552  -0.63800
   1.90217  -0.67552  -0.87742
   1.90217  -0.67552  -0.63800
   1.90217  -0.67552  -0.63800
   1.90217  -0.43610  -0.63800
   1.66275  -0.67552  -0.87742
   1.66275  -0.67552  -0.63800
   1.42333  -0.43610  -0.63800
   1.42333  -0.19668  -0.87742
   1.18391  -0.43610  -0.63800
   0.94449  -0.43610  -0.63800
   1.18391  -0.19668  -0.87742
   0.94449  -0.19668  -0.87742
   0.70507  -0.43610  -0.87742
   0.46565  -0.43610  -0.87742
   0.46565  -0.19668  -0.87742
   0.22624   0.04274  -0.87742
   0.46565   0.04274  -0.87742
  -0.01318   0.04274  -0.63800
  -0.25260   0.04274  -0.87742
  -0.25260   0.04274  -0.63800
  -0.25260   0.28216  -0.63800
  -0.49202   0.28216  -0.63800
  -0.49202   0.28216  -0.39858
  -0.97086   0.28216  -0.39858
  -0.73144   0.28216  -0.63800
  -0.97086   0.52157  -0.39858
  -0.97086   0.52157  -0.39858
  -1.21028   0.52157  -0.15916
  -1.21028   0.52157  -0.15916
  -1.21028   0.52157  -0.15916
  -1.21028   0.52157   0.08026
  -1.44970   0.52157   0.08026
  -1.21028   0.52157  -0.15916
  -1.44970   0.52157   0.08026
  -1.21028   0.52157   0.31967
  -1.21028   0.76099   0.31967
  -1.44970   0.52157   0.55909
  -1.44970   0.52157   0.31967
  -1.68912   0.52157   0.55909
  -1.68912   0.52157   0.55909
  -1.68912   0.52157   0.79851
  -1.92853   0.76099   1.03793
  -2.16795   0.76099   0.79851
  -2.16795   0.76099   0.79851
  -2.40737   0.76099   1.03793
  -2.40737   0.76099   1.03793
  -2.40737   0.76099   1.27735
  -2.40737   0.76099   1.51677
  -2.64679   0.76099   1.27735
  -2.88621   0.76099   1.03793
  -2.88621   0.76099   1.27735
  -2.88621   0.76099   1.51677
  -3.12563   1.00041   1.51677
  -3.12563   1.00041   1.51677
  -3.36505   1.00041   1.51677
  -3.12563   1.00041   1.27735
  -3.36505   1.23983   1.27735
  -3.36505   1.23983   1.27735
  -3.36505   1.47925   1.27735
  -3.12563   1.23983   1.27735
  -3.12563   1.47925   1.03793
  -3.12563   1.47925   1.03793
  -3.12563   1.47925   1.03793
  -2.64679   1.71867   0.79851
  -2.88621   1.71867   0.79851
  -2.64679   1.71867   0.55909
  -2.40737   1.71867   0.31967
  -2.16795   1.95809   0.31967
  -1.92853   1.95809   0.31967
  -1.92853   1.95809   0.08026
  -1.44970   2.19751  -0.15916
  -0.97086   1.95809  -0.39858
  -0.73144   1.95809  -0.63800
  -0.49202   1.95809  -0.87742
  -0.01318   1.95809  -0.87742
   0.22624   1.95809  -1.35626
   0.70507   2.19751  -1.35626
   1.18391   2.19751  -1.59568
   1.42333   1.95809  -1.83510
   1.90217   1.71867  -2.31393
   2.38101   1.95809  -2.31393
   2.85984   1.71867  -2.55335
   3.33868   1.47925  -3.03219
   3.33868   1.71867  -3.03219
   3.81752   1.47925  -3.51103
   4.05694   1.47925  -3.51103
   4.53578   1.47925  -3.75045
   4.77520   1.47925  -3.75045
   5.49345   1.23983  -3.98987
   5.49345   1.23983  -3.98987
   5.73287   1.23983  -4.22929
   6.21171   1.23983  -4.22929
   6.45113   1.00041  -4.22929
   6.69055   1.00041  -4.22929
   6.92997   1.00041  -4.22929
   7.16938   0.76099  -4.46870
   7.16938   0.76099  -4.46870
   7.40880   0.52157  -4.46870
   7.40880   0.76099  -4.22929
   7.64822   0.52157  -4.22929
   7.88764   0.52157  -4.22929
   7.64822   0.52157  -4.22929
   7.64822   0.28216  -4.22929
   7.64822   0.28216  -4.22929
   7.64822   0.28216  -3.98987
   7.40880   0.28216  -3.98987
   7.40880   0.04274  -3.75045
   7.16938   0.04274  -3.75045
   6.92997  -0.19668  -3.75045
   6.45113  -0.19668  -3.51103
   6.45113  -0.19668  -3.27161
   5.97229  -0.19668  -3.03219
   5.73287  -0.19668  -3.03219
   5.25403  -0.19668  -2.79277
   5.01461  -0.43610  -2.55335
   4.53578  -0.43610  -2.31393
   4.05694  -0.19668  -2.07451
   3.81752  -0.43610  -1.83510
   3.33868  -0.43610  -1.35626
   2.85984  -0.67552  -1.35626
   2.38101  -0.67552  -1.11684
   2.14159  -0.67552  -0.63800
   1.66275  -0.67552  -0.39858
   1.18391  -0.67552  -0.15916
   0.94449  -0.67552   0.31967
   0.70507  -0.91494   0.31967
  -0.01318  -0.67552   0.79851
  -0.25260  -0.67552   1.03793
  -0.49202  -0.91494   1.27735
  -0.73144  -0.91494   1.51677
  -0.97086  -0.91494   1.75619
  -1.21028  -0.67552   1.99561
  -1.68912  -0.67552   1.99561
  -1.92853  -0.91494   1.99561
  -2.16795  -0.91494   2.23503
  -2.16795  -0.67552   2.47445
  -2.16795  -0.67552   2.23503
  -2.40737  -0.91494   2.47445
  -2.16795  -0.91494   2.47445
  -2.64679  -0.67552   2.47445
  -2.64679  -0.43610   2.47445
  -2.64679  -0.67552   2.47445
  -2.64679  -0.67552   2.47445
  -2.88621  -0.67552   2.47445
  -2.64679  -0.67552   2.23503
  -2.64679  -0.67552   2.23503
  -2.64679  -0.43610   1.99561
  -2.88621  -0.43610   1.99561
  -2.64679  -0.67552   1.75619
  -2.64679  -0.67552   1.75619
  -2.40737  -0.67552   1.51677
  -2.40737  -0.67552   1.27735
  -2.40737  -0.67552   1.27735
  -2.40737  -0.67552   1.03793
  -2.16795  -0.67552   1.03793
  -1.92853  -0.67552   1.03793
  -1.68912  -0.67552   0.79851
  -1.44970  -0.67552   0.55909
  -1.21028  -0.67552   0.79851
  -1.21028  -0.67552   0.79851
  -0.73144  -0.67552   0.79851
  -0.73144  -0.67552   0.79851
  -0.25260  -0.91494   0.79851
  -0.01318  -0.91494   0.79851
  -0.01318  -1.15436   0.79851
   0.46565  -0.91494   0.79851
   0.70507  -0.91494   1.03793
   1.42333  -0.91494   0.79851
   1.42333  -1.15436   1.03793
   1.66275  -1.15436   1.03793
   1.90217  -1.15436   1.27735
   2.14159  -0.91494   1.51677
   2.38101  -1.39378   1.51677
   2.38101  -0.91494   1.75619
   2.62043  -1.15436   1.75619
   2.85984  -1.15436   1.75619
   2.85984  -1.15436   1.75619
   3.33868  -1.15436   1.75619
   3.33868  -1.15436   1.99561
   3.57810  -1.39378   1.99561
   3.81752  -1.15436   1.99561
   3.57810  -1.15436   1.99561
   3.81752  -1.15436   1.99561
   3.81752  -1.15436   1.99561
   3.81752  -1.15436   1.99561
   3.81752  -1.15436   1.99561
   3.57810  -0.91494   2.23503
   3.57810  -0.91494   1.75619
   3.33868  -0.91494   1.75619
   3.09926  -0.67552   1.75619
   3.09926  -0.91494   1.51677
   2.85984  -0.67552   1.51677
   2.62043  -0.67552   1.27735
   2.38101  -0.67552   1.03793
   1.90217  -0.43610   0.79851
   1.90217  -0.43610   0.55909
   1.66275  -0.43610   0.55909
   1.42333  -0.43610   0.31967
   1.18391  -0.19668   0.08026
   0.94449  -0.19668   0.08026
   0.46565  -0.19668  -0.15916
  -0.01318  -0.19668  -0.39858
  -0.25260   0.04274  -0.39858
  -0.49202  -0.19668  -0.63800
  -0.73144  -0.19668  -0.87742
  -1.44970   0.04274  -0.87742
  -1.68912   0.04274  -1.11684
  -1.92853   0.04274  -1.35626
  -2.40737   0.04274  -1.35626
  -2.64679   0.04274  -1.59568
  -2.64679   0.04274  -1.59568
  -3.12563   0.04274  -1.59568
  -3.36505   0.28216  -1.59568
  -3.60447   0.28216  -1.59568
  -3.84389   0.28216  -1.83510
  -4.08331   0.28216  -2.07451
  -4.32272   0.28216  -1.83510
  -4.32272   0.28216  -1.83510
  -4.56214   0.28216  -1.83510
  -4.80156   0.28216  -1.83510
  -5.28040   0.52157  -1.83510
  -5.28040   0.52157  -1.59568
  -5.28040   0.52157  -1.35626
  -5.51982   0.52157  -1.35626
  -5.51982   0.28216  -1.35626
  -5.75924   0.52157  -0.87742
  -5.75924   0.52157  -1.11684
  -5.99866   0.52157  -0.87742
  -5.99866   0.52157  -0.63800
  -5.99866   0.52157  -0.63800
  -5.99866   0.52157  -0.39858
  -5.99866   0.52157  -0.15916
  -5.75924   0.52157  -0.15916
  -5.75924   0.52157   0.08026
  -5.99866   0.52157   0.31967
  -5.75924   0.52157   0.55909
  -5.51982   0.76099   0.55909
  -5.75924   0.76099   0.79851
  -5.28040   0.52157   1.03793
  -5.04098   0.52157   1.27735
  -5.04098   0.52157   1.51677
  -4.80156   0.52157   1.51677
  -4.80156   0.28216   1.75619
  -4.32272   0.52157   1.99561
  -4.32272   0.52157   2.23503
  -4.08331   0.28216   2.23503
  -3.84389   0.52157   2.47445
  -3.60447   0.52157   2.71386
  -3.36505   0.52157   2.71386
  -3.12563   0.28216   2.95328
