********************************************************************************
               CENTRO DE INSTRUMENTACION Y REGISTRO SISMICO  A.C.  
                       Coordinacion de Servicios Tecnicos
     Anaxagoras 814, Col. Narvarte, Benito Juarez, C.P. 03020 Mexico, D.F.
            Tels. 687 45 42/ 687 45  82             Fax. 669 25 12
********************************************************************************
ARCHIVO ESTANDAR DE ACELERACION:
VERSION DEL FORMATO                    : 2.0
NOMBRE DEL ARCHIVO                     : AU469412.101
FECHA Y HORA DE CREACION               : 22 de enero 1996/17:19
REF. CATALOGO ACELEROGRAMAS, SMIS 1995 : REGISTRO No.     /PAG.


================================================================================
DATOS DE LA ESTACION:
NOMBRE DE LA ESTACION                  : ANGEL URRAZA
CLAVE DE LA ESTACION                   : AU46
LOCALIZACION DE LA ESTACION            : Esc Sec Tec # 14, 5 de Mayo Av
                                       : Coyoacan y Angel Urraza, Col de
                                       : Valle, Benito Juarez
                                       :
                                       :
COORDENADAS DE LA ESTACION             : 19.383 LAT. N 
                                       : 99.168 LONG. W 
ALTITUD (msnm)                         : 2233
TIPO DE SUELO                          : TRANSICION
                                       : 
                                       : 
INSTITUCION RESPONSABLE                : CIRES
                                       :

================================================================================
DATOS DEL ACELEROGRAFO:
MODELO DEL ACELEROGRAFO                : DCA-333
NUMERO DE SERIE DEL ACELEROGRAFO       : 236
NUMERO DE CANALES                      : 3
ORIENTACION C1-C6 (rumbo;orientacion)  : /N00E/+V/N90W
ORIENTACION C7-C12 (rumbo;orientacion) :
VEL. DE MUESTREO, C1-C6 (muestras/s)   : /100/100/100
VEL. DE MUESTREO, C7-C12 (muestras/s)  :
ESC. COMPLETA DE SENSORES, C1-C6, (g)  : /0.5/0.5/0.5
ESC. COMPLETA DE SENSORES, C7-C12, (g) :
FREC. NAT. DE SENSORES, C1-C6, (Hz)    : /33/30/30
FREC. NAT. DE SENSORES, C7-C12, (Hz)   :
AMORTIGUAMIENTO DE SENSORES, C1-C6     : /0.735/0.733/0.730
AMORTIGUAMIENTO DE SENSORES, C7-C12    :
INTERVALO DE MUESTREO, C1-C6, (s)      : /0.01/0.01/0.01
INTERVALO DE MUESTREO, C7-C12, (s)     :
UMBRAL DE DISPARO, C1-C6, (Gal)        : /1.5/1.5/1.5
UMBRAL DE DISPARO, C7-C12, (Gal)       :
MEMORIA DE PREEVENTO (s)               : 4
TIEMPO DE POSEVENTO (s)                : 15


================================================================================
DATOS DEL SISMO:
FECHA DEL SISMO (GMT)                  : 10/DIC/94
HORA EPICENTRO (GMT)                   : 16:46:46,0
MAGNITUD(ES)                           : /Mc=6.30
COORDENADAS DEL EPICENTRO              : 18.020 LAT. N 
                                       : 101.560 LONG. W
PROFUNDIDAD FOCAL (km)                 : 78 
FUENTE DE LOS DATOS EPICENTRALES       : SSN
                                       : INSTITUTO DE GEOFISICA, UNAM

================================================================================
DATOS DE ESTE REGISTRO:
HORA DE LA PRIMERA MUESTRA (GMT)       : 16:18:41.93
EXACTITUD DEL TIEMPO (s)               : 0.01
DURACION DEL REGISTRO (s), C1-C6       : /104.04/104.04/104.04
DURACION DEL REGISTRO (s), C7-C12      :
NUM. TOTAL DE MUESTRAS, C1-C6          : /10404/10404/10404
NUM. TOTAL DE MUESTRAS, C7-C12         :
ACEL. MAX. (Gal), C1-C6                : /7.53/2.59/7.71
ACEL. MAX., C1-C6, EN LA MUESTRA       :
ACEL. MAX. (Gal), C7-C12               :
ACEL. MAX., C7-C12, EN LA MUESTRA      :
UNIDADES DE LOS DATOS                  : Gal (cm/s/s)
FACTOR DE DECIMACION                   : 1
FORMATO DATOS (FORTRAN,10 campos/dato) : 3F10.2


================================================================================
CALIDAD DEL ACELEROGRAMA:
REGISTRO DIGITAL COMPLETO, CON TIEMPO ABSOLUTO CORRECTO.


================================================================================
COMENTARIOS:














================================================================================
DATOS DE ACELERACION:
---------+---------+---------+---------+---------+---------+---------+---------+
   CANAL-1   CANAL-2   CANAL-3   CANAL-4   CANAL-5   CANAL-6   CANAL-7   CANAL-8
		N00E        +V      N90W
---------+---------+---------+---------+---------+---------+---------+---------+
[...]
      2.05     -2.44     -1.24
      1.81     -2.20     -1.00
      1.57     -1.72     -1.24
      0.85     -1.48     -1.72
      0.14     -1.48     -1.72
     -0.34     -1.00     -1.48
     -0.34     -0.52     -1.72
     -0.58     -0.04     -2.20
     -1.06     -0.04     -2.20
     -1.54      0.20     -1.96
     -1.30      0.20     -2.20
     -1.54     -0.04     -2.44
     -2.26      0.20     -2.44
     -2.02      0.44     -2.20
     -1.78      0.20     -1.96
     -2.02      0.44     -1.96
     -2.50      0.20     -1.96
     -2.26      0.20     -1.72
     -2.02      0.44     -1.72
     -2.50      0.68     -1.96
     -2.98      0.68     -2.44
     -2.50      0.44     -2.44
     -2.26      0.68     -2.44
     -2.26      0.92     -2.68
     -2.50      0.92     -2.68
     -2.74      0.68     -2.92
     -2.50      0.44     -2.92
     -2.02      0.20     -2.68
     -2.02      0.20     -2.44
     -2.26     -0.04     -2.44
     -2.26     -0.28     -2.20
     -2.02     -0.52     -1.96
     -1.78     -0.28     -1.72
     -1.54     -0.04     -1.96
     -1.78     -0.04     -1.96
     -2.02     -0.04     -2.20
     -2.02     -0.04     -2.20
     -1.78     -0.04     -2.44
     -1.30      0.20     -2.44
     -1.30     -0.04     -2.44
     -1.54     -0.28     -2.20
     -1.30     -0.52     -1.96
     -1.06     -0.28     -1.24
     -1.06     -0.52     -1.00
     -0.82     -0.52     -0.53
     -0.82     -0.52     -0.05
     -1.30     -1.00     -0.05
     -1.30     -0.76      0.19
     -0.82     -0.28      0.67
     -1.06     -0.04      1.15
     -1.78     -0.28      1.15
     -1.78     -0.28      1.15
     -1.30      0.20      1.39
     -1.06      0.44      1.63
     -1.54      0.44      1.39
     -1.54      0.20      1.39
     -1.30      0.20      1.39
     -1.06      0.68      1.15
     -1.54      0.68      0.91
     -1.54      0.44      1.15
     -1.30      0.44      1.39
     -0.82      0.44      1.63
     -0.82      0.20      1.63
     -1.06     -0.04      1.87
     -0.82     -0.28      2.35
     -0.34     -0.52      2.59
     -0.10     -0.52      2.83
     -0.10     -0.76      2.83
      0.14     -1.00      3.07
      0.14     -1.24      3.07
      0.37     -1.24      2.83
      0.61     -1.24      2.83
      0.85     -1.24      2.59
      1.09     -1.24      2.59
      1.09     -1.24      2.11
      1.33     -0.76      1.87
      1.33     -0.52      2.11
      1.57     -0.52      1.87
      2.05     -0.28      2.11
      2.29     -0.04      2.35
      2.05      0.20      2.35
      2.05     -0.04      2.35
      2.53      0.20      2.59
      3.25      0.44      2.83
      3.73      0.68      2.83
      3.73      0.68      2.59
      3.73      0.44      2.59
      4.21      0.68      2.35
      4.92      1.15      2.35
      5.16      1.15      2.11
      5.16      1.15      1.87
      5.16      0.92      1.87
      5.40      0.92      1.63
      5.88      0.92      1.63
      5.64      1.15      1.39
      5.64      0.44      1.15
      6.36      0.44      1.15
      6.12      0.44      0.91
      5.64      0.20      0.43
      5.64     -0.28      0.19
      6.36     -0.28      0.19
      6.60     -0.28      0.19
      6.12     -0.52     -0.29
      5.40     -1.00     -0.29
      5.64     -1.00     -0.29
      6.12     -0.76     -0.29
      5.40     -0.52     -0.53
      4.44     -0.76     -0.77
      4.21     -0.76     -0.77
      3.97     -0.76     -0.77
      3.25     -0.52     -1.24
      2.29     -0.52     -1.24
      1.33     -0.52     -1.48
      0.61     -0.52     -1.72
      0.14     -0.52     -1.96
     -0.34     -0.28     -1.96
     -0.82     -0.28     -2.20
     -1.06     -0.28     -2.20
     -1.54     -0.52     -2.20
     -2.02     -0.28     -2.20
     -2.26     -0.04     -2.20
     -2.74     -0.04     -2.44
     -3.22     -0.04     -2.68
     -3.70      0.20     -2.68
     -3.93      0.44     -2.68
     -4.41      0.44     -2.92
     -5.37      0.44     -2.68
     -5.85      0.20     -2.44
     -6.09      0.44     -2.20
     -6.33      0.44     -1.72
     -6.57      0.44     -1.48
     -7.05      0.44     -1.48
     -7.29      0.44     -1.48
     -7.05      0.44     -1.24
     -6.81      0.68     -1.00
     -7.29      0.44     -1.00
     -7.29      0.20     -1.00
     -6.57      0.20     -0.77
     -6.09      0.44     -0.53
     -6.33      0.44     -0.53
     -6.33      0.20     -0.29
     -5.85      0.20     -0.05
     -5.37      0.20      0.19
     -4.89      0.44      0.19
     -4.65      0.68      0.43
     -4.41      0.92      0.67
     -4.17      0.92      0.67
     -3.70      0.92      0.43
     -3.22      1.15      0.67
     -2.98      1.39      0.91
     -2.74      1.63      0.91
     -2.26      1.39      0.91
     -2.02      1.39      1.15
     -1.78      1.63      1.39
     -1.30      1.63      1.87
     -1.06      1.39      2.35
     -0.82      1.15      2.83
     -0.58      1.15      3.07
     -0.34      0.92      3.54
     -0.10      0.92      3.78
      0.14      0.68      3.78
      0.37      0.44      3.78
      0.61      0.44      3.78
      1.09      0.20      3.78
      1.33     -0.04      3.31
      1.57     -0.04      3.07
      1.81     -0.04      3.07
      1.81     -0.04      2.59
      2.77      0.20      2.35
      3.01      0.20      2.35
      2.05      0.20      2.35
      1.57     -0.04      2.11
      2.53      0.20      1.87
      3.01      0.92      1.87
      2.05      0.68      1.87
      1.33      0.44      1.87
      1.33      0.20      1.39
      1.57      0.44      0.67
      1.09      0.68      0.43
      0.37      0.20      0.43
      0.14     -0.28     -0.05
      0.14     -0.52     -0.29
      0.14     -0.52     -0.29
      0.14     -0.52     -0.29
     -0.10     -0.76     -0.29
     -0.10     -0.76     -0.53
     -0.58     -0.76     -0.53
     -0.82     -1.00     -0.53
     -1.30     -1.00     -1.00
     -1.54     -0.76     -1.24
     -1.78     -0.52     -1.48
     -2.26     -0.52     -1.72
     -2.50     -0.28     -2.20
     -2.74     -0.04     -2.44
     -2.98      0.20     -2.68
     -3.22     -0.04     -2.92
     -3.22     -0.04     -3.16
     -3.46      0.20     -3.16
     -3.70     -0.04     -3.40
     -3.93     -0.28     -3.16
     -3.93     -0.28     -3.16
     -3.93     -0.04     -2.68
     -3.93     -0.28     -2.44
     -4.17     -0.28     -2.20
     -4.17     -0.52     -1.72
     -4.17     -0.28     -1.48
     -3.46     -0.28     -1.48
     -3.22     -0.52     -1.48
     -3.22     -0.28     -1.00
     -4.41     -0.76     -0.77
     -3.22     -0.28     -1.48
     -1.78     -0.04     -1.24
     -2.98      0.20     -1.00
     -3.22     -0.04     -1.48
     -2.50     -0.28     -1.24
     -1.78      0.20     -1.24
     -1.30      0.68     -1.24
     -1.30      0.68     -0.77
     -0.82      0.68     -0.77
     -0.58      0.68     -1.00
      0.14      0.92     -0.53
      0.61      1.39     -0.29
      0.61      1.39     -0.29
      1.09      1.15     -0.05
      1.81      1.15      0.19
      2.05      0.92      0.43
      2.53      0.92      0.43
      3.25      0.92      0.67
      3.49      0.68      0.91
      3.97      0.20      1.15
      4.44      0.20      1.15
      4.92     -0.04      1.39
      4.92     -0.04      1.39
      5.16     -0.52      1.39
      5.40     -0.76      1.39
      5.88     -0.76      1.39
      6.12     -0.76      1.39
      6.36     -1.00      1.63
      6.60     -1.00      1.63
      6.84     -0.76      1.63
      6.60     -0.76      1.39
      6.60     -0.52      1.63
      6.36     -0.52      1.39
      6.36     -0.52      1.39
      6.12     -0.52      1.63
      6.12     -0.52      1.63
      5.88     -0.52      1.63
      5.64     -0.28      1.63
      5.40     -0.52      1.63
      5.16     -0.52      1.87
      5.16     -0.28      1.63
      4.92     -0.28      1.39
      4.68     -0.28      1.39
      4.21     -0.28      1.39
      3.97     -0.28      1.39
      3.73     -0.28      1.15
      3.49     -0.04      0.91
      3.25      0.20      0.67
      3.01      0.44      0.19
      2.77      0.68     -0.29
      2.29      0.92     -0.77
      1.81      1.15     -1.00
      1.33      1.15     -1.48
      0.85      1.39     -1.72
      0.14      1.39     -1.96
     -0.34      1.15     -1.96
     -0.58      1.15     -2.20
     -0.10      1.63     -2.20
     -1.54      1.15     -1.96
     -2.26      0.44     -1.72
     -1.30      0.68     -2.20
     -1.54      0.92     -2.20
     -2.50      0.68     -1.72
     -2.98      0.44     -1.72
     -2.74      0.20     -1.72
     -2.98      0.20     -1.72
     -2.98      0.20     -1.72
     -3.46     -0.04     -1.48
     -3.70     -0.28     -1.72
     -3.46     -0.28     -1.72
     -3.22     -0.28     -1.48
     -3.46     -0.52     -1.72
     -3.46     -0.76     -1.96
     -3.22     -0.76     -2.20
     -2.98     -0.76     -2.44
     -2.74     -0.76     -2.44
     -2.50     -1.00     -2.68
     -2.26     -0.76     -2.68
     -1.78     -0.76     -2.68
     -1.30     -0.76     -2.92
     -0.82     -0.76     -2.92
     -0.58     -0.52     -2.68
     -0.10     -0.52     -2.44
      0.14     -0.52     -2.20
      0.61     -0.52     -1.96
      1.09     -0.28     -1.96
      1.33     -0.28     -1.72
      1.81     -0.52     -1.48
      2.05     -0.28     -1.48
      2.29     -0.76     -1.24
      2.53     -0.76     -1.24
      2.77     -1.00     -1.00
      2.77     -1.00     -0.77
      3.01     -1.24     -0.77
      3.25     -1.24     -0.77
      3.25     -1.24     -0.77
      3.49     -1.00     -0.53
      3.73     -0.76     -0.29
      3.73     -0.76     -0.29
      3.73     -0.76     -0.05
      4.21     -0.52      0.19
      4.44     -0.04      0.43
      4.44      0.20      0.43
      4.21      0.20      0.43
      4.44      0.44      0.67
      4.68      0.68      0.67
      4.68      0.92      0.43
      4.44      1.15      0.67
      4.44      1.15      0.43
      4.44      1.39      0.43
      4.21      1.63      0.67
      3.97      1.39      0.91
      3.73      1.15      0.67
      3.49      1.15      0.67
      3.25      0.68      0.67
      2.77      0.68      0.91
      2.29      0.68      0.91
      1.81      0.20      0.67
      1.33     -0.04      0.43
      0.85     -0.04      0.19
      0.61     -0.28      0.19
      0.14     -0.28     -0.05
     -0.10     -0.28     -0.05
     -0.58     -0.52     -0.05
     -0.82     -0.76     -0.29
     -1.30     -0.76     -0.29
     -1.54     -0.76     -0.53
     -2.02     -0.76     -0.29
     -2.50     -0.76     -0.05
     -3.22     -0.76     -0.05
     -3.70     -1.00     -0.05
     -4.41     -1.24     -0.05
     -4.65     -1.00     -0.05
     -5.37     -1.00      0.19
     -6.33     -1.24      0.19
     -6.81     -1.48      0.43
     -6.57     -1.48      0.43
     -6.81     -1.48      0.67
     -7.29     -1.48      0.91
     -7.53     -1.72      1.15
     -7.29     -1.72      1.39
     -7.05     -1.72      1.39
     -7.29     -1.72      1.63
     -7.29     -2.20      1.87
     -7.29     -2.20      1.87
     -7.29     -2.20      2.11
     -7.29     -2.20      2.35
     -7.29     -1.96      2.59
     -7.29     -1.72      2.59
     -7.05     -1.48      2.83
     -7.05     -1.24      2.83
     -6.81     -1.00      3.07
     -6.57     -0.76      3.07
     -6.33     -0.52      3.31
     -6.33     -0.04      3.31
     -6.09      0.20      3.31
     -5.61      0.44      3.07
     -5.37      0.44      3.07
     -5.13      0.44      3.07
     -4.89      0.44      3.07
     -4.65      0.44      3.07
     -4.17      0.20      2.59
     -3.70     -0.04      2.11
     -3.46     -0.04      1.87
     -2.74     -0.28      1.87
     -2.02     -0.28      1.63
     -1.54     -0.04      1.39
     -1.30     -0.28      0.91
     -0.82     -0.52      0.67
     -0.10     -0.28      0.43
      0.37     -0.04      0.19
      0.61     -0.04     -0.29
      0.85     -0.04     -0.53
      1.09     -0.04     -1.00
      1.57      0.44     -1.24
      1.81      0.68     -1.72
      1.81      0.68     -1.96
      2.05      0.68     -2.20
      2.53      0.92     -2.44
      2.77      0.92     -2.44
      3.25      0.68     -2.44
      3.73      0.68     -2.44
      3.97      0.68     -2.20
      4.44      0.44     -2.20
      4.68      0.20     -1.96
      4.92     -0.04     -1.72
      5.16     -0.04     -1.72
      5.16     -0.28     -1.48
      5.16     -0.52     -1.48
      5.40     -0.52     -1.24
      5.64     -0.52     -1.24
      5.88     -0.76     -1.24
      5.88     -0.76     -1.24
      5.88     -0.76     -1.24
      5.88     -0.52     -1.24
      5.88     -0.52     -1.24
      5.64     -0.28     -1.00
      5.40     -0.28     -0.77
      5.16     -0.04     -0.53
      4.68      0.20     -0.05
      4.21      0.20      0.19
      3.49      0.44      0.67
      2.77      0.44      1.15
      2.05      0.44      1.63
      1.33      0.68      2.11
      0.37      0.68      2.59
     -0.34      0.68      3.07
     -1.06      0.68      3.54
     -1.78      0.68      3.78
     -2.50      0.68      3.78
     -3.22      0.68      4.26
     -3.46      0.92      4.50
     -3.93      1.15      4.50
     -4.41      0.68      4.26
     -4.89      0.68      4.50
     -4.89      0.68      4.50
     -4.89      0.68      4.50
     -5.37      0.68      4.50
     -5.85      0.68      4.26
     -5.85      0.68      4.26
     -5.85      0.92      3.78
     -6.09      0.92      3.78
     -6.09      1.15      3.54
     -6.33      1.39      3.54
     -6.33      1.39      3.31
     -6.33      1.39      3.07
     -6.57      1.63      2.59
     -6.57      1.63      2.35
     -6.57      1.63      1.87
     -6.57      1.63      1.39
     -6.33      1.63      0.67
     -6.33      1.63      0.19
     -5.85      1.63     -0.05
     -5.61      1.63     -0.53
     -5.37      1.63     -1.00
     -4.65      1.39     -1.24
     -3.93      1.39     -1.72
     -3.22      1.39     -1.96
     -2.74      1.39     -2.44
     -2.02      1.15     -2.68
     -1.54      1.39     -2.92
     -0.82      1.39     -3.16
     -0.34      1.39     -3.40
      0.14      1.39     -3.64
      0.61      1.39     -3.88
      1.09      1.15     -4.12
      1.57      0.92     -4.36
      2.05      1.15     -4.60
      2.53      1.15     -4.60
      2.53      0.92     -4.84
      2.77      0.68     -5.07
      3.49      0.44     -4.84
      3.97      0.68     -4.60
      4.21      0.68     -4.60
      4.44      0.44     -4.36
      4.92      0.44     -4.36
      5.40      0.44     -4.12
      5.64      0.44     -4.12
      5.88      0.68     -3.88
      6.12      0.44     -3.88
      6.36      0.44     -3.64
      6.60      0.20     -3.64
      6.60     -0.04     -3.40
      6.60     -0.28     -3.40
      6.60     -0.52     -3.16
      6.60     -0.76     -2.68
      6.60     -0.76     -2.20
      6.60     -1.00     -1.96
      6.60     -0.76     -1.72
      6.84     -0.76     -1.24
      6.84     -0.76     -1.00
      6.84     -0.52     -0.53
      6.84     -0.52     -0.29
      6.84     -0.52     -0.05
      6.84     -0.28      0.19
      6.60     -0.04      0.43
      6.60     -0.04      0.67
      6.36      0.20      0.91
      5.88      0.20      1.15
      5.40      0.20      1.63
      5.16      0.20      1.87
      4.44      0.20      2.11
      3.73     -0.04      2.35
      3.25     -0.04      2.83
      3.25     -0.04      2.83
      3.01     -0.04      2.83
      2.29     -0.28      2.83
      2.05     -0.52      3.07
      1.57     -0.52      2.83
      1.33     -0.76      3.07
