********************************************************************************
               CENTRO DE INSTRUMENTACION Y REGISTRO SISMICO  A.C.  
                       Coordinacion de Servicios Tecnicos
     Anaxagoras 814, Col. Narvarte, Benito Juarez, C.P. 03020 Mexico, D.F.
            Tels. 687 45 42/ 687 45  82             Fax. 669 25 12
********************************************************************************
ARCHIVO ESTANDAR DE ACELERACION:
VERSION DEL FORMATO                    : 2.0
NOMBRE DEL ARCHIVO                     : AU469005.111
FECHA Y HORA DE CREACION               : ABRIL 18, 1996/18:36
REF. CATALOGO ACELEROGRAMAS, SMIS 1995 : REGISTRO No. 2191 /PAG. 214


================================================================================
DATOS DE LA ESTACION:
NOMBRE DE LA ESTACION                  : ANGEL URRAZA
CLAVE DE LA ESTACION                   : AU46
LOCALIZACION DE LA ESTACION            : Esc Sec Tec # 14, 5 de Mayo Av
                                       : Coyoacan y Angel Urraza, Col de
                                       : Valle, Benito Juarez
                                       :
                                       :
COORDENADAS DE LA ESTACION             : 19.383 LAT. N 
                                       : 99.168 LONG. W 
ALTITUD (msnm)                         : 2233
TIPO DE SUELO                          : TRANSICION
                                       : 
                                       : 
INSTITUCION RESPONSABLE                : CIRES
                                       :

================================================================================
DATOS DEL ACELEROGRAFO:
MODELO DEL ACELEROGRAFO                : DCA-333
NUMERO DE SERIE DEL ACELEROGRAFO       : 236
NUMERO DE CANALES                      : 3
ORIENTACION C1-C6 (rumbo;orientacion)  : /N00E/+V/N90W
ORIENTACION C7-C12 (rumbo;orientacion) :
VEL. DE MUESTREO, C1-C6 (muestras/s)   : /100/100/100
VEL. DE MUESTREO, C7-C12 (muestras/s)  :
ESC. COMPLETA DE SENSORES, C1-C6, (g)  : /0.5/0.5/0.5
ESC. COMPLETA DE SENSORES, C7-C12, (g) :
FREC. NAT. DE SENSORES, C1-C6, (Hz)    : /30/30/30
FREC. NAT. DE SENSORES, C7-C12, (Hz)   :
AMORTIGUAMIENTO DE SENSORES, C1-C6     : /0.700/0.700/0.700
AMORTIGUAMIENTO DE SENSORES, C7-C12    :
INTERVALO DE MUESTREO, C1-C6, (s)      : /0.01/0.01/0.01
INTERVALO DE MUESTREO, C7-C12, (s)     :
UMBRAL DE DISPARO, C1-C6, (Gal)        : /1.5/1.5/1.5
UMBRAL DE DISPARO, C7-C12, (Gal)       :
MEMORIA DE PREEVENTO (s)               : 4
TIEMPO DE POSEVENTO (s)                : 15


================================================================================
DATOS DEL SISMO:
FECHA DEL SISMO (GMT)                  : 11/MAY/90
HORA EPICENTRO (GMT)                   : 23:43:49,1
MAGNITUD(ES)                           : /Mb=5.30/Ms=4.90/Mc=5.30
COORDENADAS DEL EPICENTRO              : 17.046 LAT. N 
                                       : 100.840 LONG. W
PROFUNDIDAD FOCAL (km)                 : 11.7 
FUENTE DE LOS DATOS EPICENTRALES       : INSTITUTO DE INGENIERIA UNAM
                                       : 

================================================================================
DATOS DE ESTE REGISTRO:
HORA DE LA PRIMERA MUESTRA (GMT)       : 23:45:18.00
EXACTITUD DEL TIEMPO (s)               : 0.01
DURACION DEL REGISTRO (s), C1-C6       : /40.00/40.00/40.00
DURACION DEL REGISTRO (s), C7-C12      :
NUM. TOTAL DE MUESTRAS, C1-C6          : /4000/4000/4000
NUM. TOTAL DE MUESTRAS, C7-C12         :
ACEL. MAX. (Gal), C1-C6                : /3.64144/2.03458/3.76079
ACEL. MAX., C1-C6, EN LA MUESTRA       :
ACEL. MAX. (Gal), C7-C12               :
ACEL. MAX., C7-C12, EN LA MUESTRA      :
UNIDADES DE LOS DATOS                  : Gal (cm/s/s)
FACTOR DE DECIMACION                   : 1
FORMATO DATOS (FORTRAN,10 campos/dato) : 3F10.5


================================================================================
CALIDAD DEL ACELEROGRAMA:
REGISTRO DIGITAL AL QUE FALTA UNA PARTE AL INICIO, CON TIEMPO
ABSOLUTO.

================================================================================
COMENTARIOS:














================================================================================
DATOS DE ACELERACION:
---------+---------+---------+---------+---------+---------+---------+---------+
   CANAL-1   CANAL-2   CANAL-3   CANAL-4   CANAL-5   CANAL-6   CANAL-7   CANAL-8
      N00E        +V      N90W
---------+---------+---------+---------+---------+---------+---------+---------+
[...]
   0.42868  -0.12019  -0.06991
   0.42868  -0.12019  -0.06991
   0.18926  -0.12019  -0.06991
   0.18926  -0.35961  -0.06991
   0.42868  -0.59903  -0.06991
   0.42868  -0.59903   0.16951
   0.42868  -0.59903   0.16951
   0.18926  -0.59903  -0.06991
   0.18926  -0.59903   0.16951
   0.42868  -0.59903   0.16951
   0.42868  -0.59903   0.16951
  -0.05016  -0.35961  -0.06991
   0.18926  -0.35961   0.16951
   0.18926  -0.35961  -0.06991
  -0.05016  -0.35961  -0.30933
   0.18926  -0.35961  -0.30933
  -0.05016   0.11923  -0.54875
  -0.05016   0.35865  -0.54875
   0.42868  -0.12019  -0.78817
   0.18926   0.11923  -0.78817
   0.18926   0.35865  -0.54875
   0.42868   0.11923  -0.54875
   0.42868   0.11923  -0.54875
   0.18926   0.11923  -0.54875
   0.18926   0.35865  -0.54875
   0.42868   0.35865  -0.30933
   0.42868   0.35865  -0.06991
   0.42868   0.35865  -0.06991
   0.42868   0.35865   0.16951
   0.42868   0.35865  -0.06991
   0.42868   0.35865  -0.30933
   0.42868   0.35865  -0.30933
   0.90752   0.59807  -0.54875
   0.66810   0.35865  -0.54875
   0.42868   0.35865  -0.78817
   0.42868   0.11923  -0.78817
   0.66810   0.11923  -0.78817
   0.90752   0.35865  -0.54875
   0.66810   0.35865  -0.78817
   0.42868  -0.12019  -0.78817
   0.42868  -0.12019  -0.54875
   0.66810   0.11923  -0.54875
   0.66810   0.11923  -0.30933
   0.66810   0.11923  -0.30933
   0.66810   0.11923  -0.06991
   0.66810   0.11923  -0.06991
   0.90752   0.59807  -0.06991
   0.90752   0.83749  -0.06991
   0.42868   0.83749  -0.06991
   0.42868   0.59807  -0.06991
   0.90752   0.59807  -0.30933
   0.42868   0.59807  -0.30933
   0.42868   1.07691  -0.06991
   0.42868   1.07691  -0.06991
   0.42868   0.59807  -0.30933
   0.18926   0.59807  -0.06991
  -0.05016   0.35865   0.16951
  -0.05016   0.11923   0.16951
   0.18926  -0.12019   0.40893
  -0.05016   0.11923   0.88777
  -0.28958  -0.12019   0.88777
  -0.52900  -0.59903   0.64835
  -0.28958  -0.83845   0.88777
  -0.28958  -0.59903   1.36660
  -0.76842  -0.59903   1.12718
  -1.24725  -1.07786   0.88777
  -1.00783  -1.31728   0.88777
  -1.00783  -0.83845   1.12718
  -1.48667  -0.83845   0.88777
  -1.48667  -0.83845   0.64835
  -1.48667  -0.59903   0.64835
  -1.72609  -0.59903   0.40893
  -1.72609  -0.35961   0.40893
  -1.48667  -0.12019   0.64835
  -1.72609  -0.12019   0.64835
  -1.72609  -0.12019   0.16951
  -1.24725   0.11923   0.16951
  -1.24725   0.11923   0.16951
  -1.24725   0.11923   0.16951
  -1.24725   0.11923   0.16951
  -1.00783   0.35865   0.16951
  -1.00783   0.35865  -0.06991
  -1.24725   0.11923  -0.06991
  -1.00783   0.35865   0.16951
  -1.00783   0.35865  -0.06991
  -1.00783   0.35865  -0.06991
  -1.00783   0.35865   0.16951
  -0.76842   0.35865   0.16951
  -0.52900   0.35865  -0.06991
  -1.00783   0.35865  -0.06991
  -0.76842   0.35865  -0.06991
  -0.05016   0.11923  -0.06991
  -0.28958   0.35865  -0.06991
  -0.05016   0.35865  -0.06991
   0.42868  -0.12019  -0.06991
   0.42868   0.11923  -0.06991
   0.42868   0.11923  -0.06991
   0.66810  -0.35961  -0.30933
   0.90752  -0.35961  -0.30933
   1.14694  -0.12019  -0.30933
   1.38636  -0.35961  -0.30933
   1.38636  -0.12019  -0.54875
   1.38636   0.11923  -0.54875
   1.14694  -0.12019  -0.54875
   0.90752  -0.12019  -0.78817
   1.38636   0.11923  -0.54875
   1.62577   0.35865  -0.54875
   0.90752   0.59807  -0.78817
   0.66810   0.11923  -1.02759
   0.90752   0.35865  -0.78817
   0.90752   0.59807  -0.30933
   0.42868   0.35865  -0.54875
   0.42868   0.35865  -0.54875
   0.42868   0.35865  -0.54875
   0.42868   0.11923  -0.30933
   0.18926  -0.12019  -0.54875
   0.18926  -0.12019  -0.30933
   0.42868   0.11923  -0.30933
   0.42868  -0.12019  -0.06991
   0.42868  -0.35961  -0.06991
   0.42868  -0.35961   0.16951
   0.42868  -0.12019  -0.06991
   0.42868  -0.12019   0.16951
   0.42868  -0.35961   0.16951
   0.18926  -0.12019   0.16951
  -0.52900   0.11923   0.16951
  -0.52900  -0.12019   0.64835
  -0.52900  -0.59903   0.64835
  -1.72609  -0.59903   0.16951
  -1.72609  -0.35961   0.40893
  -1.48667  -0.35961   0.64835
  -1.96551  -0.59903   0.40893
  -2.20493  -0.59903   0.40893
  -2.44435  -0.59903   0.64835
  -2.20493  -0.35961   0.64835
  -1.96551  -0.59903   0.64835
  -1.72609  -0.59903   0.64835
  -2.20493  -0.83845   0.88777
  -1.96551  -0.59903   0.88777
  -1.72609  -0.12019   1.12718
  -1.96551  -0.12019   1.12718
  -2.20493  -0.12019   1.12718
  -1.72609   0.11923   1.36660
  -1.72609   0.35865   1.60602
  -2.20493   0.35865   1.36660
  -1.96551   0.35865   1.36660
  -1.48667   0.35865   1.60602
  -1.72609   0.35865   1.60602
  -1.72609   0.11923   1.60602
  -1.48667   0.11923   1.60602
  -1.24725   0.11923   1.12718
  -1.00783  -0.12019   1.12718
  -1.00783  -0.12019   1.12718
  -1.24725  -0.12019   0.88777
  -1.00783  -0.12019   0.40893
  -0.52900  -0.35961   0.40893
  -0.52900  -0.12019   0.16951
  -0.76842  -0.12019   0.16951
  -0.52900  -0.35961  -0.30933
  -0.52900  -0.12019  -0.54875
  -0.76842   0.11923  -0.54875
  -0.05016   0.11923  -0.78817
  -0.05016  -0.12019  -1.02759
  -0.52900   0.11923  -1.26701
  -0.28958   0.11923  -1.50642
   0.18926  -0.12019  -1.26701
   0.18926  -0.12019  -1.02759
   0.18926  -0.12019  -1.26701
   0.42868  -0.35961  -1.50642
   0.42868  -0.35961  -1.26701
   0.42868  -0.12019  -1.26701
   0.42868  -0.12019  -1.26701
   0.66810  -0.35961  -1.26701
   0.90752  -0.12019  -1.02759
   0.90752  -0.12019  -0.78817
   0.90752  -0.12019  -0.54875
   1.38636  -0.12019  -0.30933
   1.62577   0.11923  -0.06991
   1.62577  -0.12019   0.16951
   2.10461  -0.12019   0.40893
   2.34403  -0.12019   0.64835
   2.34403  -0.12019   0.40893
   2.10461   0.11923   0.64835
   2.34403   0.11923   0.64835
   2.58345  -0.12019   0.40893
   2.34403   0.11923   0.16951
   2.34403   0.11923   0.16951
   2.34403   0.11923   0.16951
   1.86519   0.11923  -0.06991
   1.86519   0.35865   0.16951
   2.10461   0.35865   0.16951
   1.86519   0.59807  -0.06991
   1.38636   0.59807  -0.30933
   1.38636   0.83749  -0.30933
   1.38636   0.83749  -0.30933
   1.14694   0.83749  -0.54875
   0.90752   0.83749  -0.54875
   0.90752   0.83749  -0.54875
   0.90752   0.59807  -0.78817
   0.90752   0.35865  -1.02759
   0.90752   0.35865  -1.02759
   0.66810   0.11923  -1.02759
   0.42868  -0.12019  -1.26701
   0.42868  -0.35961  -1.26701
   0.42868  -0.35961  -1.26701
   0.42868  -0.59903  -1.26701
  -0.28958  -1.07786  -1.50642
  -0.05016  -0.83845  -1.26701
  -0.05016  -0.83845  -1.26701
  -0.28958  -0.83845  -1.50642
  -0.76842  -1.07786  -1.74584
  -0.52900  -0.59903  -1.50642
  -0.28958  -0.35961  -1.74584
  -0.76842  -0.12019  -1.98526
  -0.52900  -0.35961  -1.98526
  -0.28958   0.11923  -1.98526
  -0.52900   0.11923  -1.74584
  -0.52900   0.11923  -1.98526
  -0.05016   0.11923  -1.98526
  -0.05016   0.59807  -1.50642
  -0.52900   0.35865  -1.50642
  -0.52900  -0.12019  -1.50642
  -0.05016   0.35865  -1.02759
  -0.05016   0.59807  -1.02759
  -0.76842   0.11923  -0.54875
  -0.76842  -0.12019  -0.30933
  -0.28958   0.11923  -0.06991
  -0.28958   0.35865  -0.06991
  -1.00783   0.11923   0.16951
  -0.76842  -0.12019   0.64835
  -0.52900   0.11923   0.64835
  -0.28958   0.11923   0.64835
  -0.28958   0.11923   0.88777
  -0.28958   0.11923   1.12718
  -0.28958   0.11923   1.12718
   0.18926   0.35865   1.60602
   0.42868   0.11923   1.84544
  -0.28958  -0.12019   1.60602
   0.18926   0.11923   1.84544
   0.66810   0.11923   2.56370
   0.42868  -0.12019   2.08486
  -0.05016  -0.12019   1.60602
   0.18926  -0.12019   2.08486
   0.66810  -0.12019   2.08486
   0.90752   0.11923   1.84544
   0.42868   0.11923   1.84544
   0.42868   0.11923   1.84544
   0.66810   0.11923   1.84544
   0.90752   0.59807   1.60602
   0.66810   0.59807   1.60602
   0.42868   0.35865   1.60602
   0.90752   0.35865   1.84544
   1.14694   0.35865   1.60602
   1.14694   0.35865   1.60602
   1.14694   0.35865   1.84544
   0.90752   0.35865   1.84544
   1.14694   0.35865   1.84544
   1.38636   0.35865   2.08486
   1.38636   0.35865   1.84544
   1.14694   0.11923   1.84544
   1.38636   0.11923   1.84544
   1.38636   0.11923   1.84544
   1.38636   0.11923   1.60602
   1.14694  -0.12019   1.60602
   1.14694  -0.12019   1.12718
   1.14694  -0.12019   0.88777
   0.90752  -0.12019   0.64835
   0.66810  -0.12019   0.40893
   0.66810  -0.12019   0.40893
   0.66810   0.11923   0.40893
   0.42868  -0.12019   0.16951
   0.42868  -0.35961   0.16951
   0.42868  -0.12019   0.16951
   0.42868   0.11923   0.16951
   0.42868   0.35865   0.16951
   0.18926   0.11923  -0.06991
   0.18926  -0.12019  -0.30933
   0.42868   0.11923  -0.30933
  -0.05016   0.35865  -0.30933
  -0.52900   0.35865  -0.54875
  -0.76842   0.11923  -0.78817
  -1.00783   0.35865  -0.54875
  -1.24725   0.35865  -0.54875
  -1.48667   0.11923  -0.78817
  -1.72609  -0.12019  -0.78817
  -1.96551   0.11923  -0.54875
  -2.20493  -0.12019  -0.54875
  -2.44435  -0.35961  -0.54875
  -2.44435  -0.59903  -0.54875
  -2.20493  -0.59903  -0.54875
  -1.96551  -0.35961  -0.78817
  -1.96551  -0.59903  -0.78817
  -2.44435  -1.07786  -0.78817
  -1.96551  -0.83845  -1.02759
  -1.24725  -0.59903  -1.50642
  -1.48667  -0.35961  -1.74584
  -1.96551  -0.35961  -1.50642
  -1.24725  -1.07786  -1.26701
  -0.76842  -1.07786  -1.74584
  -1.48667  -0.12019  -2.46410
  -1.24725   0.11923  -1.98526
  -0.76842  -0.12019  -1.74584
  -0.76842  -0.12019  -2.22468
  -0.52900   0.35865  -2.22468
  -0.28958   0.35865  -2.46410
  -0.05016   0.11923  -2.46410
   0.18926   0.35865  -2.46410
   0.18926   0.59807  -2.70352
   0.42868   0.35865  -2.46410
   0.42868   0.59807  -2.70352
   0.42868   0.59807  -2.70352
   0.66810   0.59807  -2.22468
   0.66810   0.35865  -2.22468
   0.42868   0.59807  -2.22468
   0.42868   0.59807  -2.22468
   0.66810   0.35865  -2.22468
   0.66810   0.35865  -1.98526
   0.42868   0.35865  -2.22468
   0.42868   0.11923  -1.98526
   0.42868   0.11923  -1.98526
   0.42868  -0.12019  -2.22468
   0.42868   0.11923  -1.98526
   0.42868   0.11923  -1.74584
  -0.05016  -0.12019  -2.22468
   0.18926  -0.35961  -1.98526
   0.42868  -0.12019  -1.50642
   0.42868  -0.12019  -1.50642
   0.18926  -0.35961  -1.26701
   0.18926  -0.35961  -0.78817
   0.42868  -0.35961  -0.78817
   0.66810  -0.35961  -0.30933
   0.90752  -0.12019   0.16951
   0.90752  -0.35961   0.40893
   0.66810  -0.83845   0.40893
   1.14694  -0.59903   0.64835
   1.38636  -0.35961   0.88777
   1.14694  -0.35961   1.12718
   0.66810  -0.59903   1.12718
   0.66810  -0.83845   1.36660
   0.66810  -0.59903   1.60602
   0.42868  -0.35961   1.84544
   0.18926  -0.35961   2.08486
  -0.05016  -0.59903   2.32428
  -0.05016  -0.35961   2.56370
  -0.52900  -0.59903   2.32428
  -0.52900  -0.83845   3.04254
  -0.76842  -0.83845   3.28195
  -0.76842  -0.59903   3.28195
  -0.76842  -0.83845   3.52137
  -1.24725  -0.83845   3.76079
  -1.00783  -0.59903   3.76079
  -0.52900  -0.59903   3.76079
  -0.76842  -0.35961   3.76079
  -1.00783  -0.35961   3.76079
  -0.76842  -0.12019   3.52137
  -0.52900   0.11923   3.28195
  -0.76842   0.35865   2.80312
  -0.76842   0.83749   3.04254
  -0.76842   1.07691   3.28195
  -0.76842   0.83749   2.56370
  -0.52900   1.07691   2.08486
  -0.28958   1.55574   2.08486
  -0.76842   1.31633   2.08486
  -1.00783   0.83749   1.84544
  -0.52900   0.83749   2.08486
  -0.28958   1.07691   1.84544
  -0.52900   0.83749   1.12718
  -1.00783   0.11923   0.88777
  -1.00783  -0.35961   0.88777
  -0.28958  -0.35961   0.64835
  -0.05016  -0.12019   0.64835
  -0.28958  -0.12019   0.40893
  -0.52900  -0.35961   0.16951
  -0.52900  -0.35961  -0.06991
  -0.28958  -0.83845  -0.30933
  -0.05016  -0.83845  -0.78817
  -0.05016  -0.35961  -0.30933
   0.18926  -0.12019  -0.30933
   0.18926  -0.59903  -1.02759
   0.18926  -0.35961  -1.26701
   0.18926  -0.12019  -1.02759
   0.42868  -0.12019  -1.26701
   0.42868  -0.35961  -1.50642
   0.42868  -0.12019  -1.50642
   0.18926  -0.12019  -1.50642
   0.18926  -0.12019  -1.74584
   0.18926  -0.12019  -1.98526
   0.18926  -0.12019  -1.98526
   0.18926  -0.12019  -1.98526
   0.18926  -0.12019  -1.98526
   0.18926  -0.12019  -1.98526
   0.18926  -0.12019  -1.74584
   0.18926  -0.12019  -1.74584
   0.18926  -0.12019  -1.50642
   0.18926  -0.12019  -1.50642
   0.18926  -0.12019  -1.26701
   0.18926  -0.12019  -1.26701
   0.18926  -0.12019  -1.02759
   0.18926  -0.12019  -0.78817
  -0.05016  -0.12019  -0.78817
  -0.05016  -0.35961  -0.78817
  -0.05016  -0.12019  -0.78817
  -0.05016   0.11923  -0.78817
  -0.52900   0.11923  -0.78817
  -0.52900  -0.12019  -0.78817
  -0.52900   0.11923  -0.78817
  -0.52900   0.11923  -0.78817
  -0.28958   0.11923  -0.78817
  -0.28958   0.35865  -0.54875
  -0.28958   0.35865  -0.30933
  -0.28958   0.35865  -0.30933
  -0.28958   0.35865  -0.30933
  -0.28958   0.35865  -0.06991
   0.18926   0.35865  -0.06991
   0.42868   0.59807   0.16951
   0.66810   0.59807   0.40893
   0.42868   0.35865   0.40893
   0.66810   0.35865   0.16951
   1.14694   0.11923   0.16951
   1.14694   0.35865   0.40893
   1.14694   0.11923   0.64835
   1.14694  -0.12019   0.16951
   1.38636  -0.12019   0.16951
   1.62577   0.11923   0.16951
   1.38636   0.11923   0.40893
   1.38636   0.35865   0.16951
   1.38636  -0.12019  -0.06991
   1.38636  -0.12019  -0.06991
   1.38636   0.11923  -0.06991
   1.14694   0.35865   0.16951
   1.14694   0.11923  -0.06991
   1.14694   0.11923  -0.30933
   0.90752  -0.12019  -0.06991
   0.90752   0.11923   0.16951
   0.42868  -0.12019   0.16951
   0.66810  -0.12019   0.16951
   0.66810  -0.12019   0.64835
   0.42868  -0.12019   0.88777
   0.42868  -0.59903   0.40893
   0.42868  -0.35961   0.88777
   0.42868  -0.12019   1.12718
  -0.05016   0.11923   1.12718
   0.18926  -0.35961   0.88777
   0.42868  -0.35961   0.88777
  -0.28958  -0.12019   1.12718
  -0.28958   0.11923   1.36660
  -0.05016   0.11923   1.12718
  -0.28958   0.11923   1.12718
  -0.76842   0.11923   1.36660
  -1.00783   0.35865   1.36660
  -1.00783   0.35865   1.36660
  -1.24725   0.11923   1.36660
  -1.48667   0.35865   1.36660
  -1.72609   0.35865   1.60602
  -1.72609   0.35865   1.36660
  -1.96551   0.11923   1.36660
  -1.96551   0.11923   1.36660
  -1.96551  -0.12019   1.12718
  -2.20493  -0.12019   0.88777
  -2.20493   0.11923   0.88777
  -2.20493  -0.12019   0.64835
  -2.20493  -0.35961   0.16951
  -1.96551  -0.12019   0.16951
  -1.72609  -0.12019   0.16951
  -1.72609   0.11923  -0.06991
  -1.72609   0.35865  -0.30933
  -1.72609   0.11923  -0.54875
  -1.48667   0.35865  -0.54875
  -1.24725   0.35865  -0.78817
  -1.24725   0.59807  -1.26701
  -1.24725   0.83749  -1.50642
  -1.24725   0.59807  -1.50642
  -1.00783   0.59807  -1.98526
  -1.24725   0.59807  -1.98526
  -1.24725   0.83749  -1.98526
  -1.24725   0.59807  -2.22468
  -1.24725   0.35865  -2.46410
  -1.48667   0.11923  -2.46410
  -1.48667   0.11923  -2.46410
  -1.48667   0.11923  -2.46410
  -1.24725   0.11923  -2.22468
  -1.24725  -0.12019  -2.22468
  -1.00783  -0.59903  -2.46410
  -1.00783  -0.59903  -2.46410
  -1.00783  -0.35961  -1.98526
  -0.76842  -0.12019  -1.98526
  -0.52900  -0.12019  -1.98526
  -0.52900  -0.35961  -1.98526
  -0.52900  -0.35961  -1.74584
  -0.28958  -0.12019  -1.74584
  -0.05016  -0.12019  -1.50642
  -0.05016   0.11923  -1.26701
   0.18926   0.11923  -1.02759
   0.18926   0.11923  -0.78817
   0.18926   0.11923  -0.54875
   0.18926   0.11923  -0.54875
   0.42868   0.11923  -0.30933
   0.42868   0.11923  -0.06991
   0.42868   0.35865  -0.06991
