********************************************************************************
              CENTRO DE INSTRUMENTACION Y REGISTRO SISMICO  A.C.

    Anaxagoras 814, Col. Narvarte, Benito Juarez, C.P. 03020 Mexico, D.F.
           Tels. 5687 45 42/ 5687 45  82             Fax. 5669 25 12
********************************************************************************
ARCHIVO ESTANDAR DE ACELERACION:
VERSION DEL FORMATO                    : 2.0
NOMBRE DEL ARCHIVO                     : AU4620160508073359
FECHA Y HORA DE CREACION               : 31/MAY/16, 11:10
REF. CATALOGO ACELEROGRAMAS, SMIS 1996 : REGISTRO No.     /PAG.


================================================================================
DATOS DE LA ESTACION:
NOMBRE DE LA ESTACION                  : ESC. SEC. TÉC. NO. 14
CLAVE DE LA ESTACION                   : AU46
LOCALIZACION DE LA ESTACION            : Del. Benito Juárez, Col. del Valle,    
                                       : Entre Angel Urraza y Coyoacán.         
                                       :                                        
                                       :                                        
                                       : 
COORDENADAS DE LA ESTACION             : 19.3832 LAT. N
                                       : 99.1681 LONG. W
ALTITUD (msnm)                         : 2233
TIPO DE SUELO                          : Transición                          
                                       :                           
                                       : 
INSTITUCION RESPONSABLE                : CIRES
                                       : 

================================================================================
DATOS DEL ACELEROGRAFO:
MODELO DEL ACELEROGRAFO                : RADESD
NUMERO DE SERIE DEL ACELEROGRAFO       : 236
NUMERO DE CANALES                      : 3
ORIENTACION C1-C6 (rumbo;orientacion)  : /N00E/+V/N90W
ORIENTACION C7-C12 (rumbo;orientacion) : 
VEL. DE MUESTREO, C1-C6 (muestras/s)   : /100/100/100
VEL. DE MUESTREO, C7-C12 (muestras/s)  : 
ESC. COMPLETA DE SENSORES, C1-C6, (g)  : /0.5/0.5/0.5
ESC. COMPLETA DE SENSORES, C7-C12, (g) : 
FREC. NAT. DE SENSORES, C1-C6, (Hz)    : /33/30/30
FREC. NAT. DE SENSORES, C7-C12, (Hz)   : 
AMORTIGUAMIENTO DE SENSORES, C1-C6     : /0.735/0.733/0.730
AMORTIGUAMIENTO DE SENSORES, C7-C12    : 
INTERVALO DE MUESTREO, C1-C6, (s)      : /0.01/0.01/0.01
INTERVALO DE MUESTREO, C7-C12, (s)     : 
UMBRAL DE DISPARO, C1-C6, (Gal)        : /1.72/5.99/2.84
UMBRAL DE DISPARO, C7-C12, (Gal)       : 
MEMORIA DE PREEVENTO (s)               : 44.0
TIEMPO DE POSEVENTO (s)                : 265.0


================================================================================
DATOS DEL SISMO:
FECHA DEL SISMO (GMT)                  : 08/MAY/16
HORA EPICENTRO (GMT)                   : 07:33:59.0
MAGNITUD(ES)                           : /Mc=6.0
COORDENADAS DEL EPICENTRO              : 16.25 LAT. N
                                       : 97.98 LONG. W
PROFUNDIDAD FOCAL (km)                 : 35
FUENTE DE LOS DATOS EPICENTRALES       : SSN
                                       : INSTITUTO DE GEOFISICA, UNAM

================================================================================
DATOS DE ESTE REGISTRO:
HORA DE LA PRIMERA MUESTRA (GMT)       : 07:35:54.00
EXACTITUD DEL TIEMPO (s)               : 0.01
DURACION DEL REGISTRO (s), C1-C6       : /138.8/138.8/138.8
DURACION DEL REGISTRO (s), C7-C12      : 
NUM. TOTAL DE MUESTRAS, C1-C6          : /13880/13880/13880
NUM. TOTAL DE MUESTRAS, C7-C12         : 
ACEL. MAX. (Gal), C1-C6                : /2.51026/0.8445/3.91292
ACEL. MAX., C1-C6, EN LA MUESTRA       : /4396/4991/4407
ACEL. MAX. (Gal), C7-C12               : 
ACEL. MAX., C7-C12, EN LA MUESTRA      : 
UNIDADES DE LOS DATOS                  : Gal (cm/s/s)
FACTOR DE DECIMACION                   : 1
FORMATO DATOS (FORTRAN,10 campos/dato) : 3F10.5


================================================================================
CALIDAD DEL ACELEROGRAMA:
REGISTRO DIGITAL COMPLETO CON TIEMPO ABSOLUTO CORRECTO.


================================================================================
COMENTARIOS:














================================================================================
DATOS DE ACELERACION:
---------+---------+---------+---------+---------+---------+---------+---------+
   CANAL-1   CANAL-2   CANAL-3   CANAL-4   CANAL-5   CANAL-6   CANAL-7   CANAL-8
      N00E        +V      N90W
---------+---------+---------+---------+---------+---------+---------+---------+
[...]
   1.65733   0.12624   0.26197
   1.52266  -0.05332   0.17219
   1.55258  -0.02339   0.15722
   1.55258  -0.06828   0.14226
   1.59747  -0.17303   0.15722
   1.52266  -0.12814   0.11233
   1.56755  -0.12814   0.26197
   1.67229   0.02150   0.53132
   1.43287  -0.21792   0.41161
   1.55258   0.02150   0.44154
   1.70222   0.09632   0.56125
   1.77704   0.14121   0.62110
   1.44784  -0.11318   0.36672
   1.67229   0.18610   0.41161
   1.65733   0.11128   0.47146
   1.47776  -0.00843   0.06744
   1.79200   0.21603   0.36672
   1.56755  -0.02339   0.30686
   1.25331  -0.12814  -0.11212
   1.41791  -0.12814   0.05248
   1.08871  -0.29274  -0.03730
   1.17849   0.02150  -0.24680
   1.32813   0.03646   0.08241
   1.22338  -0.11318   0.14226
   0.96900  -0.32267   0.08241
   0.60987  -0.66683  -0.26176
   0.55001  -0.36756  -0.48622
   0.71461  -0.38252  -0.15701
   0.62483  -0.41245  -0.08220
   0.47519  -0.68180  -0.21687
   0.19088  -0.63691  -0.51615
   0.40037  -0.33763  -0.41140
   0.52008  -0.29274  -0.02234
   0.46023  -0.32267  -0.00738
   0.17592  -0.47231  -0.11212
   0.13103  -0.23289  -0.35154
   0.28066  -0.05332   0.02255
   0.17592  -0.05332   0.15722
   0.17592   0.06639   0.29190
   0.01132   0.12624   0.36672
  -0.30292  -0.11318   0.35175
  -0.19818   0.17114   0.36672
  -0.27300   0.35070   0.53132
  -0.27300   0.20106   0.69592
  -0.61716  -0.05332   0.44154
  -0.39271   0.39559   0.47146
  -0.28796   0.29085   0.86052
  -0.39271   0.12624   0.83059
  -0.72191  -0.14310   0.63606
  -0.48249   0.11128   0.84556
  -0.51242   0.00653   1.17476
  -0.85658  -0.36756   1.01016
  -0.67702   0.12624   1.07001
  -0.78176  -0.18799   1.12987
  -0.93140  -0.18799   0.90541
  -0.97629  -0.11318   0.92038
  -0.84162  -0.09821   1.02512
  -0.91644  -0.24785   1.14483
  -0.96133  -0.29274   0.89045
  -0.79673  -0.23289   0.99519
  -0.90147  -0.08325   0.68096
  -0.66205  -0.08325   0.81563
  -0.69198   0.00653   0.51635
  -0.51242   0.03646   0.74081
  -0.60220   0.09632   0.39664
  -0.51242   0.15617   0.15722
  -0.28796   0.32077   0.32183
  -0.27300   0.33574   0.06744
  -0.42263   0.36566  -0.32162
  -0.09343   0.54523  -0.21687
  -0.00365   0.60508  -0.39644
  -0.12336   0.42552  -0.90520
   0.29563   0.75472  -0.90520
   0.11606   0.39559  -1.29426
   0.44526   0.76969  -1.27930
   0.35548   0.45545  -1.42893
   0.60987   0.72479  -1.60850
   0.72958   0.51530  -1.57857
   0.55001   0.51530  -2.07238
   0.84929   0.51530  -1.83296
   0.60987   0.27588  -2.23698
   0.95403   0.42552  -1.92274
   0.78943   0.09632  -2.26691
   1.11863   0.32077  -2.14720
   0.95403  -0.08325  -2.44647
   1.25331   0.09632  -2.34172
   1.08871  -0.24785  -2.59611
   1.31316   0.06639  -2.44647
   1.08871  -0.36756  -2.52129
   1.08871  -0.12814  -2.73078
   1.28324  -0.18799  -2.53625
   0.99892  -0.54712  -2.94027
   1.14856  -0.15807  -2.85049
   1.10367  -0.23289  -2.74575
   0.89418  -0.30770  -2.89538
   0.53505  -0.57705  -2.98517
   0.31059  -0.33763  -3.22459
   0.49016  -0.20296  -2.91035
   0.43030  -0.23289  -2.70085
   0.29563  -0.33763  -2.76071
  -0.01861  -0.47231  -2.95524
   0.22081   0.00653  -2.94027
   0.38541   0.00653  -2.52129
   0.34052  -0.05332  -2.23698
   0.13103  -0.35260  -2.26691
   0.07117  -0.11318  -2.32676
   0.38541   0.03646  -1.84792
   0.19088  -0.18799  -1.77310
  -0.18321  -0.09821  -1.96763
   0.08613   0.15617  -1.62346
  -0.01861   0.05143  -1.29426
  -0.36278  -0.32267  -1.26433
  -0.48249  -0.17303  -1.27930
  -0.37774  -0.00843  -0.75557
  -0.57227  -0.21792  -0.54607
  -0.97629  -0.56209  -0.65082
  -0.79673  -0.27778  -0.18694
  -1.11097  -0.54712  -0.20191
  -1.09600  -0.23289  -0.17198
  -0.79673  -0.06828   0.48643
  -0.82666  -0.15807   0.72585
  -0.97629  -0.41245   0.89045
  -1.24564  -0.38252   0.83059
  -0.75184   0.00653   1.08498
  -0.66205  -0.00843   1.51893
  -0.84162  -0.35260   1.59375
  -0.84162  -0.14310   1.56382
  -0.48249   0.00653   1.98280
  -0.36278  -0.09821   2.28208
  -0.48249  -0.35260   2.22222
  -0.52738  -0.23289   2.04266
  -0.19818   0.02150   2.49157
  -0.19818  -0.11318   2.67114
  -0.31789  -0.45734   2.71603
  -0.15329  -0.20296   2.94048
  -0.24307  -0.38252   2.82077
  -0.45256  -0.57705   2.50653
  -0.10839  -0.18799   2.62624
   0.14599  -0.09821   2.94048
   0.02628  -0.38252   2.82077
   0.13103  -0.20296   2.55143
  -0.03358  -0.35260   2.47661
   0.35548  -0.02339   2.67114
   0.10110  -0.20296   2.50653
   0.19088   0.03646   2.29704
   0.41534   0.21603   2.64121
   0.26570  -0.11318   2.32697
   0.59490   0.20106   2.19230
   0.66972   0.00653   2.16237
   0.52008  -0.00843   1.83317
   0.74454   0.05143   2.10251
   0.55001  -0.09821   1.71346
   0.89418   0.18610   1.90798
   0.92410   0.15617   1.86309
   0.77447  -0.05332   1.69849
   0.68468   0.12624   1.33936
   0.93907   0.32077   1.42914
   0.71461   0.09632   0.86052
   1.01389   0.32077   0.98023
   0.71461   0.14121   0.50139
   0.75950   0.18610   0.30686
   1.02885   0.39559   0.32183
   0.78943   0.08135   0.02255
   1.05878   0.47041  -0.00738
   0.86425   0.17114  -0.17198
   0.89418   0.39559  -0.47125
   0.92410   0.47041  -0.62089
   0.71461   0.21603  -0.77053
   0.50512   0.27588  -1.09973
   0.53505   0.50034  -1.26433
   0.44526   0.35070  -1.27930
   0.13103   0.23099  -1.69828
   0.14599   0.44048  -1.57857
  -0.09343   0.33574  -2.05741
  -0.00365   0.39559  -2.16216
  -0.04854   0.21603  -2.11727
  -0.16825   0.06639  -2.23698
  -0.39271  -0.08325  -2.43151
  -0.45256  -0.05332  -2.52129
  -0.39271  -0.09821  -2.23698
  -0.70694  -0.24785  -2.52129
  -0.66205   0.03646  -2.61107
  -0.60220  -0.20296  -2.49136
  -0.75184   0.03646  -2.62604
  -0.88651  -0.09821  -2.40158
  -0.91644   0.17114  -2.49136
  -1.05111   0.00653  -2.35669
  -1.05111   0.33574  -2.37165
  -1.17082   0.05143  -2.26691
  -1.29053   0.12624  -2.41654
  -1.18579   0.32077  -2.19209
  -1.24564   0.03646  -1.95267
  -1.24564   0.33574  -1.98259
  -1.11097   0.39559  -1.56361
  -1.36535  -0.08325  -1.44390
  -1.45513   0.18610  -1.50375
  -1.18579   0.42552  -0.92017
  -1.33542   0.32077  -0.68075
  -1.70952  -0.08325  -0.71067
  -1.64966   0.36566  -0.72564
  -1.81426   0.06639  -0.51615
  -1.61973   0.50034  -0.24680
  -1.45513   0.56019   0.32183
  -1.51499   0.21603   0.48643
  -1.61973   0.29085   0.36672
  -1.29053   0.38063   0.93534
  -1.30550   0.51530   0.98023
  -1.20075   0.42552   1.33936
  -1.30550   0.15617   1.35432
  -0.94637   0.56019   1.50396
  -0.73687   0.63501   1.96784
  -0.93140   0.32077   1.74338
  -0.54234   0.54523   2.14740
  -0.60220   0.14121   2.28208
  -0.79673   0.12624   2.13244
  -0.49745   0.33574   2.64121
  -0.48249  -0.08325   2.52150
  -0.30292  -0.21792   2.65617
  -0.19818  -0.11318   2.35690
   0.23577  -0.15807   2.71603
  -0.04854  -0.57705   2.49157
   0.13103  -0.38252   2.29704
   0.29563  -0.59202   2.34193
   0.23577  -0.71173   1.81820
   0.59490  -0.51720   1.92295
   0.68468  -0.53216   1.81820
   0.59490  -0.75662   1.72842
   0.44526  -0.69676   1.45907
   0.65476  -0.65187   1.60871
   0.62483  -0.80151   1.35432
   0.62483  -0.72669   0.89045
   1.04382  -0.44238   1.05505
   1.19345  -0.17303   0.93534
   0.93907  -0.30770   0.59117
   1.16353   0.06639   0.50139
   1.07374  -0.26281   0.35175
   1.35805  -0.05332   0.23204
   1.44784  -0.20296   0.17219
   1.52266   0.05143  -0.08220
   1.64237   0.23099   0.15722
   1.49273   0.27588  -0.15701
   1.76208   0.29085   0.05248
   1.52266   0.12624  -0.33658
   1.89675   0.30581  -0.26176
   1.65733  -0.00843  -0.74060
   1.71718   0.15617  -0.90520
   1.73215   0.36566  -0.80046
   1.62740   0.24595  -0.89024
   1.38798  -0.12814  -1.03988
   1.47776   0.02150  -1.29426
   1.32813  -0.20296  -1.39901
   1.49273   0.15617  -1.50375
   1.46280   0.18610  -1.48879
   1.26827  -0.08325  -1.68332
   1.19345   0.18610  -1.90777
   1.14856   0.09632  -1.93770
   1.02885   0.11128  -1.92274
   0.74454  -0.12814  -1.92274
   0.59490   0.09632  -1.74317
   0.25074   0.03646  -1.98259
   0.05621  -0.03836  -1.81799
   0.04124   0.03646  -1.84792
  -0.12336  -0.20296  -1.96763
  -0.10839  -0.03836  -1.84792
  -0.34781  -0.05332  -2.02748
  -0.61716   0.12624  -1.95267
  -0.91644   0.02150  -1.93770
  -1.17082   0.02150  -1.69828
  -1.12593   0.09632  -1.33915
  -1.44017  -0.29274  -1.50375
  -1.26060  -0.00843  -1.39901
  -1.45513  -0.11318  -1.33915
  -1.52995  -0.08325  -0.83038
  -1.76937   0.18610  -0.63586
  -1.90405   0.15617  -0.32162
  -1.61973   0.27588  -0.11212
  -1.88908   0.09632  -0.26176
  -1.79930   0.14121   0.00759
  -1.96390   0.23099  -0.00738
  -2.20332   0.02150   0.32183
  -2.11354   0.18610   0.65103
  -2.32303  -0.18799   0.60614
  -1.96390   0.06639   0.89045
  -2.06865  -0.20296   0.63606
  -1.84419  -0.02339   0.95030
  -2.06865  -0.02339   0.81563
  -2.03872  -0.02339   1.20469
  -1.94894   0.20106   1.27951
  -1.99383  -0.05332   1.48900
  -1.90405  -0.05332   1.62367
  -1.70952   0.21603   1.66856
  -1.70952  -0.00843   1.83317
  -1.51499   0.20106   1.99777
  -1.23068   0.23099   2.26711
  -1.41024   0.05143   2.34193
  -1.14089   0.30581   2.61128
  -1.39528  -0.00843   2.32697
  -0.99126   0.42552   2.40179
  -0.84162   0.44048   2.64121
  -1.03615   0.11128   2.59632
  -1.23068   0.24595   2.43172
  -0.87155   0.48537   2.76092
  -0.84162   0.45545   2.89559
  -1.00622   0.03646   2.62624
  -0.88651   0.41056   2.41675
  -0.72191   0.59012   2.74595
  -0.90147   0.35070   2.68610
  -0.93140   0.39559   2.43172
  -0.51242   0.57516   2.80581
  -0.49745   0.41056   2.58135
  -0.33285   0.42552   2.46164
  -0.21314   0.26092   2.52150
  -0.21314   0.29085   2.49157
   0.08613   0.36566   2.52150
   0.11606   0.05143   2.49157
   0.19088   0.05143   2.22222
   0.56497   0.06639   2.37186
   0.49016  -0.29274   2.08755
   0.66972  -0.00843   1.83317
   0.71461  -0.15807   1.68353
   1.11863   0.02150   1.69849
   1.11863  -0.20296   1.50396
   1.23834  -0.11318   0.99519
   1.55258  -0.20296   0.96527
   1.58251  -0.36756   0.60614
   1.86682  -0.27778   0.44154
   1.86682  -0.41245   0.23204
   1.86682  -0.44238  -0.32162
   2.24092  -0.17303  -0.27672
   2.01646  -0.48727  -0.75557
   2.40552  -0.09821  -0.86031
   2.39055  -0.17303  -0.96506
   2.22595  -0.20296  -1.50375
   2.46537  -0.03836  -1.47383
   2.16610  -0.30770  -1.98259
   2.51026  -0.05332  -2.08734
   2.28581  -0.33763  -2.29683
   2.31573  -0.06828  -2.37165
   2.21099  -0.15807  -2.62604
   2.01646  -0.20296  -2.88042
   2.16610  -0.09821  -3.01509
   1.86682  -0.36756  -3.40415
   2.03142  -0.06828  -3.31437
   1.65733  -0.41245  -3.53882
   1.80697  -0.14310  -3.67350
   1.58251  -0.36756  -3.65853
   1.53762  -0.14310  -3.91292
   1.41791  -0.33763  -3.71839
   1.20842  -0.15807  -3.89796
   1.11863  -0.27778  -3.68846
   1.11863  -0.05332  -3.73335
   1.02885  -0.30770  -3.52386
   0.92410  -0.15807  -3.56875
   0.92410  -0.20296  -3.17969
   0.68468  -0.18799  -3.20962
   0.65476  -0.02339  -3.10488
   0.72958   0.06639  -2.73078
   0.47519  -0.15807  -2.71582
   0.32555  -0.11318  -2.77567
   0.53505   0.20106  -2.29683
   0.11606  -0.02339  -2.25194
   0.17592   0.24595  -1.99756
  -0.07847  -0.02339  -1.89281
  -0.04854   0.24595  -1.89281
  -0.12336   0.08135  -1.47383
  -0.24307   0.24595  -1.48879
  -0.13832   0.29085  -1.00995
  -0.45256   0.09632  -1.02491
  -0.27300   0.33574  -0.68075
  -0.25803   0.24595  -0.44133
  -0.49745   0.08135  -0.50118
  -0.40767   0.26092  -0.17198
  -0.46752   0.00653   0.23204
  -0.55731   0.02150   0.26197
  -0.40767   0.06639   0.59117
  -0.54234  -0.09821   0.59117
  -0.42263  -0.02339   0.86052
  -0.49745  -0.08325   0.90541
  -0.36278   0.11128   1.24958
  -0.52738  -0.12814   1.21965
  -0.36278   0.03646   1.36929
  -0.72191  -0.12814   1.39922
  -0.48249   0.12624   1.68353
  -0.67702  -0.18799   1.60871
  -0.51242   0.08135   1.87806
  -0.70694  -0.20296   1.89302
  -0.49745   0.17114   2.13244
  -0.63213  -0.03836   2.17733
  -0.43760   0.29085   2.38682
  -0.63213   0.02150   2.37186
  -0.45256   0.35070   2.41675
  -0.48249   0.27588   2.55143
  -0.76680   0.03646   2.38682
  -0.75184   0.14121   2.32697
  -0.57227   0.08135   2.79085
  -0.76680  -0.17303   2.58135
  -0.58723  -0.15807   2.67114
  -0.48249  -0.08325   2.89559
  -0.75184  -0.47231   2.79085
  -0.97629  -0.56209   2.50653
  -0.78176  -0.47231   2.58135
  -0.88651  -0.44238   2.44668
  -0.52738  -0.30770   2.74595
  -0.58723  -0.42741   2.61128
  -0.73687  -0.41245   2.29704
  -0.48249  -0.35260   2.44668
  -0.66205  -0.62194   2.34193
  -0.46752  -0.32267   2.44668
  -0.60220  -0.54712   1.95288
  -0.16825  -0.15807   2.16237
  -0.16825  -0.23289   1.98280
  -0.03358  -0.23289   1.86309
   0.02628  -0.35260   1.57878
   0.16095  -0.12814   1.38425
  -0.06350  -0.24785   1.04009
   0.25074   0.02150   0.87548
   0.38541  -0.00843   0.98023
   0.28066  -0.27778   0.75577
   0.22081  -0.15807   0.24701
   0.57994  -0.05332   0.44154
   0.46023  -0.29274   0.23204
   0.26570  -0.24785  -0.29169
   0.63979  -0.11318  -0.23183
   0.52008  -0.33763  -0.53111
   0.46023  -0.20296  -1.03988
   0.78943  -0.12814  -0.86031
   0.55001  -0.53216  -1.12966
   0.68468  -0.17303  -1.39901
   0.71461  -0.17303  -1.41397
   0.72958  -0.14310  -1.50375
   0.53505  -0.41245  -1.84792
   0.57994  -0.00843  -2.07238
   0.71461   0.14121  -2.07238
   0.49016  -0.26281  -2.28187
   0.65476   0.08135  -2.37165
   0.71461   0.05143  -2.11727
   0.34052  -0.24785  -2.47640
   0.66972   0.23099  -2.34172
   0.68468   0.24595  -2.16216
   0.63979   0.36566  -2.20705
   0.53505   0.23099  -2.19209
   0.28066   0.20106  -2.47640
   0.59490   0.30581  -2.11727
   0.44526   0.12624  -2.01252
   0.25074  -0.05332  -2.14720
   0.16095  -0.20296  -1.96763
   0.37045   0.20106  -2.04245
   0.46023   0.24595  -1.71325
   0.32555   0.00653  -1.92274
   0.37045   0.02150  -1.81799
   0.13103   0.08135  -1.96763
   0.22081   0.17114  -1.53368
   0.08613   0.00653  -1.33915
  -0.16825  -0.35260  -1.41397
   0.11606  -0.05332  -1.32419
   0.04124  -0.29274  -1.36908
   0.16095  -0.00843  -1.41397
  -0.04854  -0.06828  -1.44390
   0.02628   0.06639  -0.99499
  -0.34781  -0.02339  -1.23441
  -0.19818   0.30581  -0.86031
  -0.40767   0.09632  -0.80046
  -0.28796   0.48537  -0.86031
  -0.40767   0.24595  -0.69571
  -0.33285   0.53027  -0.65082
  -0.51242   0.33574  -0.45629
  -0.58723   0.47041  -0.60593
  -0.55731   0.44048  -0.26176
  -0.91644   0.44048  -0.38147
  -0.84162   0.44048  -0.00738
  -1.02118   0.27588  -0.17198
  -0.85658   0.33574   0.21708
  -1.08104   0.18610   0.05248
  -0.90147   0.23099   0.48643
  -1.11097  -0.00843   0.38168
  -1.09600   0.03646   0.51635
  -0.90147   0.17114   0.98023
  -1.06608   0.21603   0.84556
  -0.94637   0.17114   1.24958
  -0.93140   0.41056   1.21965
  -0.99126   0.15617   1.38425
  -0.91644   0.33574   1.44411
  -0.99126   0.09632   1.71346
  -0.88651   0.21603   1.68353
  -0.91644  -0.02339   1.84813
  -1.02118  -0.09821   1.89302
  -0.85658   0.27588   1.99777
  -0.91644   0.11128   1.98280
  -0.73687   0.30581   2.02769
  -0.64709   0.20106   2.11748
  -0.78176  -0.08325   1.98280
  -0.66205   0.08135   1.74338
  -0.64709  -0.14310   1.93791
  -0.90147  -0.47231   1.63864
  -0.60220  -0.05332   1.62367
  -0.39271  -0.03836   1.74338
