********************************************************************************
               CENTRO DE INSTRUMENTACION Y REGISTRO SISMICO  A.C.  
                       Coordinacion de Servicios Tecnicos
     Anaxagoras 814, Col. Narvarte, Benito Juarez, C.P. 03020 Mexico, D.F.
            Tels. 687 45 42/ 687 45  82             Fax. 669 25 12
********************************************************************************
ARCHIVO ESTANDAR DE ACELERACION:
VERSION DEL FORMATO                    : 2.0
NOMBRE DEL ARCHIVO                     : AU469802.031
FECHA Y HORA DE CREACION               : 18/ENERO/2000
REF. CATALOGO ACELEROGRAMAS, SMIS 1996 : REGISTRO No.     /PAG.


================================================================================
DATOS DE LA ESTACION:
NOMBRE DE LA ESTACION                  : ANGEL URRAZA
CLAVE DE LA ESTACION                   : AU46
LOCALIZACION DE LA ESTACION            : Esc Sec Tec # 14, 5 de Mayo Av
                                       : Coyoacan y Angel Urraza, Col de
                                       : Valle, Benito Juarez
                                       :
                                       :
COORDENADAS DE LA ESTACION             : 19.383 LAT. N 
                                       : 99.168 LONG. W 
ALTITUD (msnm)                         : 2233
TIPO DE SUELO                          : TRANSICION
                                       : 
                                       : 
INSTITUCION RESPONSABLE                : CIRES
                                       :

================================================================================
DATOS DEL ACELEROGRAFO:
MODELO DEL ACELEROGRAFO                : RAD-851
NUMERO DE SERIE DEL ACELEROGRAFO       : 236
NUMERO DE CANALES                      : 3
ORIENTACION C1-C6 (rumbo;orientacion)  : /N00E/+V/N90W
ORIENTACION C7-C12 (rumbo;orientacion) :
VEL. DE MUESTREO, C1-C6 (muestras/s)   : /100/100/100
VEL. DE MUESTREO, C7-C12 (muestras/s)  :
ESC. COMPLETA DE SENSORES, C1-C6, (g)  : /0.5/0.5/0.5
ESC. COMPLETA DE SENSORES, C7-C12, (g) :
FREC. NAT. DE SENSORES, C1-C6, (Hz)    : /33/30/30
FREC. NAT. DE SENSORES, C7-C12, (Hz)   :
AMORTIGUAMIENTO DE SENSORES, C1-C6     : /0.735/0.733/0.730
AMORTIGUAMIENTO DE SENSORES, C7-C12    :
INTERVALO DE MUESTREO, C1-C6, (s)      : /0.01/0.01/0.01
INTERVALO DE MUESTREO, C7-C12, (s)     :
UMBRAL DE DISPARO, C1-C6, (Gal)        : /1.45/2.44/1.45
UMBRAL DE DISPARO, C7-C12, (Gal)       :
MEMORIA DE PREEVENTO (s)               : 8
TIEMPO DE POSEVENTO (s)                : 8


================================================================================
DATOS DEL SISMO:
FECHA DEL SISMO (GMT)                  : 03/FEB/98
HORA EPICENTRO (GMT)                   : 03:02:01.1
MAGNITUD(ES)                           : /Mb=6.0,Ms=6.2,Mc=6.4,Ma=6.4
COORDENADAS DEL EPICENTRO              : 15.69 LAT. N
                                       : 96.37 LONG. W
PROFUNDIDAD FOCAL (km)                 : 33.0
FUENTE DE LOS DATOS EPICENTRALES       : SSN
                                       : INSTITUTO DE GEOFISICA, UNAM

================================================================================
DATOS DE ESTE REGISTRO:
HORA DE LA PRIMERA MUESTRA (GMT)       : 03:04:31.00
EXACTITUD DEL TIEMPO (s)               : 0.01
DURACION DEL REGISTRO (s), C1-C6       : /110.75/110.75/110.75
DURACION DEL REGISTRO (s), C7-C12      :
NUM. TOTAL DE MUESTRAS, C1-C6          : /11075/11075/11075
NUM. TOTAL DE MUESTRAS, C7-C12         :
ACEL. MAX. (Gal), C1-C6                : /3.06130/0.80773/3.73277
ACEL. MAX., C1-C6, EN LA MUESTRA       :
ACEL. MAX. (Gal), C7-C12               :
ACEL. MAX., C7-C12, EN LA MUESTRA      :
UNIDADES DE LOS DATOS                  : Gal (cm/s/s)
FACTOR DE DECIMACION                   : 1
FORMATO DATOS (FORTRAN,10 campos/dato) : 3F10.5


================================================================================
CALIDAD DEL ACELEROGRAMA:
REGISTRO DIGITAL COMPLETO CON TIEMPO ABSOLUTO CORRECTO.


================================================================================
COMENTARIOS:














================================================================================
DATOS DE ACELERACION:
---------+---------+---------+---------+---------+---------+---------+---------+
   CANAL-1   CANAL-2   CANAL-3   CANAL-4   CANAL-5   CANAL-6   CANAL-7   CANAL-8
      N00E        +V      N90W
---------+---------+---------+---------+---------+---------+---------+---------+
[...]
  -0.42769   0.32890   2.49212
  -0.42769   0.08948   2.25270
  -0.18827   0.32890   2.25270
  -0.18827   0.32890   2.25270
  -0.18827   0.08948   2.01328
   0.05115   0.32890   1.77386
   0.05115   0.08948   2.01328
   0.05115   0.32890   1.53444
   0.29057   0.32890   1.29502
   0.29057   0.08948   1.29502
   0.29057   0.08948   1.05561
   0.52999   0.08948   0.81619
   0.52999   0.08948   0.81619
   0.29057   0.08948   0.81619
   0.29057   0.08948   0.57677
   0.52999   0.08948   0.57677
   0.29057   0.08948   0.57677
   0.29057   0.08948   0.33735
   0.29057  -0.14994   0.09793
   0.05115   0.08948  -0.14149
  -0.18827   0.08948  -0.38091
  -0.18827   0.08948  -0.62033
  -0.42769   0.08948  -0.38091
  -0.18827   0.08948  -0.85975
  -0.42769   0.08948  -0.85975
  -0.42769   0.08948  -1.09917
  -0.42769  -0.14994  -1.09917
  -0.42769  -0.14994  -1.33858
  -0.66711  -0.14994  -1.33858
  -0.66711  -0.14994  -1.33858
  -0.66711  -0.14994  -1.57800
  -0.66711  -0.14994  -1.33858
  -0.66711  -0.14994  -1.33858
  -0.66711  -0.14994  -1.57800
  -0.66711  -0.14994  -1.33858
  -0.90653  -0.14994  -1.33858
  -0.66711  -0.14994  -1.57800
  -0.66711  -0.14994  -1.57800
  -0.66711  -0.14994  -1.33858
  -0.42769  -0.38936  -1.09917
  -0.42769  -0.38936  -1.09917
  -0.42769  -0.38936  -0.85975
  -0.18827  -0.38936  -1.09917
  -0.18827  -0.14994  -1.09917
   0.05115  -0.38936  -0.85975
   0.29057  -0.38936  -0.85975
   0.29057  -0.38936  -0.38091
   0.29057  -0.38936  -0.38091
   0.29057  -0.14994  -0.38091
   0.52999  -0.14994  -0.14149
   0.52999  -0.14994   0.09793
   0.76940  -0.14994   0.09793
   1.00882   0.08948   0.09793
   0.76940   0.08948   0.33735
   1.00882   0.32890   0.57677
   1.24824   0.08948   0.57677
   1.24824   0.32890   0.81619
   1.24824   0.32890   1.05561
   1.24824   0.32890   1.05561
   1.24824   0.32890   1.29502
   1.00882   0.32890   1.29502
   1.24824   0.32890   1.29502
   1.24824   0.32890   1.29502
   1.24824   0.32890   1.53444
   1.00882   0.32890   1.77386
   1.00882   0.32890   1.77386
   0.76940   0.32890   1.77386
   1.00882   0.32890   1.77386
   1.00882   0.32890   1.77386
   0.76940   0.56831   1.77386
   0.52999   0.56831   1.53444
   0.52999   0.32890   1.29502
   0.52999   0.08948   1.29502
   0.76940   0.08948   1.29502
   0.76940   0.08948   1.05561
   0.76940  -0.14994   1.05561
   0.76940  -0.14994   1.05561
   0.76940  -0.14994   0.81619
   0.76940  -0.14994   0.57677
   0.76940   0.08948   0.33735
   0.76940  -0.14994   0.33735
   0.52999   0.08948   0.09793
   0.76940   0.08948   0.09793
   0.76940   0.08948   0.09793
   0.76940   0.08948   0.09793
   0.76940   0.08948   0.09793
   0.76940   0.32890  -0.14149
   0.76940   0.08948  -0.14149
   0.76940   0.08948   0.09793
   0.76940   0.08948  -0.14149
   0.76940  -0.14994  -0.14149
   0.76940  -0.14994  -0.14149
   0.52999  -0.14994  -0.38091
   0.52999  -0.38936  -0.38091
   0.52999  -0.38936  -0.38091
   0.29057  -0.38936  -0.38091
   0.29057  -0.38936  -0.38091
   0.29057  -0.14994  -0.38091
   0.29057  -0.38936  -0.62033
   0.05115  -0.14994  -0.62033
  -0.18827  -0.14994  -0.85975
  -0.18827  -0.14994  -0.85975
  -0.42769  -0.14994  -1.09917
  -0.66711  -0.14994  -1.33858
  -0.66711   0.08948  -1.33858
  -0.66711   0.08948  -1.33858
  -0.90653   0.08948  -1.33858
  -0.90653   0.08948  -1.57800
  -0.90653   0.32890  -1.57800
  -1.14595   0.32890  -1.81742
  -1.38537   0.32890  -1.57800
  -1.38537   0.08948  -1.81742
  -1.38537   0.32890  -1.81742
  -1.38537   0.08948  -1.81742
  -1.38537   0.08948  -1.81742
  -1.38537   0.08948  -1.81742
  -1.38537   0.08948  -1.81742
  -1.38537   0.32890  -1.57800
  -1.38537   0.08948  -1.57800
  -1.14595   0.08948  -1.33858
  -1.14595   0.32890  -1.09917
  -1.14595   0.08948  -1.09917
  -0.90653   0.32890  -0.85975
  -0.90653   0.32890  -0.62033
  -0.66711   0.32890  -0.38091
  -0.90653   0.56831   0.09793
  -0.90653   0.32890   0.57677
  -0.42769   0.32890   0.81619
  -0.42769   0.32890   1.05561
  -0.18827   0.32890   1.29502
  -0.18827   0.56831   1.53444
   0.05115   0.32890   1.53444
   0.05115   0.32890   1.77386
  -0.18827   0.32890   2.01328
   0.05115   0.32890   2.01328
   0.05115   0.32890   2.25270
   0.05115   0.08948   2.49212
   0.05115   0.32890   2.73154
   0.05115   0.08948   2.49212
   0.05115   0.08948   2.49212
   0.05115   0.08948   2.49212
   0.05115   0.08948   2.49212
   0.05115   0.08948   2.49212
   0.05115   0.08948   2.49212
  -0.18827   0.08948   2.49212
  -0.18827  -0.14994   2.25270
  -0.18827  -0.14994   2.01328
  -0.42769   0.08948   2.01328
  -0.42769   0.08948   1.77386
  -0.42769  -0.14994   1.77386
  -0.66711   0.08948   1.53444
  -0.66711  -0.14994   1.29502
  -0.66711  -0.14994   1.05561
  -0.90653  -0.14994   0.81619
  -0.90653  -0.14994   0.57677
  -0.90653  -0.14994   0.33735
  -0.90653  -0.14994  -0.14149
  -0.90653  -0.14994  -0.14149
  -0.90653  -0.14994  -0.38091
  -0.90653  -0.14994  -0.62033
  -0.66711  -0.14994  -0.85975
  -0.66711  -0.14994  -1.09917
  -0.42769  -0.14994  -1.33858
  -0.42769  -0.14994  -1.33858
  -0.18827  -0.14994  -1.57800
   0.05115  -0.14994  -1.57800
   0.29057  -0.14994  -1.33858
   0.29057  -0.14994  -1.33858
   0.76940   0.08948  -1.33858
   0.76940   0.08948  -1.33858
   1.00882   0.08948  -1.33858
   1.00882   0.08948  -1.57800
   1.00882   0.08948  -1.33858
   1.48766   0.08948  -1.57800
   1.72708   0.08948  -1.33858
   1.72708   0.32890  -1.33858
   1.72708   0.32890  -1.33858
   1.72708   0.56831  -1.57800
   1.96650   0.32890  -1.57800
   1.96650   0.32890  -1.57800
   2.20592   0.32890  -1.33858
   2.20592   0.56831  -1.09917
   2.44534   0.32890  -1.33858
   2.44534   0.32890  -1.09917
   2.44534   0.08948  -1.09917
   2.20592   0.32890  -1.09917
   2.20592   0.32890  -0.85975
   2.20592   0.08948  -0.85975
   2.20592   0.08948  -0.62033
   2.20592   0.08948  -0.62033
   1.96650   0.08948  -0.62033
   1.72708   0.08948  -0.38091
   1.96650   0.08948  -0.14149
   1.72708   0.08948   0.09793
   1.72708  -0.14994   0.09793
   1.48766  -0.14994   0.09793
   1.48766  -0.38936   0.09793
   1.48766  -0.38936   0.33735
   1.48766  -0.38936   0.33735
   1.00882  -0.38936   0.57677
   1.00882  -0.38936   0.57677
   1.00882  -0.38936   0.81619
   0.52999  -0.62878   0.81619
   1.00882  -0.38936   0.57677
   0.76940  -0.38936   0.81619
   0.52999  -0.38936   1.05561
   0.29057  -0.38936   1.05561
   0.29057  -0.38936   1.05561
   0.05115  -0.38936   1.05561
   0.05115  -0.38936   1.29502
  -0.18827  -0.38936   1.29502
  -0.66711  -0.38936   1.29502
  -0.66711  -0.38936   1.05561
  -1.14595  -0.38936   1.05561
  -1.14595  -0.14994   1.05561
  -1.38537   0.08948   1.05561
  -1.62478   0.08948   1.05561
  -1.86420   0.08948   0.81619
  -2.10362   0.08948   0.81619
  -2.10362  -0.14994   0.57677
  -2.34304   0.08948   0.33735
  -2.34304   0.08948   0.33735
  -2.58246   0.08948   0.33735
  -2.58246  -0.14994   0.33735
  -2.58246  -0.14994   0.33735
  -2.58246   0.08948   0.09793
  -2.82188  -0.14994   0.09793
  -2.82188  -0.14994   0.09793
  -3.06130  -0.14994   0.33735
  -2.82188  -0.38936   0.09793
  -2.82188  -0.38936  -0.14149
  -2.82188  -0.38936  -0.14149
  -2.82188  -0.38936  -0.14149
  -2.58246  -0.14994  -0.14149
  -2.58246  -0.14994   0.09793
  -2.58246  -0.14994   0.09793
  -2.58246   0.08948   0.09793
  -2.58246   0.08948  -0.14149
  -2.34304   0.08948   0.09793
  -2.10362   0.08948   0.09793
  -2.10362   0.08948  -0.14149
  -1.86420   0.08948   0.09793
  -1.86420   0.32890   0.09793
  -1.62478   0.32890  -0.14149
  -1.38537   0.32890  -0.14149
  -1.14595   0.32890  -0.14149
  -1.14595   0.32890  -0.14149
  -1.14595   0.56831  -0.14149
  -1.14595   0.32890   0.09793
  -0.66711   0.32890  -0.14149
  -0.66711   0.32890  -0.14149
  -0.66711   0.32890  -0.14149
  -0.42769   0.32890  -0.38091
  -0.42769   0.32890  -0.14149
  -0.42769   0.32890  -0.14149
   0.05115   0.32890  -0.38091
   0.29057   0.08948  -0.62033
   0.29057   0.32890  -0.85975
   0.52999   0.08948  -0.85975
   0.29057   0.08948  -0.85975
   0.29057  -0.14994  -0.85975
   0.52999  -0.14994  -0.85975
   0.52999  -0.14994  -0.85975
   0.76940  -0.14994  -1.09917
   1.00882  -0.14994  -1.09917
   1.00882  -0.14994  -1.33858
   1.00882  -0.14994  -1.33858
   1.00882  -0.14994  -1.09917
   1.00882   0.08948  -1.09917
   1.24824   0.08948  -0.85975
   1.24824  -0.14994  -0.85975
   1.48766   0.08948  -0.85975
   1.48766   0.08948  -0.85975
   1.72708   0.08948  -0.62033
   1.72708   0.08948  -0.62033
   1.96650   0.08948  -0.62033
   1.72708   0.08948  -0.38091
   1.96650  -0.14994  -0.62033
   2.20592   0.08948  -0.38091
   2.20592   0.08948  -0.14149
   2.20592  -0.14994   0.09793
   2.20592   0.08948   0.33735
   2.20592  -0.14994   0.33735
   2.44534  -0.14994   0.33735
   2.44534   0.08948   0.09793
   2.44534   0.32890   0.33735
   2.68476   0.08948   0.33735
   2.68476   0.08948   0.57677
   2.44534   0.32890   0.57677
   2.44534   0.08948   0.57677
   2.44534   0.08948   0.57677
   2.44534   0.32890   0.57677
   2.20592   0.32890   0.81619
   2.20592   0.32890   0.81619
   1.96650   0.08948   1.05561
   1.96650   0.08948   1.29502
   1.96650   0.08948   1.29502
   1.72708   0.32890   1.29502
   1.48766   0.08948   1.29502
   1.48766  -0.14994   1.29502
   1.24824   0.08948   1.29502
   1.24824  -0.14994   1.29502
   1.00882   0.08948   1.29502
   0.76940   0.08948   1.53444
   0.52999   0.08948   1.53444
   0.52999  -0.14994   1.77386
   0.52999  -0.14994   1.53444
   0.29057  -0.14994   1.77386
   0.29057  -0.14994   1.77386
   0.29057  -0.14994   1.77386
   0.29057   0.08948   1.77386
   0.05115   0.08948   1.77386
  -0.18827   0.08948   1.77386
  -0.18827   0.08948   1.53444
  -0.18827   0.08948   1.53444
  -0.18827   0.08948   1.77386
  -0.18827   0.08948   1.53444
  -0.42769   0.08948   1.53444
  -0.42769   0.08948   1.29502
  -0.66711   0.08948   1.29502
  -0.90653   0.08948   1.05561
  -0.90653   0.08948   1.05561
  -1.14595   0.08948   1.05561
  -1.14595   0.08948   0.81619
  -1.38537   0.08948   0.81619
  -1.62478   0.32890   0.57677
  -1.62478   0.32890   0.33735
  -1.62478   0.32890   0.33735
  -1.62478   0.32890   0.33735
  -1.62478   0.32890   0.33735
  -1.86420   0.56831  -0.14149
  -1.86420   0.56831  -0.38091
  -1.86420   0.32890  -0.62033
  -1.86420   0.32890  -0.85975
  -1.86420   0.32890  -1.09917
  -1.86420   0.32890  -1.09917
  -1.86420   0.32890  -1.09917
  -1.62478   0.32890  -1.57800
  -1.86420   0.08948  -1.81742
  -1.62478  -0.14994  -1.81742
  -1.62478  -0.14994  -2.05684
  -1.62478  -0.38936  -2.29626
  -1.38537  -0.14994  -2.53568
  -1.38537  -0.14994  -2.77510
  -1.38537  -0.14994  -3.01452
  -1.14595  -0.14994  -3.01452
  -1.38537  -0.14994  -3.25394
  -1.14595  -0.14994  -3.49335
  -1.14595  -0.38936  -3.49335
  -0.66711  -0.38936  -3.73277
  -0.66711  -0.14994  -3.73277
   0.05115  -0.14994  -3.73277
   0.29057  -0.14994  -3.73277
   0.29057  -0.14994  -3.73277
   0.29057  -0.14994  -3.73277
   0.52999   0.08948  -3.73277
   0.52999   0.08948  -3.73277
   0.52999   0.08948  -3.49335
   0.76940  -0.14994  -3.25394
   0.76940   0.08948  -3.01452
   1.00882   0.08948  -2.77510
   1.00882   0.32890  -2.53568
   0.76940   0.32890  -2.29626
   1.00882   0.32890  -1.81742
   1.00882   0.32890  -1.57800
   0.76940   0.32890  -1.09917
   0.76940   0.32890  -0.85975
   0.76940   0.32890  -0.85975
   0.76940   0.32890  -0.62033
   0.76940   0.32890  -0.38091
   0.76940   0.08948  -0.14149
   1.00882   0.08948   0.09793
   0.76940   0.08948   0.33735
   0.76940   0.08948   0.57677
   1.00882   0.08948   0.81619
   1.00882   0.08948   0.81619
   1.00882   0.08948   1.29502
   0.76940   0.08948   1.29502
   1.00882  -0.14994   1.53444
   0.76940  -0.14994   2.01328
   1.00882   0.08948   2.01328
   0.76940   0.08948   2.01328
   0.76940   0.08948   2.01328
   0.52999   0.08948   2.25270
   0.52999  -0.14994   2.49212
   0.29057   0.08948   2.49212
   0.29057  -0.14994   2.73154
   0.05115  -0.14994   2.97096
   0.05115   0.08948   2.97096
  -0.18827   0.08948   2.97096
  -0.18827  -0.14994   2.97096
  -0.42769   0.08948   2.97096
  -0.42769   0.08948   2.97096
  -0.42769  -0.14994   3.21038
  -0.66711  -0.14994   3.21038
  -0.66711  -0.14994   3.21038
  -0.90653  -0.38936   2.97096
  -0.90653  -0.38936   2.97096
  -1.14595  -0.38936   2.73154
  -1.14595  -0.38936   2.49212
  -1.38537  -0.38936   2.25270
  -1.62478  -0.38936   2.25270
  -1.62478  -0.38936   2.01328
  -1.62478  -0.38936   1.77386
  -1.62478  -0.14994   1.53444
  -1.86420  -0.14994   1.29502
  -1.86420  -0.14994   1.29502
  -1.86420   0.08948   1.05561
  -2.10362   0.08948   1.05561
  -1.86420   0.08948   1.05561
  -1.62478   0.32890   0.81619
  -1.62478   0.32890   0.57677
  -1.62478   0.32890   0.33735
  -1.62478   0.32890   0.09793
  -1.38537   0.32890   0.09793
  -1.38537   0.32890   0.09793
  -1.38537   0.32890  -0.14149
  -1.38537   0.32890  -0.14149
  -1.14595   0.32890  -0.38091
  -1.14595   0.08948  -0.38091
  -1.14595   0.32890  -0.38091
  -0.90653   0.08948  -0.62033
  -0.66711   0.32890  -0.62033
  -0.66711   0.08948  -0.62033
  -0.42769   0.08948  -0.85975
  -0.42769   0.32890  -0.85975
  -0.18827   0.32890  -0.85975
   0.05115   0.08948  -1.09917
   0.05115   0.32890  -0.85975
   0.29057   0.32890  -0.85975
   0.29057   0.08948  -0.85975
   0.52999   0.32890  -0.85975
   0.52999   0.32890  -0.85975
   0.76940   0.08948  -0.85975
   0.76940   0.32890  -0.85975
   0.76940   0.32890  -0.62033
   1.00882   0.08948  -0.62033
   1.00882   0.08948  -0.85975
   1.00882  -0.14994  -0.62033
   1.24824   0.08948  -0.62033
   1.00882   0.08948  -0.62033
   1.00882   0.08948  -0.62033
   1.00882  -0.14994  -0.62033
   1.00882  -0.14994  -0.85975
   1.00882  -0.38936  -0.85975
   1.00882  -0.38936  -0.85975
   1.24824  -0.14994  -0.85975
   1.00882  -0.38936  -0.85975
   1.00882  -0.38936  -0.85975
   1.00882  -0.62878  -1.09917
   0.76940  -0.38936  -1.09917
   0.52999  -0.62878  -1.09917
   0.76940  -0.62878  -1.33858
   0.52999  -0.62878  -1.33858
   0.52999  -0.62878  -1.33858
   0.52999  -0.38936  -1.33858
   0.29057  -0.38936  -1.33858
   0.05115  -0.38936  -1.57800
   0.29057  -0.38936  -1.57800
   0.29057  -0.38936  -1.57800
   0.29057  -0.14994  -1.57800
   0.29057  -0.14994  -1.57800
   0.29057  -0.14994  -1.81742
   0.29057  -0.14994  -1.57800
   0.29057  -0.14994  -1.81742
   0.29057   0.08948  -1.81742
   0.52999   0.32890  -1.81742
   0.52999   0.08948  -1.81742
   0.52999   0.32890  -1.81742
   0.76940   0.32890  -1.57800
   0.52999   0.32890  -1.57800
   0.52999   0.32890  -1.33858
   0.52999   0.32890  -1.09917
   0.52999   0.08948  -0.85975
   0.52999   0.32890  -0.85975
   0.76940   0.32890  -0.62033
   0.76940   0.32890  -0.62033
   0.76940   0.08948  -0.38091
   0.76940   0.32890  -0.14149
   0.76940   0.32890   0.09793
   1.00882   0.08948   0.09793
   1.00882   0.08948   0.33735
   0.76940   0.32890   0.57677
   1.00882   0.32890   0.57677
   0.76940   0.08948   1.05561
   0.76940   0.08948   1.05561
   0.76940   0.08948   1.29502
   0.76940  -0.14994   1.77386
   0.76940   0.08948   1.53444
   0.76940  -0.14994   2.01328
   0.52999  -0.14994   2.25270
   0.52999  -0.14994   2.01328
   0.52999  -0.14994   2.25270
   0.52999  -0.14994   2.25270
   0.52999  -0.14994   2.49212
   0.05115  -0.14994   2.49212
   0.05115  -0.14994   2.49212
   0.05115  -0.14994   2.49212
  -0.18827  -0.14994   2.25270
