********************************************************************************
              CENTRO DE INSTRUMENTACION Y REGISTRO SISMICO  A.C.

    Anaxagoras 814, Col. Narvarte, Benito Juarez, C.P. 03020 Mexico, D.F.
           Tels. 5687 45 42/ 5687 45  82             Fax. 5669 25 12
********************************************************************************
ARCHIVO ESTANDAR DE ACELERACION:
VERSION DEL FORMATO                    : 2.0
NOMBRE DEL ARCHIVO                     : AU4620170923125259
FECHA Y HORA DE CREACION               : 20/OCT/17, 12:49
REF. CATALOGO ACELEROGRAMAS, SMIS 1996 : REGISTRO No.     /PAG.


================================================================================
DATOS DE LA ESTACION:
NOMBRE DE LA ESTACION                  : ESC. SEC. TÉC. NO. 14
CLAVE DE LA ESTACION                   : AU46
LOCALIZACION DE LA ESTACION            : Del. Benito Juárez, Col. del Valle,    
                                       : Entre Angel Urraza y Coyoacán.         
                                       :                                        
                                       :                                        
                                       : 
COORDENADAS DE LA ESTACION             : 19.3832 LAT. N
                                       : 99.1681 LONG. W
ALTITUD (msnm)                         : 2233
TIPO DE SUELO                          : Transición                          
                                       :                           
                                       : 
INSTITUCION RESPONSABLE                : CIRES
                                       : 

================================================================================
DATOS DEL ACELEROGRAFO:
MODELO DEL ACELEROGRAFO                : RADESD
NUMERO DE SERIE DEL ACELEROGRAFO       : 236
NUMERO DE CANALES                      : 3
ORIENTACION C1-C6 (rumbo;orientacion)  : /N00E/+V/N90W
ORIENTACION C7-C12 (rumbo;orientacion) : 
VEL. DE MUESTREO, C1-C6 (muestras/s)   : /100/100/100
VEL. DE MUESTREO, C7-C12 (muestras/s)  : 
ESC. COMPLETA DE SENSORES, C1-C6, (g)  : /0.5/0.5/0.5
ESC. COMPLETA DE SENSORES, C7-C12, (g) : 
FREC. NAT. DE SENSORES, C1-C6, (Hz)    : /33/30/30
FREC. NAT. DE SENSORES, C7-C12, (Hz)   : 
AMORTIGUAMIENTO DE SENSORES, C1-C6     : /0.735/0.733/0.730
AMORTIGUAMIENTO DE SENSORES, C7-C12    : 
INTERVALO DE MUESTREO, C1-C6, (s)      : /0.01/0.01/0.01
INTERVALO DE MUESTREO, C7-C12, (s)     : 
UMBRAL DE DISPARO, C1-C6, (Gal)        : /1.35/4.49/1.5
UMBRAL DE DISPARO, C7-C12, (Gal)       : 
MEMORIA DE PREEVENTO (s)               : 44.0
TIEMPO DE POSEVENTO (s)                : 140.0


================================================================================
DATOS DEL SISMO:
FECHA DEL SISMO (GMT)                  : 23/SEP/17
HORA EPICENTRO (GMT)                   : 12:52:59.0
MAGNITUD(ES)                           : /Mc=6.1
COORDENADAS DEL EPICENTRO              : 16.48 LAT. N
                                       : 94.90 LONG. W
PROFUNDIDAD FOCAL (km)                 : 75
FUENTE DE LOS DATOS EPICENTRALES       : SSN
                                       : INSTITUTO DE GEOFISICA, UNAM

================================================================================
DATOS DE ESTE REGISTRO:
HORA DE LA PRIMERA MUESTRA (GMT)       : 12:55:41.00
EXACTITUD DEL TIEMPO (s)               : 0.01
DURACION DEL REGISTRO (s), C1-C6       : /131.4/131.4/131.4
DURACION DEL REGISTRO (s), C7-C12      : 
NUM. TOTAL DE MUESTRAS, C1-C6          : /13140/13140/13140
NUM. TOTAL DE MUESTRAS, C7-C12         : 
ACEL. MAX. (Gal), C1-C6                : /1.88627/0.63135/1.27553
ACEL. MAX., C1-C6, EN LA MUESTRA       : /4770/10607/7061
ACEL. MAX. (Gal), C7-C12               : 
ACEL. MAX., C7-C12, EN LA MUESTRA      : 
UNIDADES DE LOS DATOS                  : Gal (cm/s/s)
FACTOR DE DECIMACION                   : 1
FORMATO DATOS (FORTRAN,10 campos/dato) : 3F10.5


================================================================================
CALIDAD DEL ACELEROGRAMA:
REGISTRO DIGITAL COMPLETO CON TIEMPO ABSOLUTO CORRECTO.


================================================================================
COMENTARIOS:














================================================================================
DATOS DE ACELERACION:
---------+---------+---------+---------+---------+---------+---------+---------+
   CANAL-1   CANAL-2   CANAL-3   CANAL-4   CANAL-5   CANAL-6   CANAL-7   CANAL-8
      N00E        +V      N90W
---------+---------+---------+---------+---------+---------+---------+---------+
[...]
   0.62764  -0.06273  -0.33281
   0.80721  -0.04776  -0.10836
   0.71743  -0.04776  -0.12332
   0.76232  -0.04776  -0.18317
   0.83714  -0.00287  -0.16821
   0.86706  -0.10762  -0.12332
   0.88203   0.01209  -0.07843
   0.85210  -0.03280  -0.09339
   1.09152  -0.04776   0.16099
   0.94188   0.04202  -0.09339
   1.01670  -0.01784   0.04128
   0.91196  -0.03280   0.05625
   0.89699  -0.06273   0.07121
   0.97181   0.01209   0.14603
   0.80721   0.02706   0.08617
   0.62764  -0.13755   0.05625
   0.70246  -0.03280   0.20588
   0.59772  -0.12258   0.17596
   0.40319  -0.13755   0.13107
   0.37326  -0.07769   0.29567
   0.40319   0.08691   0.23581
   0.20866  -0.13755   0.34056
   0.28348   0.07195   0.40041
   0.20866  -0.00287   0.47523
   0.01413  -0.03280   0.37049
   0.07399   0.05698   0.52012
  -0.04572   0.02706   0.50516
  -0.06069   0.11684   0.62487
  -0.24025   0.14677   0.60991
  -0.33004   0.10187   0.68472
  -0.47967  -0.04776   0.72962
  -0.52457   0.16173   0.68472
  -0.56946   0.13180   0.81940
  -0.73406   0.16173   0.75954
  -0.85377   0.01209   0.75954
  -0.76399   0.05698   0.87925
  -0.76399   0.17669   0.87925
  -0.76399   0.10187   0.95407
  -0.80888  -0.03280   0.89422
  -0.91362  -0.01784   0.78947
  -0.80888   0.02706   0.83436
  -0.83880   0.08691   0.63983
  -0.73406   0.04202   0.65480
  -0.77895   0.05698   0.53509
  -0.89866  -0.09265   0.31063
  -0.73406   0.02706   0.34056
  -0.83880  -0.13755   0.26574
  -0.92859  -0.19740   0.22085
  -0.89866  -0.19740   0.04128
  -0.70413  -0.15251   0.10114
  -0.61435  -0.10762   0.14603
  -0.64428  -0.33207   0.10114
  -0.47967  -0.15251  -0.00361
  -0.41982  -0.31711   0.14603
  -0.24025  -0.13755  -0.04850
  -0.10558  -0.13755   0.07121
  -0.09062  -0.16747  -0.06346
  -0.07565  -0.22733  -0.03354
  -0.07565  -0.19740  -0.19814
   0.01413  -0.18244  -0.12332
   0.01413  -0.06273  -0.28792
   0.01413  -0.06273  -0.48245
   0.10391  -0.06273  -0.30288
   0.11888  -0.09265  -0.39267
   0.23859   0.01209  -0.42259
   0.23859  -0.06273  -0.46749
   0.11888  -0.12258  -0.55727
   0.29844   0.13180  -0.48245
   0.32837  -0.03280  -0.46749
   0.34333  -0.06273  -0.51238
   0.49297   0.07195  -0.34778
   0.47801  -0.06273  -0.30288
   0.68750  -0.03280  -0.34778
   0.67254   0.01209  -0.28792
   0.71743  -0.04776  -0.31785
   0.88203  -0.09265  -0.13828
   0.88203  -0.07769  -0.21310
   0.98677   0.02706  -0.09339
   0.97181  -0.04776  -0.21310
   1.00174  -0.09265  -0.19814
   0.89699  -0.18244  -0.19814
   0.97181  -0.06273  -0.19814
   0.97181  -0.15251  -0.18317
   0.89699  -0.34704  -0.10836
   0.95685  -0.09265  -0.21310
   1.12145   0.05698  -0.01857
   1.15138   0.04202   0.02632
   0.97181  -0.07769  -0.04850
   0.88203  -0.06273  -0.03354
   1.06159   0.01209   0.13107
   0.89699  -0.00287   0.08617
   0.82217  -0.21236   0.20588
   0.71743  -0.12258   0.07121
   0.82217  -0.00287   0.26574
   0.82217   0.10187   0.28070
   0.74735  -0.03280   0.20588
   0.70246  -0.03280   0.28070
   0.46304  -0.24229   0.28070
   0.52290  -0.15251   0.34056
   0.41815  -0.13755   0.28070
   0.40319  -0.13755   0.38545
   0.28348  -0.22733   0.41538
   0.16377  -0.19740   0.34056
   0.08895  -0.13755   0.29567
   0.08895  -0.04776   0.46027
  -0.16543  -0.18244   0.31063
  -0.21033  -0.19740   0.44530
  -0.30011  -0.06273   0.37049
  -0.37493  -0.07769   0.34056
  -0.62931  -0.07769   0.17596
  -0.50960  -0.01784   0.29567
  -0.73406  -0.04776   0.22085
  -0.80888  -0.09265   0.23581
  -0.88370  -0.00287   0.22085
  -0.95851  -0.21236   0.16099
  -0.95851  -0.07769   0.16099
  -1.09319  -0.12258   0.04128
  -1.03333  -0.03280   0.01135
  -1.16801  -0.13755   0.19092
  -1.28772  -0.12258   0.11610
  -1.19793  -0.13755   0.01135
  -1.21290   0.01209  -0.00361
  -1.13808  -0.00287   0.08617
  -1.33261  -0.04776  -0.07843
  -1.24283  -0.07769  -0.01857
  -1.34757   0.04202  -0.06346
  -1.27275  -0.01784  -0.16821
  -1.25779  -0.04776  -0.09339
  -1.18297   0.04202  -0.00361
  -1.15304   0.01209  -0.09339
  -1.10815  -0.00287  -0.03354
  -1.06326  -0.01784  -0.25799
  -1.06326  -0.06273  -0.27296
  -0.94355  -0.10762  -0.15325
  -0.91362  -0.10762  -0.21310
  -0.79391  -0.21236  -0.10836
  -0.83880  -0.18244  -0.33281
  -0.68917  -0.07769  -0.24303
  -0.52457  -0.03280  -0.33281
  -0.47967  -0.06273  -0.31785
  -0.35996  -0.06273  -0.28792
  -0.22529  -0.10762  -0.25799
  -0.09062   0.07195  -0.31785
  -0.12054  -0.01784  -0.28792
  -0.04572   0.07195  -0.45252
   0.17873  -0.03280  -0.25799
   0.17873  -0.15251  -0.28792
   0.35830   0.01209  -0.31785
   0.47801  -0.01784  -0.33281
   0.52290  -0.12258  -0.31785
   0.68750  -0.06273  -0.16821
   0.67254  -0.12258  -0.33281
   0.74735  -0.22733  -0.34778
   0.89699  -0.09265  -0.27296
   1.00174  -0.09265  -0.25799
   0.97181  -0.09265  -0.28792
   1.13641  -0.09265  -0.21310
   1.21123  -0.03280  -0.16821
   1.27109   0.11684  -0.28792
   1.31598   0.02706  -0.18317
   1.10648  -0.01784  -0.25799
   1.18130   0.08691  -0.16821
   1.25612   0.19166  -0.15325
   1.22619   0.02706  -0.15325
   1.07656   0.04202  -0.10836
   1.18130   0.13180  -0.01857
   1.16634   0.11684  -0.01857
   1.12145   0.11684   0.05625
   1.01670   0.08691  -0.07843
   0.97181   0.08691   0.04128
   0.91196   0.08691   0.02632
   0.85210   0.10187   0.16099
   0.83714   0.07195   0.08617
   0.79225   0.11684   0.17596
   0.62764   0.04202   0.19092
   0.53786   0.05698   0.22085
   0.29844  -0.09265   0.13107
   0.31341   0.04202   0.07121
   0.35830   0.07195   0.17596
   0.16377   0.05698   0.10114
  -0.03076  -0.16747   0.20588
  -0.01580   0.01209   0.14603
  -0.22529   0.02706   0.08617
  -0.31507  -0.00287   0.16099
  -0.33004  -0.03280   0.25078
  -0.43478  -0.06273   0.23581
  -0.65924  -0.09265   0.07121
  -0.65924   0.02706   0.14603
  -0.61435  -0.10762   0.07121
  -0.70413  -0.04776   0.25078
  -0.86873  -0.06273   0.08617
  -0.80888   0.02706   0.08617
  -0.91362   0.02706  -0.06346
  -1.07822  -0.04776  -0.13828
  -0.98844   0.07195  -0.13828
  -0.94355  -0.00287  -0.01857
  -0.94355   0.04202  -0.10836
  -0.94355   0.22158  -0.07843
  -1.07822  -0.10762  -0.06346
  -0.92859   0.01209  -0.09339
  -0.94355  -0.10762  -0.09339
  -0.85377  -0.04776   0.04128
  -0.92859  -0.15251  -0.09339
  -0.77895   0.04202  -0.10836
  -0.59938  -0.04776   0.13107
  -0.64428  -0.06273   0.02632
  -0.50960   0.02706   0.01135
  -0.41982   0.02706  -0.03354
  -0.33004  -0.00287   0.10114
  -0.12054   0.07195   0.11610
  -8.3E-40  -0.00287   0.13107
   0.13384  -0.06273   0.16099
   0.20866  -0.07769   0.22085
   0.41815   0.07195   0.29567
   0.44808  -0.03280   0.26574
   0.70246   0.14677   0.43034
   0.68750   0.07195   0.25078
   0.76232   0.10187   0.37049
   0.86706   0.11684   0.35552
   0.94188   0.05698   0.43034
   1.06159   0.07195   0.46027
   0.98677   0.04202   0.32559
   0.91196  -0.01784   0.28070
   0.98677   0.05698   0.26574
   1.12145   0.19166   0.25078
   1.10648   0.23655   0.20588
   1.07656   0.11684   0.25078
   1.03167   0.19166   0.01135
   1.00174   0.11684   0.08617
   0.98677   0.11684   0.04128
   0.94188   0.22158  -0.03354
   0.86706   0.29640  -0.10836
   0.73239   0.25151  -0.07843
   0.58275   0.13180  -0.21310
   0.59772   0.05698  -0.04850
   0.53786   0.13180  -0.07843
   0.37326  -0.00287  -0.30288
   0.29844   0.17669  -0.36274
   0.38822   0.20662  -0.22807
   0.11888   0.07195  -0.33281
   0.11888   0.10187  -0.37770
  -8.3E-40  -0.01784  -0.48245
  -0.13551   0.01209  -0.43756
  -0.03076   0.10187  -0.39267
  -0.19536   0.02706  -0.51238
  -0.33004  -0.07769  -0.57223
  -0.21033   0.14677  -0.49741
  -0.35996  -0.00287  -0.46749
  -0.33004   0.01209  -0.46749
  -0.40486  -0.00287  -0.37770
  -0.40486  -0.03280  -0.34778
  -0.68917  -0.15251  -0.39267
  -0.64428  -0.01784  -0.25799
  -0.64428   0.04202  -0.22807
  -0.71909  -0.03280  -0.15325
  -0.88370   0.04202  -0.21310
  -0.92859   0.01209  -0.19814
  -1.03333  -0.15251  -0.15325
  -1.01837  -0.07769  -0.18317
  -1.00341  -0.06273  -0.04850
  -1.00341   0.01209  -0.07843
  -1.04830  -0.07769  -0.19814
  -0.97348   0.04202  -0.07843
  -1.01837   0.05698  -0.27296
  -0.83880   0.04202  -0.03354
  -0.95851  -0.01784  -0.27296
  -0.76399   0.16173  -0.12332
  -0.77895   0.23655  -0.18317
  -0.76399   0.01209  -0.10836
  -0.65924   0.13180  -0.09339
  -0.50960   0.10187   0.08617
  -0.50960   0.16173   0.04128
  -0.61435   0.10187  -0.07843
  -0.41982   0.14677  -0.04850
  -0.34500   0.05698   0.07121
  -0.33004   0.14677  -0.07843
  -0.30011   0.04202  -0.01857
  -0.21033   0.17669  -0.04850
   0.13384   0.19166   0.17596
  -0.03076   0.07195  -0.00361
   0.19370   0.31137   0.14603
   0.26851   0.13180   0.20588
   0.22362   0.20662   0.19092
   0.41815   0.17669   0.23581
   0.43312   0.26648   0.31063
   0.46304   0.29640   0.25078
   0.40319   0.14677   0.29567
   0.44808   0.10187   0.14603
   0.52290   0.16173   0.23581
   0.68750   0.01209   0.35552
   0.77728   0.10187   0.37049
   0.77728   0.10187   0.26574
   0.95685  -0.01784   0.25078
   0.95685   0.11684   0.31063
   1.03167   0.10187   0.28070
   1.09152   0.08691   0.26574
   1.22619  -0.07769   0.34056
   1.21123   0.10187   0.17596
   1.30101   0.04202   0.19092
   1.34590   0.19166   0.07121
   1.34590   0.01209   0.08617
   1.43569   0.02706   0.08617
   1.34590  -0.01784   0.01135
   1.43569   0.01209  -0.07843
   1.45065   0.01209  -0.03354
   1.45065  -0.06273  -0.19814
   1.40576  -0.03280  -0.22807
   1.40576  -0.03280  -0.22807
   1.31598   0.01209  -0.48245
   1.18130  -0.10762  -0.55727
   1.13641  -0.10762  -0.57223
   0.92692  -0.31711  -0.78172
   0.98677  -0.27222  -0.75180
   0.88203  -0.40689  -0.69194
   0.91196  -0.33207  -0.69194
   0.70246  -0.36200  -0.82662
   0.83714  -0.30215  -0.70691
   0.65757  -0.39193  -0.88647
   0.58275  -0.39193  -0.82662
   0.43312  -0.40689  -1.05107
   0.44808  -0.33207  -0.82662
   0.40319  -0.33207  -0.72187
   0.34333  -0.27222  -0.73683
   0.17873  -0.36200  -0.70691
  -8.3E-40  -0.13755  -0.73683
  -0.07565  -0.19740  -0.67698
  -0.34500  -0.30215  -0.63209
  -0.38989  -0.15251  -0.67698
  -0.47967  -0.12258  -0.54230
  -0.70413  -0.10762  -0.49741
  -0.83880  -0.16747  -0.48245
  -0.86873   0.01209  -0.49741
  -1.06326  -0.07769  -0.39267
  -1.19793   0.02706  -0.37770
  -1.25779  -0.03280  -0.30288
  -1.34757   0.01209  -0.31785
  -1.30268   0.08691  -0.06346
  -1.39246  -0.00287  -0.01857
  -1.49721   0.07195  -0.03354
  -1.67677  -0.07769  -0.06346
  -1.69174   0.04202   0.05625
  -1.69174   0.11684   0.05625
  -1.72167   0.04202   0.13107
  -1.79648   0.02706   0.32559
  -1.82641  -0.00287   0.35552
  -1.81145   0.17669   0.20588
  -1.88627   0.04202   0.32559
  -1.84138   0.10187   0.44530
  -1.88627   0.01209   0.43034
  -1.72167   0.16173   0.60991
  -1.72167   0.11684   0.69969
  -1.79648  -0.00287   0.62487
  -1.82641   0.11684   0.65480
  -1.78152   0.04202   0.80443
  -1.72167   0.07195   0.86429
  -1.73663   0.01209   0.93911
  -1.78152  -0.16747   1.01393
  -1.67677   0.08691   0.98400
  -1.58699  -0.04776   1.05882
  -1.58699  -0.03280   0.98400
  -1.60196  -0.13755   1.02889
  -1.49721  -0.00287   0.92414
  -1.34757  -0.15251   1.02889
  -1.15304   0.14677   1.04385
  -1.03333  -0.04776   1.08875
  -0.89866   0.05698   1.08875
  -0.77895  -0.03280   0.95407
  -0.58442   0.04202   1.05882
  -0.55449  -0.13755   0.78947
  -0.38989  -0.06273   0.87925
  -0.19536  -0.01784   0.81940
  -0.10558  -0.10762   0.74458
   0.19370   0.07195   0.84933
   0.26851   0.02706   0.68472
   0.28348  -0.06273   0.57998
   0.32837  -0.00287   0.52012
   0.55283  -0.03280   0.43034
   0.73239   0.07195   0.57998
   0.64261  -0.06273   0.29567
   0.91196  -0.10762   0.46027
   0.85210  -0.06273   0.25078
   0.98677  -0.06273   0.25078
   0.83714  -0.19740   0.13107
   0.94188  -0.10762  -0.00361
   0.91196  -0.21236  -0.09339
   0.98677  -0.21236  -0.07843
   0.91196  -0.09265  -0.24303
   1.06159  -0.01784  -0.18317
   1.03167  -0.10762  -0.09339
   1.04663  -0.10762  -0.21310
   1.03167  -0.03280  -0.25799
   0.82217  -0.15251  -0.37770
   0.95685  -0.06273  -0.16821
   1.04663   0.13180  -0.28792
   0.77728  -0.03280  -0.39267
   0.74735  -0.03280  -0.48245
   0.73239  -0.01784  -0.48245
   0.62764  -0.00287  -0.45252
   0.62764  -0.18244  -0.49741
   0.70246  -0.04776  -0.42259
   0.56779  -0.00287  -0.45252
   0.59772   0.01209  -0.40763
   0.44808  -0.03280  -0.61712
   0.37326  -0.07769  -0.64705
   0.37326  -0.16747  -0.55727
   0.31341  -0.15251  -0.60216
   0.32837  -0.13755  -0.66201
   0.23859  -0.28718  -0.55727
   0.23859  -0.15251  -0.66201
   0.22362  -0.06273  -0.64705
   0.25355  -0.13755  -0.63209
   0.38822  -0.01784  -0.51238
   0.19370  -0.22733  -0.64705
   0.17873  -0.09265  -0.61712
   0.17873  -0.12258  -0.55727
   0.20866  -0.06273  -0.48245
   0.13384  -0.06273  -0.61712
   0.04406  -0.13755  -0.60216
   0.11888   0.13180  -0.42259
   0.07399  -0.09265  -0.37770
   0.10391   0.11684  -0.21310
  -0.04572  -0.09265  -0.24303
  -0.07565   0.04202  -0.30288
  -8.3E-40   0.08691  -0.06346
  -0.10558   0.04202  -0.12332
  -0.07565   0.14677  -0.03354
  -0.15047   0.07195   0.08617
  -0.22529   0.11684   0.11610
  -0.12054   0.02706   0.25078
  -0.12054  -0.03280   0.29567
  -0.10558   0.14677   0.29567
  -0.16543   0.02706   0.28070
  -0.25522  -0.00287   0.41538
  -0.28515  -0.07769   0.25078
  -0.13551   0.04202   0.37049
  -0.10558   0.01209   0.34056
  -0.30011  -0.12258   0.22085
  -0.21033  -0.19740   0.31063
  -0.10558  -0.22733   0.28070
  -0.15047  -0.28718   0.31063
  -0.12054  -0.16747   0.23581
  -0.09062  -0.16747   0.19092
  -0.27018  -0.22733   0.13107
  -0.18040  -0.25726   0.26574
  -0.19536  -0.22733   0.23581
  -0.13551  -0.19740   0.32559
   0.07399  -0.09265   0.35552
  -8.3E-40  -0.01784   0.43034
   0.01413  -0.03280   0.40041
  -8.3E-40  -0.03280   0.44530
   0.04406  -0.15251   0.49020
   0.10391  -0.07769   0.57998
   0.17873   0.02706   0.62487
   0.32837   0.02706   0.66976
   0.34333  -0.10762   0.60991
   0.19370  -0.01784   0.46027
   0.49297   0.08691   0.59494
   0.47801   0.07195   0.53509
   0.58275  -0.01784   0.59494
   0.62764   0.01209   0.50516
   0.77728   0.07195   0.47523
   0.80721   0.08691   0.43034
   0.85210   0.08691   0.38545
   0.74735   0.07195   0.32559
   0.83714   0.02706   0.37049
   0.79225   0.01209   0.31063
   0.91196   0.02706   0.41538
   0.88203  -0.04776   0.28070
   0.79225  -0.00287   0.16099
   0.98677  -0.06273   0.41538
   0.86706  -0.12258   0.22085
   0.82217  -0.18244   0.28070
   0.76232  -0.24229   0.20588
   0.79225  -0.27222   0.29567
   0.70246  -0.34704   0.08617
   0.77728  -0.24229   0.22085
   0.70246  -0.28718   0.23581
   0.44808  -0.31711   0.04128
   0.58275  -0.28718   0.23581
   0.67254  -0.10762   0.08617
   0.49297  -0.30215   0.22085
   0.50793  -0.30215   0.17596
   0.52290  -0.22733   0.14603
   0.32837  -0.48171   0.04128
   0.46304  -0.25726   0.19092
   0.35830  -0.22733   0.13107
   0.34333  -0.28718   0.17596
   0.20866  -0.19740   0.11610
   0.20866  -0.19740   0.16099
   0.08895  -0.25726   0.14603
  -0.15047  -0.31711   0.02632
  -0.09062  -0.27222   0.11610
  -0.13551  -0.06273   0.11610
  -0.34500  -0.09265   0.13107
  -0.40486  -0.01784   0.13107
  -0.50960  -0.00287   0.08617
