********************************************************************************
               CENTRO DE INSTRUMENTACION Y REGISTRO SISMICO  A.C.  
                       Coordinacion de Servicios Tecnicos
     Anaxagoras 814, Col. Narvarte, Benito Juarez, C.P. 03020 Mexico, D.F.
            Tels. 687 45 42/ 687 45  82             Fax. 669 25 12
********************************************************************************
ARCHIVO ESTANDAR DE ACELERACION:
VERSION DEL FORMATO                    : 2.0
NOMBRE DEL ARCHIVO                     : AU469005.311
FECHA Y HORA DE CREACION               : ABRIL 18, 1996/18:36
REF. CATALOGO ACELEROGRAMAS, SMIS 1995 : REGISTRO No. 2191 /PAG. 214


================================================================================
DATOS DE LA ESTACION:
NOMBRE DE LA ESTACION                  : ANGEL URRAZA
CLAVE DE LA ESTACION                   : AU46
LOCALIZACION DE LA ESTACION            : Esc Sec Tec # 14, 5 de Mayo Av
                                       : Coyoacan y Angel Urraza, Col de
                                       : Valle, Benito Juarez
                                       :
                                       :
COORDENADAS DE LA ESTACION             : 19.383 LAT. N 
                                       : 99.168 LONG. W 
ALTITUD (msnm)                         : 2233
TIPO DE SUELO                          : TRANSICION
                                       : 
                                       : 
INSTITUCION RESPONSABLE                : CIRES
                                       :

================================================================================
DATOS DEL ACELEROGRAFO:
MODELO DEL ACELEROGRAFO                : DCA-333
NUMERO DE SERIE DEL ACELEROGRAFO       : 236
NUMERO DE CANALES                      : 3
ORIENTACION C1-C6 (rumbo;orientacion)  : /N00E/+V/N90W
ORIENTACION C7-C12 (rumbo;orientacion) :
VEL. DE MUESTREO, C1-C6 (muestras/s)   : /100/100/100
VEL. DE MUESTREO, C7-C12 (muestras/s)  :
ESC. COMPLETA DE SENSORES, C1-C6, (g)  : /0.5/0.5/0.5
ESC. COMPLETA DE SENSORES, C7-C12, (g) :
FREC. NAT. DE SENSORES, C1-C6, (Hz)    : /30/30/30
FREC. NAT. DE SENSORES, C7-C12, (Hz)   :
AMORTIGUAMIENTO DE SENSORES, C1-C6     : /0.700/0.700/0.700
AMORTIGUAMIENTO DE SENSORES, C7-C12    :
INTERVALO DE MUESTREO, C1-C6, (s)      : /0.01/0.01/0.01
INTERVALO DE MUESTREO, C7-C12, (s)     :
UMBRAL DE DISPARO, C1-C6, (Gal)        : /1.5/1.5/1.5
UMBRAL DE DISPARO, C7-C12, (Gal)       :
MEMORIA DE PREEVENTO (s)               : 4
TIEMPO DE POSEVENTO (s)                : 15


================================================================================
DATOS DEL SISMO:
FECHA DEL SISMO (GMT)                  : 31/MAY/90
HORA EPICENTRO (GMT)                   : 07:35:26,9 
MAGNITUD(ES)                           : /Mb=5.80/Ms=5.90/Mc=5.50
COORDENADAS DEL EPICENTRO              : 17.106 LAT. N 
                                       : 100.893 LONG. W
PROFUNDIDAD FOCAL (km)                 : 15.8 
FUENTE DE LOS DATOS EPICENTRALES       : INSTITUTO DE INGENIERIA UNAM
                                       : 

================================================================================
DATOS DE ESTE REGISTRO:
HORA DE LA PRIMERA MUESTRA (GMT)       : 07:36:24.45
EXACTITUD DEL TIEMPO (s)               : 0.01
DURACION DEL REGISTRO (s), C1-C6       : /85.87/85.87/85.87
DURACION DEL REGISTRO (s), C7-C12      :
NUM. TOTAL DE MUESTRAS, C1-C6          : /8587/8587/8587
NUM. TOTAL DE MUESTRAS, C7-C12         :
ACEL. MAX. (Gal), C1-C6                : /6.47/2.01/6.09
ACEL. MAX., C1-C6, EN LA MUESTRA       :
ACEL. MAX. (Gal), C7-C12               :
ACEL. MAX., C7-C12, EN LA MUESTRA      :
UNIDADES DE LOS DATOS                  : Gal (cm/s/s)
FACTOR DE DECIMACION                   : 1
FORMATO DATOS (FORTRAN,10 campos/dato) : 3F10.2


================================================================================
CALIDAD DEL ACELEROGRAMA:
REGISTRO DIGITAL AL QUE FALTA UNA PARTE AL INICIO, CON TIEMPO
ABSOLUTO.

================================================================================
COMENTARIOS:














================================================================================
DATOS DE ACELERACION:
---------+---------+---------+---------+---------+---------+---------+---------+
   CANAL-1   CANAL-2   CANAL-3   CANAL-4   CANAL-5   CANAL-6   CANAL-7   CANAL-8
      N00E        +V      N90W
---------+---------+---------+---------+---------+---------+---------+---------+
[...]
     -1.44     -0.14     -1.33
     -0.96      0.10     -1.57
     -0.72     -0.14     -1.81
     -0.48      0.10     -2.05
     -0.48      0.10     -2.53
     -0.24      0.10     -2.53
     -0.24      0.10     -2.77
     -0.24      0.34     -3.01
     -0.24      0.34     -3.01
     -0.48      0.34     -3.24
     -0.48      0.34     -3.24
     -0.48      0.34     -3.24
     -0.48      0.10     -3.48
     -0.48      0.10     -3.48
     -0.48      0.10     -3.72
     -0.48      0.10     -3.96
     -0.24     -0.14     -3.96
     -0.24     -0.14     -4.20
     -0.24     -0.38     -4.20
     -0.24     -0.38     -4.20
     -0.24     -0.38     -4.20
     -0.24     -0.62     -4.20
     -0.24     -0.62     -4.20
     -0.24     -0.62     -4.20
     -0.48     -0.62     -3.96
     -0.48     -0.62     -3.96
     -0.72     -0.62     -3.72
     -0.96     -0.62     -3.72
     -1.20     -0.62     -3.48
     -1.44     -0.62     -3.24
     -1.44     -0.38     -3.24
     -1.67     -0.38     -3.01
     -1.91     -0.38     -2.53
     -2.15     -0.14     -2.29
     -2.39     -0.14     -2.05
     -2.63      0.10     -1.81
     -2.87      0.10     -1.57
     -2.87      0.34     -1.33
     -3.11      0.34     -1.09
     -3.11      0.34     -1.09
     -3.35      0.58     -0.85
     -3.11      0.58     -0.85
     -3.11      0.58     -0.85
     -2.87      0.58     -0.85
     -2.63      0.58     -0.85
     -2.39      0.58     -0.85
     -2.15      0.34     -0.85
     -1.91      0.34     -0.61
     -1.44      0.34     -0.61
     -1.44      0.34     -0.61
     -1.20      0.34     -0.61
     -0.96      0.10     -0.61
     -0.72      0.10     -0.37
     -0.72      0.10     -0.37
     -0.48      0.10     -0.37
     -0.48     -0.14     -0.37
     -0.24     -0.14     -0.13
      0.00     -0.14     -0.13
      0.24     -0.14      0.11
      0.48     -0.38      0.11
      0.72     -0.38      0.35
      0.96     -0.38      0.59
      1.44     -0.38      0.83
      1.68     -0.38      1.06
      1.92     -0.38      1.54
      2.16     -0.38      1.78
      2.40     -0.38      1.78
      2.63     -0.38      2.02
      2.87     -0.14      2.02
      3.35     -0.14      2.26
      3.59      0.10      2.26
      3.83      0.10      2.50
      4.07      0.34      2.50
      4.31      0.34      2.50
      4.55      0.34      2.50
      4.55      0.58      2.50
      4.79      0.58      2.50
      4.79      0.58      2.50
      4.79      0.58      2.50
      4.79      0.58      2.74
      4.79      0.34      2.74
      4.79      0.34      2.74
      4.79      0.34      2.74
      4.79      0.34      2.74
      4.79      0.10      2.74
      4.79      0.10      2.50
      4.55      0.10      2.50
      4.55      0.10      2.50
      4.31      0.10      2.50
      4.07      0.10      2.26
      3.83      0.10      2.02
      3.35      0.10      2.02
      3.11      0.34      2.02
      2.63      0.34      2.02
      2.40      0.34      2.02
      1.92      0.34      1.78
      1.68      0.10      1.78
      1.44      0.10      1.54
      0.96      0.10      1.30
      0.72      0.10      1.06
      0.48     -0.14      0.83
      0.24     -0.38      0.83
      0.00     -0.38      0.59
     -0.24     -0.14      0.35
     -0.48     -0.14      0.11
     -0.72     -0.38      0.11
     -0.96     -0.14     -0.13
     -1.20     -0.14     -0.37
     -1.20     -0.14     -0.61
     -1.20     -0.14     -0.85
     -1.44      0.10     -1.09
     -1.44      0.10     -1.57
     -1.20      0.10     -1.81
     -1.20      0.34     -2.05
     -1.20      0.34     -2.29
     -0.96      0.34     -2.53
     -0.96      0.34     -2.77
     -0.96      0.34     -3.01
     -0.96      0.34     -3.01
     -1.20      0.34     -3.01
     -1.20      0.34     -3.24
     -1.44      0.34     -3.24
     -1.67      0.34     -3.24
     -1.91      0.34     -3.24
     -2.15      0.34     -3.24
     -2.39      0.34     -3.24
     -2.63      0.34     -3.24
     -2.87      0.34     -3.24
     -3.11      0.34     -3.01
     -3.35      0.34     -3.01
     -3.35      0.58     -2.77
     -3.35      0.58     -2.53
     -3.35      0.58     -2.29
     -3.59      0.58     -2.05
     -3.35      0.58     -1.81
     -3.35      0.58     -1.57
     -3.35      0.58     -1.33
     -3.11      0.58     -1.33
     -2.87      0.58     -1.09
     -2.87      0.82     -1.09
     -2.63      0.58     -0.85
     -2.39      0.58     -0.85
     -2.15      0.82     -0.61
     -1.67      0.58     -0.61
     -1.44      0.58     -0.37
     -1.20      0.82     -0.13
     -0.72      0.82      0.11
     -0.48      0.58      0.35
      0.00      0.58      0.59
      0.24      0.34      0.83
      0.24      0.34      1.30
      0.48      0.10      1.54
      0.72      0.10      1.78
      0.96     -0.14      2.02
      0.96     -0.14      2.50
      1.20     -0.38      2.50
      1.20     -0.38      2.74
      1.44     -0.38      2.74
      1.44     -0.62      2.98
      1.44     -0.62      2.98
      1.68     -0.62      2.98
      1.68     -0.62      2.98
      1.68     -0.38      2.98
      1.68     -0.38      2.98
      1.68     -0.38      2.74
      1.44     -0.38      2.50
      1.44     -0.38      2.26
      1.20     -0.38      2.02
      1.20     -0.38      2.02
      1.20     -0.38      1.54
      0.96     -0.38      1.30
      0.96     -0.38      1.30
      0.96     -0.38      1.06
      0.96     -0.62      1.06
      0.72     -0.62      0.83
      0.96     -0.62      0.83
      0.96     -0.62      0.83
      0.72     -0.62      0.83
      0.72     -0.86      0.59
      0.72     -0.62      0.59
      0.72     -0.86      0.59
      0.72     -0.86      0.35
      0.48     -0.86      0.11
      0.48     -1.10     -0.13
      0.24     -1.10     -0.37
      0.24     -1.10     -0.85
      0.24     -1.10     -1.09
      0.24     -1.10     -1.57
      0.00     -1.34     -1.81
      0.00     -1.10     -2.05
      0.00     -1.10     -2.29
     -0.24     -0.86     -2.77
     -0.24     -0.62     -3.24
     -0.48     -0.62     -3.48
     -0.48     -0.62     -3.72
     -0.72     -0.14     -3.96
     -0.96     -0.14     -4.44
     -1.20      0.10     -4.68
     -1.44      0.34     -4.68
     -1.67      0.34     -4.92
     -1.91      0.34     -4.92
     -1.91      0.34     -4.92
     -2.15      0.34     -4.92
     -2.15      0.10     -4.68
     -2.39      0.10     -4.68
     -2.39      0.10     -4.44
     -2.39      0.10     -4.20
     -2.63     -0.14     -4.20
     -2.63     -0.14     -3.96
     -2.63     -0.14     -3.72
     -2.63     -0.14     -3.48
     -2.39     -0.14     -3.24
     -2.39      0.10     -2.77
     -2.15      0.10     -2.53
     -1.91      0.34     -2.29
     -1.67      0.34     -2.05
     -1.44      0.34     -1.57
     -1.20      0.58     -1.33
     -1.20      0.58     -0.85
     -0.96      0.58     -0.61
     -0.72      0.58     -0.13
     -0.48      0.34      0.11
     -0.24      0.34      0.59
     -0.24      0.34      0.83
      0.00      0.34      1.30
      0.00      0.34      1.78
      0.00      0.34      2.26
      0.24      0.10      2.74
      0.24      0.10      3.22
      0.24      0.10      3.70
      0.24      0.10      3.94
      0.24      0.10      4.42
      0.24     -0.14      4.66
      0.48     -0.14      4.90
      0.72     -0.14      5.13
      0.96     -0.14      5.37
      1.20     -0.14      5.61
      1.20     -0.14      5.85
      1.44     -0.14      6.09
      1.68     -0.14      6.09
      1.92     -0.14      6.09
      1.92      0.10      6.09
      2.16      0.10      6.09
      2.16      0.10      5.85
      2.40      0.10      5.85
      2.40      0.10      5.61
      2.63      0.34      5.61
      2.63      0.10      5.37
      2.87      0.10      5.37
      3.11      0.10      5.13
      3.11      0.10      4.90
      3.35      0.10      4.90
      3.35      0.10      4.66
      3.59      0.10      4.66
      3.59      0.10      4.42
      3.59      0.10      4.42
      3.59      0.10      4.18
      3.59      0.10      3.94
      3.59      0.10      3.70
      3.59      0.10      3.46
      3.59      0.10      2.98
      3.59      0.10      2.74
      3.59      0.34      2.26
      3.59      0.10      2.02
      3.59      0.10      1.78
      3.59      0.10      1.30
      3.35      0.10      1.06
      3.35      0.34      0.83
      2.87      0.10      0.59
      2.63      0.34      0.11
      2.40      0.34      0.11
      1.92      0.34     -0.13
      1.68      0.34     -0.61
      1.20      0.34     -0.85
      0.96      0.34     -1.33
      0.48      0.34     -1.57
      0.24      0.34     -2.05
      0.00      0.34     -2.29
     -0.48      0.34     -2.77
     -1.20      0.10     -3.48
     -1.67      0.10     -3.96
     -1.91      0.10     -4.20
     -2.39     -0.14     -4.68
     -2.87     -0.14     -4.92
     -3.11     -0.14     -5.16
     -3.59     -0.14     -5.40
     -3.83     -0.14     -5.40
     -4.31     -0.14     -5.40
     -4.55     -0.14     -5.64
     -4.79     -0.14     -5.64
     -5.27     -0.14     -5.64
     -5.51     -0.14     -5.64
     -5.75     -0.14     -5.64
     -5.98     -0.14     -5.40
     -5.98      0.10     -5.40
     -6.22     -0.14     -5.40
     -6.22     -0.14     -5.16
     -6.46     -0.38     -4.92
     -6.46     -0.38     -4.68
     -6.46     -0.38     -3.96
     -6.46     -0.38     -3.72
     -6.22     -0.38     -3.24
     -6.22     -0.38     -3.01
     -5.98     -0.38     -2.53
     -5.98     -0.38     -2.29
     -5.75     -0.38     -2.05
     -5.51     -0.62     -1.81
     -5.51     -0.62     -1.81
     -5.27     -0.86     -1.57
     -5.03     -0.86     -1.33
     -4.79     -0.86     -1.09
     -4.55     -0.86     -0.85
     -4.07     -0.86     -0.61
     -3.83     -0.86     -0.37
     -3.35     -0.86     -0.13
     -3.11     -0.86      0.11
     -2.87     -0.62      0.11
     -2.39     -0.62      0.35
     -2.15     -0.38      0.59
     -1.67     -0.14      0.83
     -1.44     -0.14      1.06
     -0.96     -0.14      1.30
     -0.48      0.10      1.54
     -0.24      0.10      1.78
      0.00      0.34      2.02
      0.96      0.34      2.74
      1.44      0.34      2.74
      1.68      0.34      2.98
      2.16      0.34      3.22
      2.40      0.10      3.22
      2.87      0.34      3.22
      3.11      0.10      3.46
      3.35      0.34      3.46
      3.59      0.34      3.46
      3.83      0.34      3.46
      4.07      0.34      3.46
      4.31      0.34      3.46
      4.55      0.58      3.22
      4.79      0.58      3.46
      5.03      0.82      3.22
      5.27      0.82      3.22
      5.51      0.82      3.22
      5.51      0.58      2.98
      5.75      0.82      2.98
      5.75      0.58      2.98
      5.99      0.58      2.74
      5.99      0.58      2.50
      6.23      0.34      2.26
      6.23      0.34      2.02
      6.47      0.34      2.02
      6.47      0.10      1.78
      6.47      0.10      1.54
      6.47      0.10      1.30
      6.23      0.10      1.06
      5.99      0.10      1.06
      5.99     -0.14      0.83
      5.75     -0.14      0.83
      5.27     -0.14      0.59
      5.03     -0.14      0.11
      4.55     -0.14      0.11
      4.07     -0.14     -0.37
      3.59     -0.14     -0.61
      3.11     -0.14     -0.85
      2.87      0.10     -1.09
      2.40      0.10     -1.33
      1.92      0.10     -1.57
      1.44      0.34     -2.05
      1.20      0.34     -2.29
      0.96      0.34     -2.53
      0.48      0.34     -2.77
      0.24      0.58     -2.77
      0.00      0.58     -2.77
     -0.24      0.58     -3.01
     -0.48      0.58     -3.24
     -0.96      0.58     -3.24
     -1.20      0.58     -3.01
     -1.44      0.58     -3.01
     -1.91      0.58     -2.77
     -2.15      0.34     -2.77
     -2.39      0.34     -2.77
     -2.87      0.34     -2.53
     -3.11      0.34     -2.53
     -3.11      0.34     -2.29
     -3.35      0.34     -2.29
     -3.59      0.34     -2.29
     -3.59      0.34     -2.29
     -3.83      0.34     -2.29
     -3.83      0.58     -2.29
     -3.83      0.58     -2.29
     -4.07      0.58     -2.53
     -4.07      0.58     -2.53
     -4.07      0.58     -2.53
     -4.07      0.58     -2.53
     -4.31      0.58     -2.53
     -4.55      0.58     -2.29
     -4.55      0.58     -2.29
     -4.55      0.34     -2.05
     -4.55      0.34     -2.05
     -4.55      0.34     -1.81
     -4.55      0.10     -1.57
     -4.55      0.10     -1.57
     -4.55     -0.14     -1.33
     -4.55     -0.14     -1.33
     -4.31     -0.38     -1.09
     -4.31     -0.38     -1.09
     -4.31     -0.62     -0.85
     -4.31     -0.62     -0.61
     -4.07     -0.86     -0.61
     -4.07     -1.10     -0.37
     -3.83     -1.10     -0.13
     -3.59     -1.10     -0.13
     -3.35     -1.10      0.11
     -3.11     -1.34      0.11
     -2.87     -1.34      0.35
     -2.39     -1.34      0.59
     -1.91     -1.34      0.83
     -1.44     -1.34      0.83
     -1.20     -1.34      1.06
     -0.72     -1.34      1.30
     -0.24     -1.10      1.54
      0.00     -1.10      1.78
      0.24     -1.10      1.78
      0.72     -0.86      2.02
      0.96     -0.86      2.26
      1.20     -0.62      2.26
      1.44     -0.62      2.50
      1.68     -0.38      2.50
      1.92     -0.38      2.74
      2.16     -0.14      2.74
      2.40     -0.14      2.98
      2.87     -0.14      2.98
      2.87     -0.14      3.22
      3.11     -0.14      3.22
      3.35     -0.14      3.22
      3.59     -0.38      3.22
      3.59     -0.38      3.22
      3.83     -0.38      2.98
      3.83     -0.38      2.98
      3.83     -0.14      2.98
      4.07     -0.14      2.74
      4.07     -0.14      2.74
      4.07      0.10      2.74
      4.07     -0.14      2.74
      4.07     -0.14      2.50
      4.07      0.10      2.50
      4.31      0.10      2.26
      4.31      0.10      2.26
      4.31      0.10      2.02
      4.31      0.10      2.02
      4.07      0.10      1.78
      4.07      0.10      1.78
      3.83     -0.14      1.54
      3.59     -0.14      1.54
      3.35     -0.14      1.30
      3.11     -0.14      1.06
      2.87      0.10      0.83
      2.63     -0.14      0.59
      2.16     -0.14      0.35
      1.92     -0.14      0.11
      1.68      0.10     -0.13
      1.20     -0.14     -0.37
      0.96     -0.14     -0.61
      0.72     -0.14     -0.85
      0.24      0.10     -1.09
      0.24     -0.14     -1.33
      0.00     -0.14     -1.33
     -0.24     -0.14     -1.57
     -0.72     -0.14     -1.57
     -0.96     -0.14     -1.57
     -1.20     -0.14     -1.57
     -1.44     -0.14     -1.57
     -1.91     -0.14     -1.57
     -2.15     -0.14     -1.57
     -2.39     -0.14     -1.57
     -2.63     -0.14     -1.57
     -3.11     -0.14     -1.57
     -3.35      0.10     -1.81
     -3.59      0.10     -1.81
     -4.07      0.10     -1.81
     -4.31      0.10     -1.81
     -4.55      0.10     -1.81
     -4.79      0.10     -2.05
     -5.03      0.10     -2.05
     -5.03      0.10     -2.05
     -5.27      0.34     -2.05
     -5.27      0.34     -2.05
     -5.27      0.34     -2.05
     -5.27      0.34     -2.05
     -5.03      0.34     -2.05
     -5.03      0.34     -2.05
     -4.79      0.34     -1.81
     -4.79      0.34     -1.81
     -4.55      0.34     -1.81
     -4.31      0.58     -1.57
     -4.07      0.58     -1.57
     -3.83      0.34     -1.57
     -3.59      0.58     -1.33
     -3.35      0.34     -1.33
     -2.87      0.58     -1.09
