********************************************************************************
              CENTRO DE INSTRUMENTACION Y REGISTRO SISMICO  A.C.

    Anaxagoras 814, Col. Narvarte, Benito Juarez, C.P. 03020 Mexico, D.F.
           Tels. 5687 45 42/ 5687 45  82             Fax. 5669 25 12
********************************************************************************
ARCHIVO ESTANDAR DE ACELERACION:
VERSION DEL FORMATO                    : 2.0
NOMBRE DEL ARCHIVO                     : AU4620080428000629
FECHA Y HORA DE CREACION               : 15/MAY/08, 11:06
REF. CATALOGO ACELEROGRAMAS, SMIS 1996 : REGISTRO No.     /PAG.


================================================================================
DATOS DE LA ESTACION:
NOMBRE DE LA ESTACION                  : ESC. SEC. TÉC. NO. 14
CLAVE DE LA ESTACION                   : AU46
LOCALIZACION DE LA ESTACION            : Del. Benito Juárez, Col. del Valle,    
                                       : Entre Angel Urraza y Coyoacán.         
                                       :                                        
                                       :                                        
                                       : 
COORDENADAS DE LA ESTACION             : 19.3832 LAT. N
                                       : 99.1681 LONG. W
ALTITUD (msnm)                         : 2233
TIPO DE SUELO                          : Transición                          
                                       :                           
                                       : 
INSTITUCION RESPONSABLE                : CIRES
                                       : 

================================================================================
DATOS DEL ACELEROGRAFO:
MODELO DEL ACELEROGRAFO                : RADESD
NUMERO DE SERIE DEL ACELEROGRAFO       : 236
NUMERO DE CANALES                      : 3
ORIENTACION C1-C6 (rumbo;orientacion)  : /N00E/+V/N90W
ORIENTACION C7-C12 (rumbo;orientacion) : 
VEL. DE MUESTREO, C1-C6 (muestras/s)   : /100/100/100
VEL. DE MUESTREO, C7-C12 (muestras/s)  : 
ESC. COMPLETA DE SENSORES, C1-C6, (g)  : /0.5/0.5/0.5
ESC. COMPLETA DE SENSORES, C7-C12, (g) : 
FREC. NAT. DE SENSORES, C1-C6, (Hz)    : /33/30/30
FREC. NAT. DE SENSORES, C7-C12, (Hz)   : 
AMORTIGUAMIENTO DE SENSORES, C1-C6     : /0.735/0.733/0.730
AMORTIGUAMIENTO DE SENSORES, C7-C12    : 
INTERVALO DE MUESTREO, C1-C6, (s)      : /0.01/0.01/0.01
INTERVALO DE MUESTREO, C7-C12, (s)     : 
UMBRAL DE DISPARO, C1-C6, (Gal)        : /2.87/5.51/5.27
UMBRAL DE DISPARO, C7-C12, (Gal)       : 
MEMORIA DE PREEVENTO (s)               : 56.0
TIEMPO DE POSEVENTO (s)                : 64.0


================================================================================
DATOS DEL SISMO:
FECHA DEL SISMO (GMT)                  : 28/ABR/08
HORA EPICENTRO (GMT)                   : 00:06:29.0
MAGNITUD(ES)                           : /Mc=5.6
COORDENADAS DEL EPICENTRO              : 18.05 LAT. N
                                       : 100.01 LONG. W
PROFUNDIDAD FOCAL (km)                 : 52
FUENTE DE LOS DATOS EPICENTRALES       : SSN
                                       : INSTITUTO DE GEOFISICA, UNAM

================================================================================
DATOS DE ESTE REGISTRO:
HORA DE LA PRIMERA MUESTRA (GMT)       : 00:07:33.00
EXACTITUD DEL TIEMPO (s)               : 0.01
DURACION DEL REGISTRO (s), C1-C6       : /130.25/130.25/130.25
DURACION DEL REGISTRO (s), C7-C12      : 
NUM. TOTAL DE MUESTRAS, C1-C6          : /13025/13025/13025
NUM. TOTAL DE MUESTRAS, C7-C12         : 
ACEL. MAX. (Gal), C1-C6                : /4.14308/2.50078/4.20484
ACEL. MAX., C1-C6, EN LA MUESTRA       : /4681/3631/5900
ACEL. MAX. (Gal), C7-C12               : 
ACEL. MAX., C7-C12, EN LA MUESTRA      : 
UNIDADES DE LOS DATOS                  : Gal (cm/s/s)
FACTOR DE DECIMACION                   : 1
FORMATO DATOS (FORTRAN,10 campos/dato) : 3F10.5


================================================================================
CALIDAD DEL ACELEROGRAMA:
REGISTRO DIGITAL COMPLETO CON TIEMPO ABSOLUTO CORRECTO.


================================================================================
COMENTARIOS:














================================================================================
DATOS DE ACELERACION:
---------+---------+---------+---------+---------+---------+---------+---------+
   CANAL-1   CANAL-2   CANAL-3   CANAL-4   CANAL-5   CANAL-6   CANAL-7   CANAL-8
      N00E        +V      N90W
---------+---------+---------+---------+---------+---------+---------+---------+
[...]
   1.12416   0.13284   0.13470
   1.60300   0.13284  -0.34414
   1.36358   0.37226  -0.10472
   1.36358   0.37226  -0.34414
   1.36358   0.13284  -0.10472
   1.36358   0.13284  -0.10472
   1.60300  -0.10658  -0.10472
   1.36358   0.13284  -0.34414
   1.60300   0.13284  -0.58356
   1.60300   0.37226  -0.34414
   1.36358   0.37226  -0.34414
   1.36358   0.37226   0.13470
   1.36358   0.13284  -0.10472
   1.60300   0.13284  -0.10472
   1.84242   0.37226  -0.10472
   1.84242   0.37226  -0.10472
   2.08184   0.85110   0.13470
   2.08184   0.85110   0.61354
   2.56068   0.85110   0.61354
   2.80010   0.61168   0.61354
   3.27894   0.85110   0.61354
   3.27894   1.09052   0.37412
   3.27894   1.09052   0.61354
   3.03952   0.85110   0.85296
   3.27894   0.61168   0.85296
   3.51836   0.61168   0.85296
   3.51836   0.37226   0.85296
   3.51836   0.13284   0.85296
   3.27894   0.13284   0.61354
   3.03952  -0.10658   0.61354
   2.56068  -0.58542   0.13470
   2.56068  -0.58542   0.13470
   2.32126  -0.58542   0.37412
   2.32126  -0.10658   0.37412
   1.84242  -0.34600   0.85296
   1.60300  -0.34600   1.09238
   1.60300  -0.10658   0.85296
   1.12416   0.13284   0.37412
   0.88474   0.13284   0.13470
   0.40590   0.37226  -0.10472
   0.16648   0.61168  -0.10472
   0.16648   0.61168  -0.10472
   0.16648   0.85110  -0.34414
  -0.07294   0.85110  -0.82298
  -0.31236   0.85110  -0.82298
  -0.55178   0.85110  -0.82298
  -0.79120   0.85110  -0.82298
  -1.03062   0.85110  -0.82298
  -1.27004   0.37226  -0.82298
  -1.27004   0.13284  -0.58356
  -1.27004  -0.10658  -0.58356
  -1.27004  -0.10658  -0.82298
  -1.27004  -0.10658  -0.58356
  -1.50946  -0.34600  -0.34414
  -1.74888  -0.10658  -0.58356
  -1.74888  -0.10658  -0.82298
  -1.50946  -0.10658  -0.82298
  -1.74888  -0.10658  -0.82298
  -1.98830  -0.10658  -0.34414
  -1.98830  -0.10658  -0.10472
  -1.98830  -0.10658  -0.10472
  -1.98830  -0.10658  -0.10472
  -1.98830  -0.10658   0.13470
  -2.46714  -0.10658   0.37412
  -2.46714   0.13284   0.37412
  -2.46714  -0.34600   0.61354
  -2.46714  -0.34600   0.61354
  -2.22772  -0.34600   0.61354
  -1.98830  -0.34600   0.61354
  -1.74888  -0.10658   0.61354
  -1.50946   0.13284   0.85296
  -1.50946   0.37226   0.85296
  -1.27004   0.13284   1.09238
  -1.03062   0.13284   1.09238
  -1.03062  -0.10658   1.09238
  -0.79120  -0.10658   0.85296
  -0.79120  -0.10658   0.61354
  -0.55178   0.13284   0.37412
  -0.55178  -0.10658   0.37412
  -0.79120   0.13284   0.37412
  -0.55178   0.13284   0.61354
  -0.55178  -0.10658   0.37412
  -0.55178   0.13284   0.61354
  -0.31236  -0.10658   0.61354
  -0.31236  -0.34600   0.85296
  -0.31236  -0.34600   0.85296
  -0.07294  -0.58542   0.85296
   0.16648  -0.34600   0.85296
  -0.07294  -0.34600   0.85296
  -0.07294  -0.34600   0.61354
  -0.31236  -0.58542   0.61354
  -0.55178  -0.82484   0.37412
  -0.55178  -0.82484   0.13470
  -0.55178  -0.82484  -0.10472
  -0.31236  -0.58542  -0.58356
  -0.07294  -0.34600  -0.58356
   0.16648  -0.34600  -0.58356
   0.64532  -0.10658  -0.34414
   0.88474   0.13284  -0.34414
   1.12416   0.13284  -0.34414
   1.36358  -0.10658  -0.10472
   1.60300  -0.34600  -0.10472
   1.84242  -0.10658   0.13470
   1.84242  -0.10658   0.13470
   1.84242  -0.10658   0.13470
   1.84242  -0.34600   0.13470
   2.08184  -0.34600   0.13470
   2.32126  -0.10658   0.13470
   2.32126   0.13284  -0.10472
   2.32126  -0.10658  -0.34414
   2.08184  -0.34600  -0.58356
   2.08184  -0.58542  -0.58356
   2.56068  -0.34600  -0.82298
   2.32126  -0.10658  -1.06240
   2.08184  -0.10658  -1.06240
   1.84242  -0.10658  -0.58356
   1.60300  -0.10658  -0.34414
   1.36358  -0.10658  -0.34414
   1.36358  -0.10658  -0.58356
   1.12416   0.13284  -0.58356
   0.40590   0.13284  -0.58356
   0.16648  -0.10658  -0.58356
  -0.07294  -0.10658  -0.82298
  -0.31236  -0.34600  -0.82298
  -0.55178  -0.58542  -0.82298
  -0.55178  -0.82484  -1.06240
  -1.03062  -1.06426  -0.82298
  -1.27004  -1.30368  -1.06240
  -1.27004  -1.30368  -0.82298
  -1.50946  -1.30368  -0.58356
  -1.50946  -1.30368  -0.58356
  -1.27004  -1.06426  -0.34414
  -1.74888  -1.06426  -0.58356
  -1.98830  -1.06426  -0.34414
  -1.98830  -1.06426  -0.34414
  -2.22772  -0.58542  -0.34414
  -2.22772  -0.34600  -0.34414
  -2.46714  -0.10658  -0.34414
  -2.46714  -0.10658   0.13470
  -2.46714  -0.10658   0.37412
  -2.46714   0.13284   0.37412
  -2.22772   0.37226   0.37412
  -2.22772   0.61168   0.61354
  -2.22772   0.37226   0.61354
  -1.98830   0.37226   0.61354
  -1.74888   0.61168   0.37412
  -1.74888   0.61168   0.61354
  -1.74888   0.85110   0.61354
  -1.50946   0.85110   0.61354
  -1.03062   0.85110   0.37412
  -1.03062   0.85110   0.37412
  -0.79120   0.85110   0.37412
  -0.79120   0.85110   0.37412
  -0.31236   0.85110   0.37412
  -0.07294   0.61168   0.37412
  -0.07294   0.37226   0.37412
  -0.07294   0.13284   0.61354
   0.16648   0.13284   0.61354
   0.40590   0.13284   0.85296
   0.64532   0.37226   0.85296
   0.88474   0.37226   0.85296
   1.12416   0.13284   0.61354
   1.36358  -0.10658   0.61354
   1.36358   0.13284   0.61354
   1.36358   0.37226   0.37412
   1.36358   0.37226   0.13470
   1.12416   0.13284   0.13470
   1.12416   0.37226  -0.10472
   1.60300   0.61168  -0.34414
   1.84242   0.61168  -0.10472
   1.84242   0.37226  -0.10472
   1.84242   0.13284   0.61354
   1.84242  -0.10658   0.85296
   1.60300  -0.10658   0.61354
   1.12416  -0.10658   0.13470
   1.12416  -0.10658  -0.10472
   1.12416   0.13284  -0.10472
   0.88474   0.13284   0.13470
   0.88474  -0.10658   0.13470
   0.64532  -0.58542  -0.10472
   0.40590  -0.82484  -0.34414
   0.40590  -0.82484  -0.82298
   0.16648  -0.82484  -1.30182
  -0.07294  -0.82484  -1.54124
  -0.07294  -0.82484  -1.54124
   0.64532  -0.82484  -1.30182
   1.12416  -0.58542  -1.06240
   1.12416  -0.58542  -0.34414
   1.12416  -0.58542  -0.34414
   1.36358  -0.82484  -0.34414
   1.60300  -0.82484  -0.82298
   1.60300  -0.82484  -1.06240
   1.60300  -0.58542  -1.06240
   1.60300  -0.58542  -1.06240
   1.36358  -0.82484  -0.82298
   1.36358  -1.06426  -0.34414
   1.36358  -1.06426  -0.10472
   1.12416  -0.82484  -0.10472
   1.12416  -0.58542  -0.10472
   1.12416  -0.58542  -0.58356
   0.88474  -0.58542  -0.58356
   0.88474  -0.58542  -0.58356
   0.64532  -0.58542  -0.10472
   0.64532  -0.34600   0.37412
   0.40590  -0.10658   1.09238
   0.40590   0.13284   1.09238
   0.40590   0.13284   0.85296
   0.40590   0.37226   0.61354
   0.16648   0.61168   0.37412
  -0.31236   0.37226   0.13470
  -0.07294   0.13284   0.13470
  -0.31236   0.13284   0.37412
  -0.07294   0.37226   0.61354
  -0.07294   0.37226   0.61354
   0.40590   0.37226   0.61354
   0.40590   0.37226   0.61354
   0.64532   0.37226  -0.10472
   0.16648   0.13284  -0.34414
   0.16648  -0.10658  -0.58356
  -0.07294   0.13284  -0.34414
  -0.31236   0.13284  -0.58356
  -0.31236   0.37226  -0.58356
  -0.31236   0.37226  -0.34414
  -0.31236   0.37226  -0.10472
  -0.31236   0.37226   0.13470
  -0.55178   0.61168  -0.34414
  -0.79120   0.61168  -0.34414
  -1.03062   0.61168  -0.34414
  -1.50946   0.37226   0.13470
  -1.27004   0.13284   0.37412
  -1.03062   0.13284   0.61354
  -0.55178   0.13284   0.85296
  -0.55178   0.13284   0.85296
  -0.31236   0.13284   0.85296
  -0.07294   0.13284   0.85296
  -0.31236   0.13284   0.85296
  -0.31236   0.13284   0.61354
  -0.79120   0.13284   0.37412
  -1.03062   0.37226   0.37412
  -1.03062   0.13284   0.37412
  -1.03062   0.37226   0.61354
  -0.79120   0.37226   0.61354
  -0.55178   0.37226   0.61354
  -0.55178   0.37226   0.37412
  -0.31236   0.61168   0.13470
  -0.55178   0.37226  -0.10472
  -0.55178   0.37226  -0.58356
  -0.31236   0.37226  -0.58356
  -0.31236   0.37226  -0.58356
  -0.31236   0.37226  -0.34414
  -0.07294   0.37226  -0.10472
   0.16648   0.13284   0.37412
   0.40590   0.13284   0.61354
   0.40590   0.13284   0.61354
   0.40590  -0.10658   0.61354
   0.40590  -0.10658   0.37412
   0.40590  -0.10658   0.37412
   0.64532   0.13284   0.61354
   0.64532   0.13284   0.85296
   0.64532  -0.10658   1.33180
   0.64532  -0.10658   1.33180
   1.12416  -0.10658   1.09238
   0.88474   0.13284   1.09238
   0.64532   0.13284   0.61354
   0.64532   0.13284   0.61354
   0.40590   0.13284   0.85296
   0.64532   0.37226   0.85296
   0.40590   0.61168   1.09238
   0.16648   0.61168   1.33180
   0.16648   0.61168   1.57122
   0.16648   0.61168   1.57122
   0.40590   0.61168   1.57122
   0.64532   0.61168   1.33180
   0.64532   0.37226   1.09238
   0.64532   0.37226   1.09238
   0.64532   0.13284   1.09238
   0.88474   0.13284   0.85296
   0.88474   0.13284   0.61354
   0.88474  -0.10658   0.61354
   0.88474  -0.34600  -0.10472
   0.64532  -0.58542  -0.34414
   0.40590  -0.58542  -0.58356
  -0.07294  -0.58542  -1.06240
  -0.55178  -0.58542  -1.06240
  -0.55178  -0.34600  -0.82298
  -0.79120  -0.34600  -0.82298
  -1.03062  -0.10658  -1.06240
  -1.27004  -0.10658  -1.30182
  -1.50946   0.13284  -1.54124
  -1.50946   0.37226  -1.78066
  -1.74888   0.85110  -2.02008
  -2.22772   0.85110  -2.02008
  -2.46714   1.09052  -1.78066
  -2.46714   1.09052  -1.54124
  -2.70656   0.85110  -1.78066
  -2.94598   0.85110  -2.02008
  -2.94598   0.37226  -2.25950
  -2.94598   0.37226  -2.25950
  -2.70656   0.13284  -1.78066
  -2.46714  -0.10658  -1.78066
  -2.46714  -0.34600  -1.30182
  -2.70656  -0.34600  -1.30182
  -2.22772  -0.58542  -1.30182
  -1.98830  -0.58542  -1.30182
  -1.98830  -0.34600  -1.30182
  -2.22772  -0.10658  -1.30182
  -1.98830  -0.10658  -1.30182
  -1.98830   0.13284  -1.54124
  -1.74888   0.37226  -1.78066
  -1.74888   0.37226  -1.78066
  -1.74888   0.37226  -1.78066
  -1.50946   0.61168  -1.54124
  -1.50946   0.37226  -1.54124
  -1.50946   0.13284  -1.54124
  -1.50946   0.13284  -1.30182
  -1.27004  -0.10658  -1.06240
  -1.03062  -0.10658  -0.82298
  -0.79120  -0.34600  -0.58356
  -0.31236  -0.34600  -0.58356
  -0.07294  -0.34600  -0.58356
  -0.07294  -0.34600  -0.82298
   0.64532  -0.34600  -0.82298
   0.64532  -0.34600  -0.82298
   1.12416  -0.58542  -0.58356
   1.36358  -0.58542  -0.34414
   1.84242  -0.34600  -0.10472
   2.32126  -0.58542   0.13470
   2.32126  -0.58542   0.13470
   2.80010  -0.58542   0.37412
   3.03952  -0.58542   0.61354
   3.03952  -0.58542   1.09238
   3.27894  -0.82484   1.09238
   3.03952  -0.82484   1.09238
   2.80010  -0.58542   1.33180
   2.56068  -0.34600   1.81064
   2.56068  -0.34600   2.28948
   2.08184  -0.10658   2.52890
   2.08184   0.13284   2.52890
   2.08184   0.37226   2.76832
   2.08184   0.61168   3.00774
   2.08184   0.61168   3.48658
   2.08184   1.09052   3.72600
   1.84242   1.09052   3.72600
   1.84242   1.09052   3.72600
   1.84242   0.85110   3.72600
   1.60300   0.85110   3.96542
   1.36358   0.85110   4.20484
   1.12416   0.61168   3.96542
   1.12416   0.37226   3.72600
   0.88474   0.13284   3.24716
   0.64532   0.13284   2.76832
   0.16648  -0.10658   2.52890
  -0.31236   0.13284   2.28948
  -0.79120   0.13284   2.28948
  -1.27004   0.13284   2.05006
  -1.27004  -0.10658   2.05006
  -1.27004  -0.10658   2.05006
  -1.50946  -0.10658   2.52890
  -1.50946  -0.34600   2.28948
  -1.74888  -0.34600   2.05006
  -1.50946  -0.34600   1.57122
  -1.74888  -0.10658   1.33180
  -1.74888  -0.10658   0.85296
  -1.50946  -0.10658   0.61354
  -1.27004  -0.34600   0.13470
  -1.03062  -0.58542  -0.10472
  -1.03062  -0.58542  -0.34414
  -1.03062  -0.58542  -0.58356
  -1.27004  -0.58542  -0.82298
  -1.27004  -0.58542  -0.82298
  -1.27004  -0.58542  -1.30182
  -1.50946  -0.58542  -1.54124
  -1.74888  -0.34600  -1.54124
  -1.50946  -0.58542  -1.78066
  -1.50946  -0.34600  -2.02008
  -1.50946  -0.10658  -2.25950
  -1.50946   0.37226  -2.49892
  -1.74888   0.61168  -2.73834
  -1.74888   0.61168  -3.21718
  -1.74888   0.61168  -2.97776
  -1.50946   0.61168  -2.97776
  -1.50946   0.37226  -2.73834
  -1.50946   0.61168  -2.73834
  -1.74888   0.61168  -2.49892
  -1.74888   0.61168  -2.25950
  -1.50946   0.37226  -1.78066
  -1.74888   0.61168  -1.78066
  -1.74888   0.85110  -1.54124
  -1.98830   0.61168  -1.54124
  -1.98830   0.61168  -1.54124
  -1.98830   0.61168  -1.06240
  -1.74888   0.61168  -0.82298
  -1.27004   0.37226  -0.58356
  -1.03062   0.37226  -0.82298
  -0.55178   0.61168  -1.30182
  -0.31236   0.37226  -1.30182
  -0.07294   0.13284  -0.82298
  -0.07294   0.13284  -0.58356
   0.16648  -0.10658  -0.34414
   0.16648  -0.58542  -0.58356
   0.40590  -0.58542  -0.58356
   0.40590  -0.58542  -0.82298
   0.40590  -0.58542  -1.06240
   0.64532  -0.34600  -1.54124
   0.88474  -0.10658  -1.54124
   1.12416  -0.10658  -1.54124
   1.60300   0.13284  -1.30182
   1.84242   0.37226  -1.30182
   1.84242   0.37226  -1.06240
   2.08184   0.61168  -0.58356
   2.32126   0.61168  -0.10472
   2.80010   0.61168   0.13470
   3.03952   0.61168   0.13470
   3.03952   0.37226  -0.10472
   3.03952   0.37226  -0.34414
   3.03952   0.37226  -0.58356
   2.80010   0.13284  -0.34414
   2.80010  -0.10658  -0.10472
   2.56068  -0.34600   0.13470
   2.32126  -0.58542  -0.10472
   2.56068  -0.58542  -0.10472
   2.32126  -1.06426  -0.34414
   2.32126  -1.30368  -0.10472
   2.08184  -1.54310   0.13470
   1.84242  -1.54310   0.37412
   1.84242  -1.30368   0.37412
   1.60300  -1.30368   0.85296
   1.60300  -1.06426   1.09238
   1.12416  -0.82484   1.09238
   0.88474  -0.58542   1.33180
   0.88474  -0.58542   1.33180
   0.64532  -0.58542   1.09238
   0.64532  -0.34600   1.09238
   0.16648  -0.10658   1.33180
  -0.07294  -0.10658   1.33180
  -0.07294  -0.10658   1.09238
  -0.31236  -0.10658   0.85296
  -0.07294  -0.34600   0.85296
  -0.31236  -0.10658   0.85296
  -0.31236  -0.10658   0.61354
  -0.79120  -0.10658   0.37412
  -0.79120  -0.10658   0.13470
  -0.79120  -0.10658   0.13470
  -0.79120  -0.10658   0.37412
  -0.79120  -0.10658   0.37412
  -0.79120   0.13284   0.13470
  -0.79120   0.13284   0.13470
  -0.79120   0.37226   0.13470
  -0.55178   0.13284   0.13470
  -0.31236   0.13284   0.13470
  -0.07294  -0.10658   0.37412
   0.16648  -0.10658   0.13470
   0.40590   0.13284   0.13470
   0.40590   0.13284   0.37412
   0.64532   0.13284   0.13470
   0.40590   0.37226   0.37412
   0.40590   0.61168   0.37412
   0.40590   0.61168   0.13470
   0.16648   1.09052  -0.10472
  -0.07294   1.09052  -0.34414
  -0.07294   1.09052  -0.58356
  -0.07294   1.09052  -0.58356
   0.16648   1.09052  -0.58356
   0.16648   1.09052  -0.82298
   0.16648   0.85110  -1.06240
   0.16648   0.85110  -1.06240
   0.16648   0.61168  -1.30182
   0.40590   0.37226  -1.06240
   0.64532   0.13284  -0.82298
   0.64532  -0.10658  -0.58356
   0.64532  -0.34600  -0.34414
   0.64532  -0.58542  -0.58356
   0.40590  -0.34600  -0.58356
   0.40590  -0.58542  -0.34414
   0.40590  -0.58542  -0.10472
   0.40590  -0.58542  -0.10472
   0.88474  -0.58542  -0.10472
   0.88474  -0.58542  -0.34414
   0.88474  -0.34600  -0.58356
   0.88474  -0.34600  -0.58356
   1.12416  -0.34600  -0.34414
   1.12416  -0.34600  -0.58356
   1.12416  -0.34600  -0.10472
   0.64532  -0.34600   0.13470
   0.64532  -0.10658   0.37412
   0.16648   0.13284   0.13470
  -0.07294   0.13284   0.13470
  -0.55178   0.13284   0.13470
  -0.79120   0.13284   0.37412
  -1.27004   0.13284   0.13470
  -1.27004   0.13284  -0.10472
  -1.50946   0.13284  -0.10472
  -1.27004   0.13284  -0.10472
  -1.03062   0.13284   0.13470
  -0.79120   0.13284   0.13470
  -0.55178   0.13284  -0.10472
