********************************************************************************
              CENTRO DE INSTRUMENTACION Y REGISTRO SISMICO  A.C.

    Anaxagoras 814, Col. Narvarte, Benito Juarez, C.P. 03020 Mexico, D.F.
           Tels. 5687 45 42/ 5687 45  82             Fax. 5669 25 12
********************************************************************************
ARCHIVO ESTANDAR DE ACELERACION:
VERSION DEL FORMATO                    : 2.0
NOMBRE DEL ARCHIVO                     : AU4620111211014725
FECHA Y HORA DE CREACION               : 04/ENE/12, 12:26
REF. CATALOGO ACELEROGRAMAS, SMIS 1996 : REGISTRO No.     /PAG.


================================================================================
DATOS DE LA ESTACION:
NOMBRE DE LA ESTACION                  : ESC. SEC. TÉC. NO. 14
CLAVE DE LA ESTACION                   : AU46
LOCALIZACION DE LA ESTACION            : Del. Benito Juárez, Col. del Valle,    
                                       : Entre Angel Urraza y Coyoacán.         
                                       :                                        
                                       :                                        
                                       : 
COORDENADAS DE LA ESTACION             : 19.3832 LAT. N
                                       : 99.1681 LONG. W
ALTITUD (msnm)                         : 2233
TIPO DE SUELO                          : Transición                          
                                       :                           
                                       : 
INSTITUCION RESPONSABLE                : CIRES
                                       : 

================================================================================
DATOS DEL ACELEROGRAFO:
MODELO DEL ACELEROGRAFO                : RADESD
NUMERO DE SERIE DEL ACELEROGRAFO       : 236
NUMERO DE CANALES                      : 3
ORIENTACION C1-C6 (rumbo;orientacion)  : /N00E/+V/N90W
ORIENTACION C7-C12 (rumbo;orientacion) : 
VEL. DE MUESTREO, C1-C6 (muestras/s)   : /100/100/100
VEL. DE MUESTREO, C7-C12 (muestras/s)  : 
ESC. COMPLETA DE SENSORES, C1-C6, (g)  : /0.5/0.5/0.5
ESC. COMPLETA DE SENSORES, C7-C12, (g) : 
FREC. NAT. DE SENSORES, C1-C6, (Hz)    : /33/30/30
FREC. NAT. DE SENSORES, C7-C12, (Hz)   : 
AMORTIGUAMIENTO DE SENSORES, C1-C6     : /0.735/0.733/0.730
AMORTIGUAMIENTO DE SENSORES, C7-C12    : 
INTERVALO DE MUESTREO, C1-C6, (s)      : /0.01/0.01/0.01
INTERVALO DE MUESTREO, C7-C12, (s)     : 
UMBRAL DE DISPARO, C1-C6, (Gal)        : /1.68/4.31/1.92
UMBRAL DE DISPARO, C7-C12, (Gal)       : 
MEMORIA DE PREEVENTO (s)               : 56.0
TIEMPO DE POSEVENTO (s)                : 64.0


================================================================================
DATOS DEL SISMO:
FECHA DEL SISMO (GMT)                  : 11/DIC/11
HORA EPICENTRO (GMT)                   : 01:47:25.0
MAGNITUD(ES)                           : /Mc=6.5
COORDENADAS DEL EPICENTRO              : 17.84 LAT. N
                                       : 99.98 LONG. W
PROFUNDIDAD FOCAL (km)                 : 58
FUENTE DE LOS DATOS EPICENTRALES       : SSN
                                       : INSTITUTO DE GEOFISICA, UNAM

================================================================================
DATOS DE ESTE REGISTRO:
HORA DE LA PRIMERA MUESTRA (GMT)       : 01:47:45.00
EXACTITUD DEL TIEMPO (s)               : 0.01
DURACION DEL REGISTRO (s), C1-C6       : /214.75/214.75/214.75
DURACION DEL REGISTRO (s), C7-C12      : 
NUM. TOTAL DE MUESTRAS, C1-C6          : /21475/21475/21475
NUM. TOTAL DE MUESTRAS, C7-C12         : 
ACEL. MAX. (Gal), C1-C6                : /17.81402/9.77827/12.62726
ACEL. MAX., C1-C6, EN LA MUESTRA       : /8033/7870/8167
ACEL. MAX. (Gal), C7-C12               : 
ACEL. MAX., C7-C12, EN LA MUESTRA      : 
UNIDADES DE LOS DATOS                  : Gal (cm/s/s)
FACTOR DE DECIMACION                   : 1
FORMATO DATOS (FORTRAN,10 campos/dato) : 3F10.5


================================================================================
CALIDAD DEL ACELEROGRAMA:
REGISTRO DIGITAL COMPLETO CON TIEMPO ABSOLUTO CORRECTO.


================================================================================
COMENTARIOS:














================================================================================
DATOS DE ACELERACION:
---------+---------+---------+---------+---------+---------+---------+---------+
   CANAL-1   CANAL-2   CANAL-3   CANAL-4   CANAL-5   CANAL-6   CANAL-7   CANAL-8
      N00E        +V      N90W
---------+---------+---------+---------+---------+---------+---------+---------+
[...]
  -2.53669  -2.11682   1.97737
  -2.05785  -1.63798   1.49853
  -1.81843  -0.68030   1.25911
  -2.05785   0.99564   0.78027
  -2.29727   2.43216   0.54085
  -3.01553   3.86868  -0.17741
  -3.97322   4.82636  -0.89567
  -4.45206   6.02347  -1.13509
  -5.40974   6.26289  -1.13509
  -5.88858   6.02347  -0.89567
  -5.88858   5.06579  -0.65625
  -5.64916   3.86868  -0.17741
  -5.40974   2.67158  -0.41683
  -5.17032   2.19274  -1.37451
  -4.93090   1.71390  -2.33219
  -4.69148   0.99564  -3.76871
  -4.45206   0.51680  -4.96581
  -3.97322  -0.68030  -5.92349
  -3.73380  -1.63798  -5.68407
  -3.49437  -2.59566  -4.48697
  -2.77611  -3.79276  -2.81103
  -2.77611  -5.46870  -0.89567
  -3.01553  -6.42638   0.06201
  -3.25495  -6.66580   1.01969
  -3.97322  -6.42638   1.49853
  -4.69148  -5.46870   2.21679
  -4.45206  -4.51102   2.45621
  -3.97322  -3.31392   3.17447
  -2.77611  -2.35624   3.41389
  -1.33959  -0.91972   3.17447
   0.09693   0.27738   2.69563
   1.29403   1.47448   2.21679
   2.01229   3.15042   1.97737
   1.77287   4.34752   1.49853
   1.05461   5.54463   1.49853
  -0.14249   6.26289   1.49853
  -1.57901   6.50231   1.73795
  -2.77611   6.26289   1.97737
  -4.45206   6.02347   1.49853
  -5.40974   4.34752   0.78027
  -6.84626   2.19274  -0.17741
  -7.08568  -0.44088  -1.13509
  -6.84626  -1.87740  -1.37451
  -6.12800  -2.59566  -1.13509
  -4.69148  -3.07450  -1.13509
  -3.01553  -2.83508  -0.41683
  -1.10017  -2.59566   0.30143
   0.57577  -1.87740   1.25911
   2.25171  -0.91972   1.97737
   3.44881   0.03796   2.21679
   3.92765   0.99564   2.21679
   4.16707   1.95332   1.73795
   4.64591   1.95332   1.01969
   4.40649   1.95332   0.30143
   4.16707   1.71390   0.06201
   3.68823   1.23506  -0.17741
   2.96997   0.99564   0.06201
   2.96997   0.51680   0.30143
   2.96997   0.27738   0.06201
   2.96997   0.51680  -0.41683
   3.44881   0.51680  -1.13509
   4.16707   0.27738  -1.85335
   4.88533  -0.44088  -2.33219
   5.84301  -1.39856  -2.33219
   6.08243  -1.87740  -2.09277
   6.08243  -1.87740  -1.37451
   5.84301  -1.39856  -1.13509
   5.84301  -1.15914  -1.37451
   6.08243  -1.39856  -2.33219
   6.08243  -2.11682  -3.05045
   6.32185  -3.07450  -4.24755
   6.32185  -4.27160  -5.44465
   6.32185  -4.98986  -7.12060
   5.84301  -5.22928  -8.55712
   5.36417  -4.98986  -9.51480
   4.88533  -4.27160 -10.71190
   3.92765  -3.31392 -11.43016
   2.96997  -2.35624 -11.66958
   2.01229  -1.39856 -11.19074
   1.05461  -0.68030  -9.99364
  -0.38191   0.03796  -8.55712
  -2.05785   0.51680  -6.88118
  -3.73380   0.27738  -5.20523
  -5.17032   0.03796  -4.00813
  -6.36742   0.03796  -3.52929
  -6.36742   0.27738  -3.28987
  -6.36742   0.03796  -3.28987
  -6.12800  -0.68030  -3.76871
  -5.40974  -1.87740  -3.76871
  -4.45206  -3.55334  -4.00813
  -3.49437  -4.75044  -4.48697
  -2.53669  -4.98986  -4.48697
  -1.57901  -4.75044  -4.72639
  -1.10017  -3.55334  -4.96581
  -0.38191  -2.83508  -5.20523
  -0.14249  -2.11682  -5.20523
   0.09693  -1.39856  -4.72639
   0.33635  -0.68030  -4.48697
   0.33635   0.27738  -4.24755
   0.09693   1.23506  -4.00813
  -0.38191   2.43216  -3.52929
  -0.62133   3.62926  -2.81103
  -0.38191   5.06579  -1.61393
  -0.14249   6.50231  -0.65625
   0.33635   7.69941   0.30143
   1.05461   7.69941   1.25911
   1.53345   7.22057   1.97737
   2.49113   6.26289   2.45621
   3.44881   4.82636   3.65331
   4.16707   3.38984   4.61099
   5.12475   2.19274   5.56867
   6.32185   0.75622   6.76577
   7.04011  -0.44088   7.72345
   8.71605  -1.87740   8.20230
  10.63141  -3.07450   8.68114
  11.82852  -3.79276   9.15998
  13.02562  -3.79276   9.39940
  13.26504  -3.31392   9.63882
  13.02562  -2.59566   9.63882
  11.34968  -0.91972   8.68114
   9.67373   0.75622   8.20230
   7.99779   2.19274   7.00519
   5.84301   3.38984   6.04751
   3.68823   3.62926   5.08983
   1.77287   3.38984   4.13215
  -0.38191   2.67158   3.41389
  -1.81843   2.19274   3.17447
  -3.01553   1.71390   2.93505
  -3.97322   1.71390   3.17447
  -4.21264   1.23506   3.65331
  -4.45206   0.03796   4.61099
  -4.21264  -1.39856   5.56867
  -3.73380  -3.07450   6.52635
  -3.25495  -4.27160   7.72345
  -3.25495  -4.75044   8.20230
  -3.01553  -4.75044   8.44172
  -3.25495  -4.03218   8.44172
  -3.49437  -2.59566   8.20230
  -3.97322  -1.87740   7.24461
  -4.69148  -1.63798   6.52635
  -5.40974  -1.39856   5.08983
  -6.60684  -1.15914   3.89273
  -7.32510  -1.15914   2.21679
  -8.28278  -1.15914   1.25911
  -9.24046  -1.15914   0.78027
  -9.95872  -1.15914   1.25911
 -11.39524  -0.44088   2.45621
 -12.35292   0.27738   4.13215
 -13.31060   1.23506   5.56867
 -14.02886   2.19274   7.00519
 -14.50770   2.67158   8.20230
 -14.02886   2.67158   8.92056
 -13.31060   2.67158   9.39940
 -11.87408   2.43216   9.39940
 -10.43756   2.19274   8.68114
  -9.00104   1.95332   7.72345
  -6.84626   0.99564   5.80809
  -4.69148  -0.44088   3.65331
  -2.29727  -2.11682   1.25911
  -0.14249  -3.07450  -0.65625
   2.25171  -4.03218  -2.09277
   4.16707  -4.51102  -3.28987
   5.84301  -4.75044  -4.00813
   6.80069  -4.27160  -4.48697
   7.51895  -3.31392  -4.72639
   7.27953  -1.87740  -4.72639
   6.80069   0.27738  -5.44465
   6.32185   2.19274  -5.92349
   5.36417   4.34752  -6.88118
   4.40649   6.26289  -7.59944
   3.92765   7.69941  -8.07828
   3.44881   8.41767  -8.55712
   3.20939   8.41767  -8.55712
   3.44881   7.45999  -8.31770
   4.16707   5.54463  -7.59944
   5.12475   3.38984  -6.64176
   6.08243   1.23506  -5.20523
   7.51895  -0.91972  -4.00813
   8.95547  -3.07450  -3.05045
  10.39199  -4.98986  -2.81103
  11.11026  -6.90522  -3.05045
  11.11026  -8.34174  -4.00813
  10.87084  -9.29942  -5.20523
   9.91315  -9.77827  -5.92349
   8.71605  -9.53885  -6.40233
   7.27953  -9.06000  -6.64176
   5.60359  -8.10232  -6.64176
   4.16707  -6.90522  -6.64176
   2.73055  -5.46870  -6.40233
   1.29403  -3.79276  -5.92349
   0.33635  -2.35624  -4.72639
   0.09693  -0.91972  -3.05045
  -0.14249   0.75622  -1.37451
  -0.14249   2.19274   0.06201
  -0.14249   3.62926   1.49853
   0.09693   4.34752   2.21679
   0.09693   5.06579   3.17447
  -0.38191   5.30521   3.89273
  -0.62133   5.30521   4.37157
  -1.10017   4.82636   4.37157
  -2.05785   3.86868   3.89273
  -2.53669   2.67158   2.93505
  -3.25495   1.47448   1.97737
  -3.97322   0.75622   1.01969
  -4.69148  -0.44088  -0.41683
  -5.40974  -1.39856  -1.13509
  -5.88858  -2.35624  -1.85335
  -6.12800  -2.59566  -2.09277
  -5.88858  -2.59566  -2.09277
  -5.64916  -2.35624  -1.85335
  -5.64916  -2.59566  -1.61393
  -5.40974  -2.59566  -0.65625
  -5.40974  -2.35624   0.54085
  -5.40974  -1.63798   1.73795
  -5.64916  -0.44088   3.17447
  -5.88858   0.75622   3.65331
  -6.12800   2.19274   3.65331
  -6.36742   3.38984   3.41389
  -7.08568   4.58694   3.17447
  -7.56452   5.30521   2.93505
  -8.04336   5.54463   2.93505
  -8.28278   5.30521   2.93505
  -8.28278   5.06579   2.45621
  -7.80394   4.58694   1.97737
  -7.08568   4.10810   1.73795
  -6.12800   3.62926   1.01969
  -5.40974   3.15042   0.30143
  -5.17032   2.19274   0.30143
  -4.69148   0.75622   0.30143
  -4.93090  -0.44088   1.01969
  -5.40974  -1.63798   1.25911
  -6.12800  -2.59566   1.49853
  -7.08568  -3.07450   1.25911
  -8.04336  -3.55334   0.78027
  -8.76162  -3.31392   0.54085
  -9.47988  -2.59566   0.78027
  -9.95872  -1.87740   1.01969
  -9.71930  -1.15914   1.01969
  -8.76162  -0.91972   1.01969
  -6.84626  -1.15914   1.01969
  -4.45206  -1.39856   1.01969
  -2.05785  -1.63798   1.25911
   0.33635  -1.63798   1.73795
   1.77287  -1.63798   1.73795
   2.73055  -1.15914   1.73795
   2.96997  -0.91972   1.97737
   2.73055  -0.68030   2.21679
   2.01229  -0.20146   1.97737
   1.05461   0.51680   1.49853
  -0.14249   1.23506   0.54085
  -0.86075   1.71390  -0.41683
  -1.33959   2.43216  -0.89567
  -0.86075   2.43216  -1.61393
  -0.62133   2.91100  -1.85335
   0.33635   3.38984  -2.33219
   0.81519   3.15042  -2.57161
   1.77287   2.91100  -3.05045
   2.49113   2.19274  -3.76871
   3.44881   1.47448  -4.96581
   4.64591   1.23506  -5.92349
   6.08243   0.99564  -6.40233
   7.51895   0.75622  -6.40233
   8.71605   0.51680  -5.20523
   9.67373   0.27738  -3.28987
   9.91315  -0.20146  -0.89567
  10.39199  -0.68030   1.01969
  10.87084  -0.68030   2.45621
  11.58910  -0.68030   2.93505
  12.30736  -0.44088   2.93505
  12.78620   0.03796   2.21679
  13.02562   0.27738   1.25911
  13.02562   0.27738   0.30143
  12.30736   0.27738  -0.65625
  11.58910   0.75622  -1.13509
  10.87084   1.47448  -1.85335
  10.39199   2.43216  -2.33219
  10.15257   3.15042  -3.05045
   9.91315   3.62926  -3.05045
   9.43431   4.10810  -2.09277
   8.95547   4.82636  -0.89567
   8.23721   5.06579   0.54085
   7.51895   5.06579   1.73795
   7.04011   4.34752   2.21679
   6.56127   3.38984   2.93505
   6.32185   1.95332   3.17447
   5.84301   0.51680   3.17447
   5.12475  -0.68030   2.93505
   4.16707  -1.63798   2.45621
   2.73055  -2.11682   1.97737
   1.29403  -2.35624   1.49853
  -0.14249  -2.59566   1.01969
  -1.33959  -3.07450   0.78027
  -2.29727  -3.55334   1.01969
  -3.49437  -4.27160   1.25911
  -4.93090  -4.51102   1.25911
  -6.84626  -4.27160   1.25911
  -9.00104  -3.55334   1.49853
 -11.15582  -2.35624   2.21679
 -13.31060  -0.68030   2.69563
 -15.22596   0.51680   3.41389
 -16.66248   1.23506   3.65331
 -17.38074   0.99564   4.13215
 -17.38074   0.75622   4.61099
 -17.38074   0.03796   4.85041
 -17.38074  -0.44088   4.85041
 -17.14132  -1.39856   4.85041
 -16.66248  -1.87740   4.37157
 -15.94422  -2.11682   3.89273
 -15.22596  -2.11682   3.41389
 -14.50770  -2.11682   2.21679
 -13.55002  -1.87740   0.78027
 -12.35292  -2.59566  -1.13509
 -11.87408  -3.07450  -3.28987
 -10.91640  -3.55334  -4.96581
 -10.43756  -3.79276  -6.16291
 -10.43756  -3.07450  -6.88118
 -10.43756  -1.87740  -7.36002
 -10.43756  -0.44088  -7.12060
 -10.19814   0.27738  -6.40233
  -9.71930   0.75622  -5.20523
  -8.76162   0.99564  -4.00813
  -8.04336   1.47448  -3.05045
  -6.60684   1.47448  -2.81103
  -4.69148   2.19274  -2.09277
  -2.53669   2.43216  -1.37451
  -0.14249   3.15042  -0.89567
   2.73055   3.38984  -0.41683
   5.12475   3.62926   0.06201
   7.51895   3.62926   0.54085
   9.91315   3.38984   0.54085
  11.82852   3.38984   0.54085
  13.74388   3.38984   0.54085
  14.70156   3.62926  -0.17741
  14.94098   3.62926  -0.89567
  14.22272   3.62926  -1.13509
  13.26504   3.38984  -1.37451
  11.82852   2.91100  -0.65625
  11.11026   1.95332   0.06201
  11.11026   0.75622   0.78027
  11.34968   0.27738   1.49853
  11.82852  -0.68030   1.49853
  12.78620  -0.68030   1.01969
  13.98330  -0.68030   0.54085
  15.65924  -0.68030   0.30143
  16.61692  -0.20146   0.54085
  17.57460   0.27738   1.01969
  17.81402   0.51680   1.73795
  17.81402   0.27738   2.45621
  17.57460   0.03796   2.93505
  17.09576   0.03796   3.65331
  15.89866   0.27738   3.89273
  14.94098   0.27738   4.13215
  13.26504   0.27738   4.37157
  11.58910   0.03796   4.13215
  10.15257   0.27738   4.37157
   9.19489  -0.44088   4.61099
   8.23721  -0.91972   4.85041
   7.51895  -1.39856   4.61099
   7.04011  -2.11682   4.61099
   6.32185  -2.35624   4.61099
   5.60359  -2.35624   4.85041
   4.16707  -2.35624   4.85041
   2.49113  -1.87740   4.37157
   0.57577  -0.68030   4.37157
  -1.33959   0.03796   4.13215
  -3.49437   1.23506   3.89273
  -5.64916   1.95332   3.65331
  -7.56452   2.19274   2.93505
  -8.76162   2.43216   2.45621
  -9.71930   2.43216   1.25911
 -10.43756   2.67158   0.30143
 -11.15582   2.67158  -0.89567
 -11.63466   2.43216  -2.09277
 -12.11350   1.95332  -2.57161
 -12.35292   1.95332  -2.81103
 -13.07118   0.99564  -2.81103
 -14.02886   0.75622  -2.81103
 -14.74712   0.03796  -3.28987
 -15.22596  -0.68030  -4.00813
 -15.70480  -1.39856  -4.48697
 -15.70480  -1.87740  -4.72639
 -15.94422  -2.59566  -5.20523
 -15.94422  -3.07450  -5.44465
 -15.70480  -3.55334  -5.44465
 -15.46538  -4.03218  -5.68407
 -15.22596  -4.51102  -6.16291
 -14.98654  -4.98986  -6.64176
 -14.74712  -5.46870  -7.12060
 -14.26828  -5.70812  -7.59944
 -14.02886  -5.70812  -7.59944
 -13.55002  -5.70812  -7.36002
 -13.31060  -4.98986  -6.64176
 -12.83176  -4.27160  -5.92349
 -12.11350  -3.55334  -5.44465
 -11.15582  -2.83508  -4.96581
  -9.95872  -1.87740  -4.96581
  -8.52220  -0.68030  -4.96581
  -6.84626   0.51680  -5.44465
  -5.17032   1.71390  -6.40233
  -3.25495   2.43216  -7.12060
  -1.33959   3.15042  -7.59944
   0.33635   3.15042  -7.83886
   1.77287   3.15042  -7.83886
   2.49113   2.91100  -7.36002
   3.44881   2.67158  -6.88118
   3.44881   2.43216  -6.40233
   3.68823   2.19274  -5.92349
   3.68823   2.19274  -4.72639
   3.92765   2.43216  -4.00813
   4.40649   2.67158  -3.52929
   5.36417   3.15042  -2.57161
   6.32185   3.62926  -1.85335
   7.27953   3.86868  -0.89567
   8.23721   4.10810   0.30143
   8.95547   3.38984   1.49853
   9.67373   2.91100   2.69563
  10.39199   2.43216   3.89273
  11.11026   1.95332   4.61099
  12.06794   1.71390   5.32925
  13.26504   1.23506   5.80809
  13.98330   0.51680   6.28693
  14.22272  -0.44088   6.52635
  13.98330  -1.39856   6.76577
  13.74388  -1.87740   6.04751
  13.26504  -2.35624   5.32925
  13.02562  -2.11682   4.37157
  12.30736  -1.87740   3.41389
  11.82852  -1.87740   2.93505
  11.11026  -1.87740   3.17447
  10.39199  -1.63798   3.89273
  10.15257  -1.63798   4.37157
   9.67373  -1.15914   4.85041
   9.67373  -1.15914   4.85041
   9.67373  -1.15914   5.08983
   9.67373  -0.44088   5.08983
   9.67373  -0.44088   5.56867
   9.19489   0.03796   5.80809
   8.95547   0.27738   6.04751
   8.23721   0.51680   6.28693
   7.04011   0.75622   6.04751
   5.36417   0.75622   6.04751
   3.44881   0.03796   5.32925
   1.29403  -0.44088   5.32925
  -0.86075  -1.63798   5.56867
  -3.01553  -2.35624   6.04751
  -4.69148  -3.31392   6.52635
  -5.88858  -4.27160   7.24461
  -6.84626  -5.22928   7.24461
  -8.04336  -5.46870   7.72345
  -9.24046  -5.22928   7.48403
 -10.43756  -4.51102   6.52635
 -11.63466  -3.55334   4.85041
 -13.07118  -2.35624   3.17447
 -14.98654  -0.68030   1.25911
 -15.70480   0.75622  -0.41683
 -16.42306   1.95332  -1.13509
 -16.90190   3.15042  -1.61393
 -17.14132   3.86868  -1.85335
 -16.90190   4.34752  -1.85335
 -16.18364   4.10810  -2.09277
 -14.98654   3.62926  -2.33219
 -14.02886   2.67158  -2.57161
 -12.35292   1.47448  -2.57161
 -10.91640   0.51680  -2.81103
  -9.95872   0.03796  -3.05045
  -9.24046  -0.44088  -3.52929
  -9.00104  -0.91972  -4.24755
  -8.76162  -1.39856  -4.72639
  -8.52220  -2.11682  -5.44465
  -8.52220  -2.59566  -6.40233
  -8.52220  -3.31392  -7.36002
  -8.04336  -3.55334  -8.07828
  -7.56452  -3.55334  -8.55712
  -6.60684  -2.83508  -8.79654
  -5.40974  -1.63798  -8.79654
  -3.73380  -0.20146  -8.79654
  -2.05785   1.47448  -9.27538
  -0.38191   2.91100  -9.99364
   1.53345   4.10810 -11.19074
   3.20939   5.06579 -11.90900
   4.88533   5.54463 -12.62726
   6.32185   6.02347 -12.62726
   7.99779   6.26289 -11.90900
   9.43431   6.02347 -11.19074
  10.87084   6.02347  -9.75422
  12.06794   5.54463  -8.55712
  13.26504   5.06579  -7.36002
  13.98330   4.58694  -6.64176
  14.70156   3.86868  -6.64176
  15.18040   2.91100  -6.64176
  15.65924   2.43216  -6.64176
  16.61692   1.47448  -6.40233
  16.85634   0.51680  -6.16291
  16.85634  -0.20146  -5.20523
  16.85634  -1.39856  -4.24755
  16.37750  -2.35624  -2.57161
