********************************************************************************
              CENTRO DE INSTRUMENTACION Y REGISTRO SISMICO  A.C.

    Anaxagoras 814, Col. Narvarte, Benito Juarez, C.P. 03020 Mexico, D.F.
           Tels. 5687 45 42/ 5687 45  82             Fax. 5669 25 12
********************************************************************************
ARCHIVO ESTANDAR DE ACELERACION:
VERSION DEL FORMATO                    : 2.0
NOMBRE DEL ARCHIVO                     : AU4620150320223008
FECHA Y HORA DE CREACION               : 08/ABR/15, 11:22
REF. CATALOGO ACELEROGRAMAS, SMIS 1996 : REGISTRO No.     /PAG.


================================================================================
DATOS DE LA ESTACION:
NOMBRE DE LA ESTACION                  : ESC. SEC. TÉC. NO. 14
CLAVE DE LA ESTACION                   : AU46
LOCALIZACION DE LA ESTACION            : Del. Benito Juárez, Col. del Valle,    
                                       : Entre Angel Urraza y Coyoacán.         
                                       :                                        
                                       :                                        
                                       : 
COORDENADAS DE LA ESTACION             : 19.3832 LAT. N
                                       : 99.1681 LONG. W
ALTITUD (msnm)                         : 2233
TIPO DE SUELO                          : Transición                          
                                       :                           
                                       : 
INSTITUCION RESPONSABLE                : CIRES
                                       : 

================================================================================
DATOS DEL ACELEROGRAFO:
MODELO DEL ACELEROGRAFO                : RADESD
NUMERO DE SERIE DEL ACELEROGRAFO       : 236
NUMERO DE CANALES                      : 3
ORIENTACION C1-C6 (rumbo;orientacion)  : /N00E/+V/N90W
ORIENTACION C7-C12 (rumbo;orientacion) : 
VEL. DE MUESTREO, C1-C6 (muestras/s)   : /100/100/100
VEL. DE MUESTREO, C7-C12 (muestras/s)  : 
ESC. COMPLETA DE SENSORES, C1-C6, (g)  : /0.5/0.5/0.5
ESC. COMPLETA DE SENSORES, C7-C12, (g) : 
FREC. NAT. DE SENSORES, C1-C6, (Hz)    : /33/30/30
FREC. NAT. DE SENSORES, C7-C12, (Hz)   : 
AMORTIGUAMIENTO DE SENSORES, C1-C6     : /0.735/0.733/0.730
AMORTIGUAMIENTO DE SENSORES, C7-C12    : 
INTERVALO DE MUESTREO, C1-C6, (s)      : /0.01/0.01/0.01
INTERVALO DE MUESTREO, C7-C12, (s)     : 
UMBRAL DE DISPARO, C1-C6, (Gal)        : /1.65/5.99/2.54
UMBRAL DE DISPARO, C7-C12, (Gal)       : 
MEMORIA DE PREEVENTO (s)               : 44.0
TIEMPO DE POSEVENTO (s)                : 91.0


================================================================================
DATOS DEL SISMO:
FECHA DEL SISMO (GMT)                  : 20/MAR/15
HORA EPICENTRO (GMT)                   : 22:30:08.0
MAGNITUD(ES)                           : /Mc=5.4
COORDENADAS DEL EPICENTRO              : 17.96 LAT. N
                                       : 98.58 LONG. W
PROFUNDIDAD FOCAL (km)                 : 61
FUENTE DE LOS DATOS EPICENTRALES       : SSN
                                       : INSTITUTO DE GEOFISICA, UNAM

================================================================================
DATOS DE ESTE REGISTRO:
HORA DE LA PRIMERA MUESTRA (GMT)       : 22:31:05.00
EXACTITUD DEL TIEMPO (s)               : 0.01
DURACION DEL REGISTRO (s), C1-C6       : /108.4/108.4/108.4
DURACION DEL REGISTRO (s), C7-C12      : 
NUM. TOTAL DE MUESTRAS, C1-C6          : /10840/10840/10840
NUM. TOTAL DE MUESTRAS, C7-C12         : 
ACEL. MAX. (Gal), C1-C6                : /2.81099/2.48993/3.81932
ACEL. MAX., C1-C6, EN LA MUESTRA       : /2694/2833/2985
ACEL. MAX. (Gal), C7-C12               : 
ACEL. MAX., C7-C12, EN LA MUESTRA      : 
UNIDADES DE LOS DATOS                  : Gal (cm/s/s)
FACTOR DE DECIMACION                   : 1
FORMATO DATOS (FORTRAN,10 campos/dato) : 3F10.5


================================================================================
CALIDAD DEL ACELEROGRAMA:
REGISTRO DIGITAL COMPLETO CON TIEMPO ABSOLUTO CORRECTO.


================================================================================
COMENTARIOS:














================================================================================
DATOS DE ACELERACION:
---------+---------+---------+---------+---------+---------+---------+---------+
   CANAL-1   CANAL-2   CANAL-3   CANAL-4   CANAL-5   CANAL-6   CANAL-7   CANAL-8
      N00E        +V      N90W
---------+---------+---------+---------+---------+---------+---------+---------+
[...]
   0.28211  -1.29590  -2.15835
  -0.09198  -1.14627  -1.97878
  -0.63068  -0.95174  -1.63462
  -1.09456  -0.71232  -1.15578
  -1.54347  -0.51779  -0.52730
  -1.79785  -0.30830  -0.07838
  -1.73800   0.11069   0.08622
  -1.43872   0.61946   0.26578
  -0.95988   0.97859   0.38549
  -0.31644   0.96362   0.43038
   0.29707   0.67931   0.58002
   0.80584   0.54464   0.81944
   1.37446   0.40996   1.02893
   1.70367   0.24536   1.22346
   1.61388   0.15558   1.44792
   1.31461   0.12565   1.62748
   0.97044  -0.15866   1.32821
   0.52153  -0.41304   1.34317
  -0.21169  -0.21851   1.52274
  -0.84017  -0.45793   1.20850
  -0.87010  -0.90685   1.34317
  -0.97485  -0.39808   1.46288
  -1.34894  -0.03895   1.23843
  -0.67557  -0.38312   0.78951
   0.25218  -0.51779   0.38549
   0.40182  -0.15866   0.63988
   0.94052   0.20047   0.96908
   1.50914   0.08076   0.71469
   1.38943  -0.45793   0.52017
   1.23979  -0.48786   0.55009
   0.98541  -0.39808   0.32564
   0.53649  -0.29333   0.07125
  -0.18177  -0.11377  -0.21306
  -0.76535  -0.06888  -0.46744
  -1.00477   0.05083  -0.51233
  -1.18434   0.00594  -0.48241
  -1.07959  -0.06888  -0.16817
  -0.64564   0.08076   0.20593
  -0.18177   0.17054   0.22089
   0.20729   0.18551   0.13111
   0.56642   0.42493   0.19096
   0.88066   0.69428   0.13111
   1.07519   0.60449  -0.10831
   1.04526   0.43989  -0.28788
   0.79088   0.40996  -0.54226
   0.52153   0.20047  -1.24556
   0.13247   0.20047  -1.36527
  -0.42119   0.36507  -1.67951
  -0.61572  -0.47290  -2.56237
  -0.51097  -0.78714  -2.27806
  -0.13688  -0.12873  -2.08353
   0.44671  -0.35319  -2.47259
   0.77591  -0.86196  -2.18827
   1.29965  -0.50283  -1.91893
   2.40696  -0.33822  -1.75433
   2.81099  -0.33822  -1.11088
   2.63142   0.05083  -0.87146
   2.66135   0.18551  -0.94628
   2.39200   0.06580  -0.75175
   1.59892   0.20047  -0.64701
   0.70109   0.18551  -0.81161
  -0.13688  -0.17362  -0.91636
  -0.78032  -0.59261  -1.02110
  -1.15441  -0.84699  -1.24556
  -1.21427  -0.98167  -1.39520
  -1.16938  -1.01159  -1.32038
  -0.94492  -0.78714  -1.26052
  -0.48104  -0.53275  -1.17074
   0.07262  -0.30830  -0.87146
   0.49160   0.05083  -0.46744
   0.85073   0.24536   0.07125
   0.94052   0.32018   0.47527
   0.70109   0.55960   0.62491
   0.26715   0.91873   0.83440
  -0.48104   1.08333   0.96908
  -1.25916   1.09830   0.84937
  -1.88764   1.05341   0.84937
  -2.33655   0.45486   0.46031
  -2.24677  -0.32326   0.34060
  -2.03727  -0.24844   0.80448
  -1.58836  -0.11377   1.11872
  -1.06463  -0.45793   1.43296
  -0.72046  -0.63750   1.80705
  -0.24162  -0.30830   2.27093
  -0.01717  -0.06888   3.07897
  -0.18177   0.02091   3.63263
  -0.37630   0.26033   3.67752
  -0.70550   0.51471   3.60270
  -1.12448   0.69428   3.52788
  -1.51354   0.88880   3.18372
  -1.73800   1.02348   2.70488
  -1.70807   0.94866   2.34574
  -1.55843   0.61946   1.97165
  -1.18434   0.23040   1.41799
  -0.51097  -0.03895   1.13368
   0.20729  -0.15866   1.05886
   0.82081  -0.33822   0.92419
   1.29965  -0.53275   0.68477
   1.67374  -0.44297   0.65484
   1.91316  -0.11377   0.62491
   1.94309   0.27529   0.56506
   1.56899   0.40996   0.44535
   1.17994   0.45486   0.38549
   0.80584   0.39500   0.14607
   0.34196   0.35011  -0.06342
   0.17736   0.32018   0.07125
   0.16240  -0.09880  -0.06342
   0.28211   0.12565   0.10118
   0.68613   0.72420  -0.30284
   1.53907  -0.45793  -1.23059
   1.71863  -0.33822  -1.06599
   1.85330   0.85888  -0.82657
   2.64638  -0.02398  -1.44009
   2.73617  -0.60757  -1.66454
   2.13762   0.08076  -1.58972
   2.25733   0.30522  -1.49994
   2.00294  -0.50283  -1.20067
   1.35950  -0.69735  -0.93132
   1.04526  -0.32326  -1.11088
   0.68613  -0.50283  -0.96125
   0.67117  -0.98167  -0.51233
   0.82081  -1.17619  -0.46744
   0.32700  -1.14627  -0.61708
   0.13247  -1.20612  -0.64701
   0.44671  -1.38569  -0.81161
   0.35693  -1.22109  -1.15578
  -0.06206  -0.66743  -1.55980
  -0.36133  -0.20355  -1.85907
  -0.72046  -0.54772  -1.99375
  -1.19930  -0.38312  -1.69447
  -1.52851   0.40996  -1.76929
  -1.43872  -0.77217  -1.93389
  -1.64822  -0.57764  -0.58715
  -1.97742   1.11326   0.25082
  -1.33398   0.26033   0.38549
  -1.03470  -0.38312   0.59498
  -1.33398   0.49975   0.34060
  -0.69053   0.60449   0.71469
  -0.46608   0.33515   1.02893
  -0.76535   0.75413   0.55009
  -0.42119   1.32275  -0.09335
  -0.30148   1.12822  -0.12328
  -0.31644   1.20304   0.47527
  -0.15184   1.50232   0.19096
  -0.16680   0.97859   0.07125
  -0.34637   0.91873   0.50520
  -0.45111   1.14319   0.55009
  -0.37630   0.64938   0.29571
  -0.73543   0.30522   0.28075
  -0.88506   0.48478  -0.03349
  -0.49601   0.49975  -0.25795
  -0.61572   0.21544  -0.37766
  -0.82521   0.09573  -0.81161
  -0.51097  -0.08384  -0.93132
  -0.06206  -0.15866  -0.82657
   0.19233  -0.03895  -0.76672
   0.49160   0.06580  -0.51233
   1.07519   0.03587  -0.19809
   1.56899  -0.11377  -0.06342
   1.83834  -0.15866   0.17600
   2.00294  -0.06888   0.37053
   1.94309   0.15558   0.58002
   1.58396   0.30522   0.52017
   1.16497   0.11069   0.32564
   0.62628  -0.23348   0.16104
   0.01276  -0.42801  -0.13824
  -0.66061  -0.60757  -0.58715
  -1.34894  -1.02656  -0.97621
  -1.99238  -1.49043  -1.24556
  -2.39640  -1.77474  -1.39520
  -2.54604  -1.99920  -1.44009
  -2.38144  -1.78971  -1.55980
  -1.91756  -1.35576  -1.45505
  -1.25916  -0.65246  -1.32038
  -0.64564  -0.29333  -1.14081
   0.01276   0.17054  -0.52730
   0.44671   0.79902   0.08622
   1.00037   0.78406   0.49024
   1.34454   0.78406   0.90922
   1.31461   0.67931   0.95412
   1.26972   0.24536   0.96908
   1.01533   0.11069   0.72966
   0.71606   0.12565   0.43038
   0.23722  -0.12873   0.47527
  -0.45111  -0.33822   0.55009
  -0.91499  -0.50283   0.66980
  -1.27412  -0.45793   0.90922
  -1.49858  -0.23348   1.14864
  -1.54347   0.12565   1.37310
  -1.52851   0.35011   1.62748
  -1.39383   0.67931   1.83698
  -1.15441   1.32275   2.10632
  -0.79528   1.93627   2.15122
  -0.34637   2.23554   2.07640
   0.22225   2.48993   2.06143
   0.58138   2.29540   1.88187
   1.00037   1.84649   1.74719
   1.35950   1.44246   1.52274
   1.50914   0.96362   1.19354
   1.46425   0.32018   0.80448
   1.37446  -0.26340   0.37053
   1.15001  -0.62254   0.08622
   0.74599  -1.04152  -0.39262
   0.31204  -1.44554  -0.72183
  -0.00220  -1.52036  -0.73679
  -0.30148  -1.44554  -0.72183
  -0.52593  -1.25101  -0.64701
  -0.79528  -1.07145  -0.58715
  -0.79528  -0.86196  -0.49737
  -0.63068  -0.47290  -0.36270
  -0.33140   0.05083  -0.36270
  -0.06206   0.21544  -0.54226
   0.32700   0.20047  -0.66197
   0.82081   0.23040  -0.93132
   1.25475   0.23040  -1.41016
   1.55403   0.08076  -1.88900
   1.79345  -0.17362  -2.23317
   1.80841  -0.54772  -2.50251
   1.55403  -0.83203  -2.53244
   1.32957  -0.98167  -2.53244
   1.29965  -1.04152  -2.41273
   1.13504  -1.02656  -1.94885
   0.55146  -1.01159  -1.41016
   0.05765  -0.95174  -0.82657
  -0.18177  -0.72728  -0.24299
  -0.42119  -0.32326   0.20593
  -0.64564   0.08076   0.55009
  -0.57082   0.54464   0.71469
  -0.51097   0.78406   0.68477
  -0.57082   0.87384   0.53513
  -0.55586   0.84391   0.23585
  -0.42119   0.78406  -0.07838
  -0.36133   0.60449  -0.30284
  -0.45111   0.17054  -0.60212
  -0.49601  -0.38312  -0.61708
  -0.40622  -0.62254  -0.45248
  -0.39126  -0.90685  -0.28788
  -0.34637  -0.99663   0.07125
  -0.30148  -0.87692   0.37053
  -0.15184  -0.84699   0.52017
  -0.13688  -0.75721   0.49024
  -0.36133  -0.57764   0.41542
  -0.51097  -0.27837   0.29571
  -0.58579   0.02091   0.16104
  -0.69053   0.45486   0.19096
  -0.66061   0.75413   0.19096
  -0.55586   0.84391   0.29571
  -0.45111   0.91873   0.26578
  -0.24162   0.84391   0.19096
   0.02773   0.79902   0.11614
   0.25218   0.93370   0.01140
   0.25218   1.08333  -0.07838
   0.32700   1.23297  -0.15320
   0.49160   1.32275  -0.21306
   0.65620   1.32275  -0.18313
   0.92555   1.20304  -0.00357
   1.19490   0.97859   0.22089
   1.40439   0.67931   0.43038
   1.67374   0.55960   0.55009
   1.67374   0.35011   0.71469
   1.40439   0.15558   0.89426
   1.07519  -0.12873   1.10375
   0.62628  -0.29333   1.17857
   0.08758  -0.42801   1.10375
  -0.34637  -0.27837   1.11872
  -0.75039  -0.12873   1.05886
  -1.13945  -0.14369   0.90922
  -1.55843  -0.56268   0.60995
  -1.76793  -1.13130   0.41542
  -1.73800  -1.20612   0.29571
  -1.64822  -1.11634  -0.04846
  -1.30405  -1.16123  -0.40759
  -0.90003  -1.10138  -0.72183
  -0.49601  -1.08641  -0.85650
  -0.03213  -0.96670  -0.85650
   0.26715  -0.75721  -0.78168
   0.43175  -0.44297  -0.79664
   0.44671  -0.12873  -1.02110
   0.29707  -0.05391  -1.32038
   0.04269   0.15558  -1.55980
  -0.36133   0.38004  -1.61965
  -0.90003   0.43989  -1.60469
  -1.49858   0.45486  -1.45505
  -1.91756   0.70924  -1.17074
  -2.18691   0.82895  -0.91636
  -2.23180   0.75413  -0.70686
  -2.02231   0.61946  -0.34773
  -1.67814   0.39500   0.02636
  -1.09456   0.08076   0.31067
  -0.61572  -0.29333   0.50520
  -0.34637  -0.71232   0.56506
   0.05765  -0.95174   0.66980
   0.35693  -0.81706   0.92419
   0.28211  -0.66743   0.96908
  -0.04709  -0.75721   0.87930
  -0.31644  -0.74225   0.72966
  -0.60075  -0.60757   0.46031
  -0.87010  -0.59261   0.02636
  -0.94492  -0.50283  -0.36270
  -1.01974  -0.26340  -0.72183
  -0.87010   0.05083  -0.90139
  -0.51097   0.27529  -1.05103
   0.01276   0.52967  -1.12585
   0.55146   0.78406  -1.06599
   1.13504   0.88880  -1.03607
   1.64381   0.82895  -0.84154
   2.03287   0.73917  -0.54226
   2.19747   0.49975  -0.16817
   2.25733   0.43989   0.32564
   2.21243   0.32018   0.71469
   1.88323   0.05083   1.07383
   1.41936  -0.23348   1.20850
   1.01533  -0.47290   1.34317
   0.82081  -0.42801   1.52274
   0.64124  -0.44297   1.52274
   0.53649  -0.68239   1.26835
   0.62628  -0.68239   1.17857
   0.77591  -0.47290   1.22346
   0.74599  -0.29333   1.16361
   0.77591  -0.21851   1.10375
   0.79088  -0.08384   1.05886
   0.79088   0.27529   1.22346
   0.64124   0.84391   1.35814
   0.41678   1.06837   1.40303
   0.22225   0.85888   1.52274
   0.14744   0.70924   1.61252
   0.17736   0.72420   1.43296
   0.08758   0.75413   1.28332
  -0.15184   0.57457   1.05886
  -0.15184   0.52967   0.60995
  -0.31644   0.55960   0.32564
  -0.72046   0.43989   0.19096
  -0.84017   0.27529   0.20593
  -0.95988   0.18551   0.26578
  -1.09456   0.11069   0.31067
  -0.98981   0.00594   0.29571
  -0.79528   0.08076   0.40046
  -0.66061   0.09573   0.46031
  -0.55586  -0.17362   0.49024
  -0.30148  -0.65246   0.13111
  -0.12191  -1.17619  -0.57219
   0.02773  -1.50540  -1.33534
   0.08758  -1.62511  -2.12842
   0.28211  -1.67000  -2.87661
   0.52153  -1.55029  -3.46019
   0.71606  -1.19116  -3.71458
   0.95548  -0.87692  -3.81932
   1.07519  -0.78714  -3.65472
   1.01533  -0.62254  -3.22077
   0.68613  -0.29333  -2.42769
   0.28211  -0.03895  -1.63462
  -0.06206   0.17054  -0.94628
  -0.42119   0.39500  -0.40759
  -0.72046   0.69428  -0.21306
  -0.95988   0.93370  -0.21306
  -1.01974   1.02348  -0.31780
  -1.06463   0.99355  -0.43751
  -0.98981   0.84391  -0.48241
  -0.76535   0.60449  -0.55722
  -0.45111   0.17054  -0.76672
   0.10254  -0.21851  -0.93132
   0.46167  -0.39808  -1.02110
   0.71606  -0.36815  -0.97621
   0.86570  -0.30830  -0.70686
   0.91059  -0.12873  -0.43751
   0.82081  -0.05391  -0.15320
   0.67117   0.09573  -0.06342
   0.29707   0.33515   0.14607
  -0.16680   0.52967   0.07125
  -0.31644   0.67931  -0.07838
  -0.24162   0.94866  -0.21306
  -0.31644   0.82895  -0.27291
  -0.19673   0.72420  -0.45248
  -0.09198   0.72420  -0.70686
  -0.00220   0.67931  -1.00614
   0.13247   0.72420  -1.06599
   0.19233   0.88880  -0.97621
   0.11751   0.84391  -0.96125
  -0.07702   0.70924  -0.76672
  -0.04709   0.93370  -0.63204
   0.08758   0.76909  -0.70686
  -0.07702   0.33515  -0.48241
  -0.28651   0.14062  -0.33277
  -0.16680  -0.27837  -0.25795
   0.26715  -0.72728  -0.00357
   0.41678  -0.92181   0.19096
   0.43175  -1.16123   0.26578
   0.70109  -1.44554   0.68477
   0.79088  -1.46051   0.92419
   0.77591  -1.37072   0.75959
   0.67117  -1.20612   0.78951
   0.26715  -0.68239   0.95412
  -0.25659  -0.20355   1.11872
  -0.67557   0.12565   1.20850
  -1.07959   0.40996   1.37310
  -1.28909   0.67931   1.37310
  -1.21427   0.76909   1.26835
  -1.00477   0.70924   1.28332
  -0.73543   0.46982   1.26835
  -0.31644   0.20047   1.23843
   0.04269  -0.26340   1.28332
   0.29707  -0.71232   1.38806
   0.47664  -1.02656   1.47785
   0.46167  -1.19116   1.70230
   0.43175  -1.11634   1.79209
   0.34196  -1.16123   1.77712
   0.13247  -1.08641   1.70230
  -0.16680  -0.90685   1.62748
  -0.51097  -0.62254   1.61252
  -0.76535  -0.35319   1.61252
  -0.87010  -0.03895   1.47785
  -0.91499   0.30522   1.23843
  -0.91499   0.75413   0.93915
  -0.95988   1.08333   0.62491
  -1.00477   1.23297   0.34060
  -0.90003   1.41254   0.26578
  -0.70550   1.44246   0.26578
  -0.45111   1.15815   0.34060
  -0.21169   0.97859   0.58002
  -0.01717   0.82895   0.69973
   0.14744   0.51471   0.86433
   0.40182   0.18551   1.13368
   0.56642   0.05083   1.28332
   0.59635  -0.09880   1.22346
   0.67117  -0.14369   1.13368
   0.67117  -0.09880   1.10375
   0.79088   0.06580   1.08879
   0.94052   0.23040   0.98404
   0.89562   0.12565   0.84937
   0.82081  -0.05391   0.58002
   0.71606  -0.14369   0.10118
   0.53649  -0.08384  -0.42255
   0.23722  -0.05391  -0.93132
   0.07262  -0.12873  -1.35030
   0.23722  -0.36815  -1.64958
   0.26715  -0.56268  -1.84411
   0.08758  -0.81706  -1.84411
  -0.16680  -1.14627  -1.75433
  -0.24162  -1.16123  -1.75433
  -0.37630  -1.05648  -1.81418
  -0.40622  -0.96670  -1.70943
  -0.22666  -0.77217  -1.45505
  -0.15184  -0.54772  -1.23059
  -0.13688  -0.53275  -1.03607
   0.08758  -0.54772  -0.90139
   0.28211  -0.30830  -0.85650
   0.28211  -0.09880  -0.75175
   0.05765   0.03587  -0.78168
  -0.07702   0.14062  -0.96125
  -0.15184   0.27529  -1.23059
  -0.30148   0.38004  -1.41016
  -0.54090   0.32018  -1.47001
  -0.67557   0.33515  -1.41016
  -0.75039   0.51471  -1.23059
  -0.88506   0.82895  -1.00614
  -0.97485   1.09830  -0.72183
  -1.03470   1.15815  -0.39262
  -1.10952   1.06837  -0.09335
  -1.10952   1.03844   0.19096
  -1.10952   1.00851   0.52017
  -1.12448   1.02348   0.65484
  -1.06463   0.78406   0.52017
  -1.00477   0.36507   0.14607
  -0.91499  -0.12873  -0.19809
  -0.95988  -0.44297  -0.40759
  -1.13945  -0.74225  -0.55722
  -1.18434  -0.89188  -0.64701
  -1.09456  -0.93677  -0.91636
  -0.94492  -0.99663  -1.03607
  -0.70550  -1.13130  -1.09592
  -0.34637  -1.13130  -0.99117
  -0.00220  -1.05648  -0.64701
   0.13247  -0.71232  -0.18313
   0.11751  -0.44297   0.01140
   0.25218  -0.38312   0.05629
   0.34196  -0.41304   0.07125
   0.11751  -0.24844   0.10118
   0.14744   0.09573   0.17600
   0.25218   0.20047   0.20593
   0.14744   0.30522   0.13111
   0.10254   0.38004   0.07125
   0.22225   0.32018   0.04133
   0.32700   0.21544   0.22089
   0.37189   0.14062   0.47527
   0.40182   0.03587   0.66980
   0.53649   0.08076   0.96908
   0.58138   0.46982   1.37310
   0.53649   0.69428   1.62748
   0.50657   0.69428   1.80705
   0.56642   0.87384   2.07640
   0.55146   1.14319   2.33078
   0.26715   1.21801   2.25596
  -0.03213   1.18808   2.10632
  -0.27155   1.08333   1.88187
  -0.36133   1.00851   1.49281
  -0.46608   0.99355   1.04390
