********************************************************************************
               CENTRO DE INSTRUMENTACION Y REGISTRO SISMICO  A.C.  
                       Coordinacion de Servicios Tecnicos
     Anaxagoras 814, Col. Narvarte, Benito Juarez, C.P. 03020 Mexico, D.F.
            Tels. 687 45 42/ 687 45  82             Fax. 669 25 12
********************************************************************************
ARCHIVO ESTANDAR DE ACELERACION:
VERSION DEL FORMATO                    : 2.0
NOMBRE DEL ARCHIVO                     : AU469607.151
FECHA Y HORA DE CREACION               : 27/MAR/98, 13:06
REF. CATALOGO ACELEROGRAMAS, SMIS 1996 : REGISTRO No.     /PAG.


================================================================================
DATOS DE LA ESTACION:
NOMBRE DE LA ESTACION                  : ANGEL URRAZA
CLAVE DE LA ESTACION                   : AU46
LOCALIZACION DE LA ESTACION            : Esc Sec Tec # 14, 5 de Mayo Av
                                       : Coyoacan y Angel Urraza, Col de
                                       : Valle, Benito Juarez
                                       :
                                       :
COORDENADAS DE LA ESTACION             : 19.383 LAT. N 
                                       : 99.168 LONG. W 
ALTITUD (msnm)                         : 2233
TIPO DE SUELO                          : TRANSICION
                                       : 
                                       : 
INSTITUCION RESPONSABLE                : CIRES
                                       :

================================================================================
DATOS DEL ACELEROGRAFO:
MODELO DEL ACELEROGRAFO                : DCA-333
NUMERO DE SERIE DEL ACELEROGRAFO       : 236
NUMERO DE CANALES                      : 3
ORIENTACION C1-C6 (rumbo;orientacion)  : /N00E/+V/N90W
ORIENTACION C7-C12 (rumbo;orientacion) :
VEL. DE MUESTREO, C1-C6 (muestras/s)   : /100/100/100
VEL. DE MUESTREO, C7-C12 (muestras/s)  :
ESC. COMPLETA DE SENSORES, C1-C6, (g)  : /0.5/0.5/0.5
ESC. COMPLETA DE SENSORES, C7-C12, (g) :
FREC. NAT. DE SENSORES, C1-C6, (Hz)    : /33/30/30
FREC. NAT. DE SENSORES, C7-C12, (Hz)   :
AMORTIGUAMIENTO DE SENSORES, C1-C6     : /0.735/0.733/0.730
AMORTIGUAMIENTO DE SENSORES, C7-C12    :
INTERVALO DE MUESTREO, C1-C6, (s)      : /0.01/0.01/0.01
INTERVALO DE MUESTREO, C7-C12, (s)     :
UMBRAL DE DISPARO, C1-C6, (Gal)        : /1.5/1.5/1.5
UMBRAL DE DISPARO, C7-C12, (Gal)       :
MEMORIA DE PREEVENTO (s)               : 4
TIEMPO DE POSEVENTO (s)                : 15


================================================================================
DATOS DEL SISMO:
FECHA DEL SISMO (GMT)                  : 15/JUL/96
HORA EPICENTRO (GMT)                   : 21:23:38:5
MAGNITUD(ES)                           : /Ms=6.5
COORDENADAS DEL EPICENTRO              : 17.4 LAT. N
                                       : 101.1 LONG. W
PROFUNDIDAD FOCAL (km)                 : 20.0
FUENTE DE LOS DATOS EPICENTRALES       : SSN
                                       : INSTITUTO DE GEOFISICA, UNAM

================================================================================
DATOS DE ESTE REGISTRO:
HORA DE LA PRIMERA MUESTRA (GMT)       : 21:24:43.14
EXACTITUD DEL TIEMPO (s)               : 0.01
DURACION DEL REGISTRO (s), C1-C6       : /101.39/101.39/101.39
DURACION DEL REGISTRO (s), C7-C12      :
NUM. TOTAL DE MUESTRAS, C1-C6          : /10139/10139/10139
NUM. TOTAL DE MUESTRAS, C7-C12         :
ACEL. MAX. (Gal), C1-C6                : /6.29996/1.93970/7.17985
ACEL. MAX., C1-C6, EN LA MUESTRA       :
ACEL. MAX. (Gal), C7-C12               :
ACEL. MAX., C7-C12, EN LA MUESTRA      :
UNIDADES DE LOS DATOS                  : Gal (cm/s/s)
FACTOR DE DECIMACION                   : 1
FORMATO DATOS (FORTRAN,10 campos/dato) : 3F10.5


================================================================================
CALIDAD DEL ACELEROGRAMA:
REGISTRO DIGITAL COMPLETO CON TIEMPO ABSOLUTO CORRECTO.


================================================================================
COMENTARIOS:














================================================================================
DATOS DE ACELERACION:
---------+---------+---------+---------+---------+---------+---------+---------+
   CANAL-1   CANAL-2   CANAL-3   CANAL-4   CANAL-5   CANAL-6   CANAL-7   CANAL-8
      N00E        +V      N90W
---------+---------+---------+---------+---------+---------+---------+---------+
[...]
  -1.84028   0.98202   1.91807
  -1.84028   1.22144   1.91807
  -1.60086   0.98202   1.91807
  -1.36145   0.98202   1.91807
  -1.36145   0.98202   1.91807
  -1.12203   0.74260   1.91807
  -0.88261   0.74260   1.91807
  -0.88261   0.50318   1.67865
  -0.88261   0.50318   1.67865
  -0.64319   0.50318   1.43923
  -0.64319   0.26376   1.19981
  -0.40377   0.26376   0.96039
  -0.16435   0.26376   0.72097
   0.07507   0.26376   0.48155
   0.31449   0.26376   0.24213
   0.55391   0.26376   0.00272
   1.03274   0.26376  -0.23670
   1.27216   0.26376  -0.47612
   1.51158   0.50318  -0.47612
   1.99042   0.74260  -0.47612
   2.22984   0.74260  -0.47612
   2.22984   0.74260  -0.47612
   2.46926   0.74260  -0.23670
   2.70868   0.74260  -0.23670
   2.70868   0.50318   0.00272
   2.94810   0.50318   0.00272
   2.94810   0.50318   0.00272
   2.94810   0.26376   0.24213
   3.18751   0.02435   0.24213
   3.18751   0.02435   0.24213
   3.18751  -0.21507   0.24213
   3.18751  -0.45449   0.24213
   2.94810  -0.45449   0.24213
   2.70868  -0.45449   0.24213
   2.70868  -0.69391   0.48155
   2.22984  -0.69391   0.48155
   1.99042  -0.69391   0.48155
   1.75100  -0.45449   0.72097
   1.27216  -0.45449   0.72097
   1.03274  -0.21507   0.72097
   0.79332  -0.21507   0.72097
   0.55391  -0.21507   0.72097
   0.31449  -0.45449   0.72097
   0.31449  -0.45449   0.72097
   0.31449  -0.69391   0.48155
   0.07507  -0.69391   0.48155
  -0.16435  -0.93333   0.24213
  -0.40377  -0.93333   0.24213
  -0.64319  -0.93333   0.24213
  -0.88261  -0.93333   0.24213
  -1.12203  -0.69391   0.24213
  -1.36145  -0.69391   0.24213
  -1.36145  -0.45449   0.00272
  -1.60086  -0.21507   0.00272
  -1.60086   0.02435   0.00272
  -1.60086   0.02435  -0.23670
  -1.60086   0.26376  -0.23670
  -1.36145   0.50318  -0.23670
  -1.36145   0.26376  -0.23670
  -1.12203   0.26376  -0.23670
  -0.88261   0.26376  -0.23670
  -0.88261   0.26376  -0.47612
  -0.64319   0.26376  -0.47612
  -0.64319   0.02435  -0.47612
  -0.40377   0.02435  -0.47612
  -0.40377   0.02435  -0.71554
  -0.40377   0.02435  -0.71554
  -0.16435   0.02435  -0.71554
  -0.16435   0.26376  -0.71554
   0.07507   0.26376  -0.71554
   0.31449   0.50318  -0.71554
   0.31449   0.50318  -0.95496
   0.55391   0.50318  -0.95496
   0.55391   0.74260  -1.19438
   0.79332   0.74260  -1.19438
   1.03274   0.74260  -1.19438
   1.03274   0.74260  -1.43380
   1.27216   0.74260  -1.43380
   1.27216   0.74260  -1.43380
   1.03274   0.50318  -1.19438
   1.03274   0.50318  -1.19438
   0.79332   0.26376  -1.19438
   0.55391   0.02435  -0.95496
   0.55391  -0.21507  -0.71554
   0.31449  -0.69391  -0.47612
   0.31449  -0.69391  -0.47612
   0.07507  -0.93333  -0.23670
   0.07507  -1.17275   0.00272
  -0.16435  -1.17275   0.00272
  -0.40377  -1.17275   0.24213
  -0.40377  -0.93333   0.24213
  -0.64319  -0.93333   0.24213
  -0.88261  -0.69391   0.24213
  -1.12203  -0.45449   0.24213
  -1.36145  -0.21507   0.24213
  -1.60086   0.02435   0.24213
  -1.60086   0.26376   0.24213
  -2.07970   0.50318   0.24213
  -2.07970   0.74260   0.24213
  -2.31912   0.98202   0.24213
  -2.31912   0.98202   0.48155
  -2.31912   1.22144   0.48155
  -2.31912   0.98202   0.48155
  -2.31912   0.98202   0.72097
  -2.31912   0.74260   0.72097
  -2.31912   0.74260   0.72097
  -2.31912   0.50318   0.72097
  -2.07970   0.50318   0.48155
  -1.84028   0.50318   0.48155
  -1.84028   0.26376   0.48155
  -1.60086   0.50318   0.24213
  -1.36145   0.26376   0.24213
  -0.88261   0.26376   0.24213
  -0.40377   0.02435   0.24213
  -0.16435   0.26376   0.24213
   0.31449   0.26376   0.48155
   0.79332   0.50318   0.48155
   1.27216   0.50318   0.72097
   1.51158   0.74260   0.72097
   1.99042   0.98202   0.96039
   2.22984   1.22144   1.19981
   2.46926   1.22144   1.19981
   2.70868   1.46086   1.43923
   2.70868   1.46086   1.67865
   2.46926   1.22144   1.67865
   2.22984   0.98202   1.91807
   2.22984   0.74260   1.91807
   2.22984   0.50318   1.91807
   1.99042   0.02435   1.91807
   1.75100  -0.21507   1.91807
   1.75100  -0.69391   1.91807
   1.51158  -0.69391   1.91807
   1.51158  -1.17275   1.91807
   1.51158  -1.17275   1.91807
   1.51158  -1.41217   1.91807
   1.51158  -1.41217   1.91807
   1.27216  -1.41217   2.15749
   1.03274  -1.41217   2.15749
   1.03274  -1.17275   2.39691
   0.79332  -1.17275   2.39691
   0.55391  -1.17275   2.63632
   0.31449  -0.93333   2.63632
  -0.16435  -0.69391   2.63632
  -0.64319  -0.69391   2.63632
  -1.12203  -0.69391   2.39691
  -1.60086  -0.69391   2.15749
  -1.84028  -0.69391   1.91807
  -2.31912  -0.69391   1.67865
  -2.55854  -0.69391   1.19981
  -2.79796  -0.45449   0.96039
  -3.03738  -0.45449   0.72097
  -3.03738  -0.45449   0.48155
  -3.27680  -0.45449   0.00272
  -3.27680  -0.45449   0.00272
  -3.27680  -0.45449  -0.23670
  -3.03738  -0.45449  -0.23670
  -3.27680  -0.21507  -0.47612
  -3.03738  -0.21507  -0.71554
  -2.79796  -0.21507  -0.95496
  -2.55854  -0.21507  -1.19438
  -2.55854  -0.21507  -1.19438
  -2.31912  -0.21507  -1.67322
  -2.31912  -0.21507  -1.91264
  -2.07970  -0.21507  -2.15205
  -2.07970   0.02435  -2.39147
  -1.84028   0.02435  -2.63089
  -1.84028   0.26376  -3.10973
  -1.84028   0.26376  -3.34915
  -1.84028   0.50318  -3.58857
  -1.84028   0.50318  -3.58857
  -1.84028   0.50318  -3.82799
  -1.84028   0.74260  -3.82799
  -1.84028   0.74260  -4.06741
  -1.84028   0.74260  -4.06741
  -1.84028   0.74260  -4.30683
  -1.84028   0.74260  -4.54624
  -1.60086   0.50318  -4.78566
  -1.36145   0.50318  -4.78566
  -1.36145   0.26376  -5.02508
  -1.12203   0.02435  -5.02508
  -0.64319   0.02435  -5.02508
  -0.40377  -0.21507  -4.78566
  -0.16435  -0.45449  -4.54624
   0.07507  -0.45449  -4.54624
   0.31449  -0.45449  -4.30683
   0.31449  -0.45449  -4.06741
   0.31449  -0.45449  -3.58857
   0.31449  -0.21507  -3.34915
   0.31449  -0.21507  -2.87031
   0.55391  -0.21507  -2.63089
   0.31449  -0.21507  -2.39147
   0.31449  -0.45449  -2.15205
   0.31449  -0.45449  -1.91264
   0.31449  -0.45449  -1.67322
   0.55391  -0.69391  -1.43380
   0.55391  -0.69391  -0.95496
   0.79332  -0.69391  -0.47612
   1.03274  -0.93333   0.00272
   1.27216  -0.93333   0.72097
   1.27216  -0.93333   1.43923
   1.51158  -0.69391   2.15749
   1.75100  -0.93333   2.87574
   1.75100  -0.69391   3.35458
   1.99042  -0.69391   3.83342
   1.99042  -0.45449   4.31226
   1.99042  -0.45449   4.79109
   1.75100  -0.45449   5.03051
   1.75100  -0.21507   5.03051
   1.51158  -0.21507   5.03051
   1.51158   0.02435   5.03051
   1.27216   0.02435   5.03051
   1.27216   0.02435   4.79109
   1.27216   0.26376   4.79109
   1.27216   0.26376   4.79109
   1.27216   0.26376   4.55168
   1.51158   0.26376   4.31226
   1.75100   0.50318   4.31226
   1.75100   0.50318   3.83342
   1.99042   0.26376   3.59400
   1.99042   0.26376   3.59400
   2.22984   0.50318   3.11516
   2.22984   0.26376   2.87574
   1.99042   0.26376   2.39691
   1.99042   0.26376   2.15749
   1.75100   0.50318   1.67865
   1.51158   0.26376   1.19981
   1.27216   0.26376   0.96039
   1.03274   0.02435   0.48155
   1.03274   0.02435   0.24213
   0.79332  -0.21507   0.00272
   0.79332   0.02435   0.00272
   0.79332  -0.45449  -0.23670
   0.79332  -0.45449  -0.47612
   0.79332  -0.45449  -0.71554
   1.03274  -0.45449  -0.95496
   1.03274  -0.45449  -1.19438
   1.27216  -0.45449  -1.43380
   1.27216  -0.21507  -1.67322
   1.27216   0.02435  -2.15205
   1.27216   0.26376  -2.39147
   1.27216   0.50318  -2.63089
   1.03274   0.74260  -2.63089
   0.79332   0.98202  -2.87031
   0.55391   0.98202  -2.87031
   0.31449   1.22144  -2.87031
  -0.16435   1.22144  -2.87031
  -0.64319   1.22144  -2.87031
  -1.12203   1.22144  -2.87031
  -1.60086   1.22144  -2.63089
  -2.07970   0.98202  -2.63089
  -2.31912   0.98202  -2.39147
  -2.55854   0.74260  -2.39147
  -2.79796   0.74260  -2.15205
  -3.03738   0.74260  -2.15205
  -3.27680   0.50318  -1.91264
  -3.27680   0.50318  -1.91264
  -3.27680   0.50318  -1.91264
  -3.03738   0.26376  -1.91264
  -3.03738   0.26376  -1.91264
  -2.79796   0.02435  -1.67322
  -2.55854   0.02435  -1.67322
  -2.55854  -0.21507  -1.91264
  -2.31912  -0.21507  -1.91264
  -2.31912  -0.21507  -1.91264
  -2.07970  -0.45449  -1.91264
  -2.07970  -0.69391  -1.91264
  -1.84028  -0.69391  -1.91264
  -1.60086  -0.93333  -1.67322
  -1.60086  -1.17275  -1.67322
  -1.36145  -1.17275  -1.43380
  -1.36145  -1.17275  -1.43380
  -1.12203  -1.17275  -1.19438
  -0.88261  -1.17275  -1.19438
  -0.40377  -1.17275  -0.95496
  -0.16435  -1.17275  -0.95496
   0.31449  -0.93333  -0.95496
   0.55391  -0.93333  -0.95496
   1.03274  -0.69391  -0.71554
   1.51158  -0.69391  -0.71554
   1.99042  -0.45449  -0.71554
   2.46926   0.02435  -0.71554
   2.94810  -0.21507  -0.71554
   3.18751   0.02435  -0.71554
   3.66635   0.02435  -0.71554
   3.90577   0.02435  -0.71554
   4.14519   0.02435  -0.47612
   4.14519   0.02435  -0.23670
   4.14519   0.02435   0.00272
   3.90577   0.02435   0.00272
   3.66635   0.02435   0.00272
   3.42693  -0.21507   0.24213
   3.18751  -0.21507   0.48155
   3.18751  -0.21507   0.72097
   3.18751   0.02435   0.96039
   3.18751   0.02435   1.19981
   3.18751   0.02435   1.43923
   3.42693   0.26376   1.67865
   3.42693   0.50318   1.91807
   3.66635   0.74260   2.39691
   3.66635   0.74260   2.63632
   3.90577   0.98202   3.11516
   3.66635   0.98202   3.59400
   3.66635   0.98202   4.07284
   3.42693   0.98202   4.31226
   2.94810   0.98202   4.79109
   2.46926   0.74260   5.03051
   1.75100   0.74260   5.03051
   1.27216   0.74260   5.26993
   0.55391   0.74260   5.26993
   0.31449   0.50318   5.50935
  -0.16435   0.74260   5.26993
  -0.64319   0.50318   5.26993
  -1.12203   0.50318   5.26993
  -1.36145   0.50318   5.50935
  -1.84028   0.50318   5.50935
  -2.07970   0.50318   5.74877
  -2.31912   0.74260   5.74877
  -2.55854   0.50318   5.98819
  -2.79796   0.50318   5.98819
  -3.03738   0.50318   5.98819
  -3.27680   0.26376   5.98819
  -3.27680   0.26376   5.74877
  -3.51622   0.02435   5.26993
  -3.51622  -0.21507   5.03051
  -3.51622  -0.45449   4.55168
  -3.27680  -0.45449   4.07284
  -3.27680  -0.69391   3.59400
  -3.27680  -0.93333   3.11516
  -3.27680  -0.93333   2.39691
  -3.51622  -0.93333   1.91807
  -3.51622  -0.69391   1.43923
  -3.75564  -0.69391   0.72097
  -3.99505  -0.69391   0.24213
  -4.23447  -0.45449   0.00272
  -4.47389  -0.45449  -0.71554
  -4.95273  -0.45449  -1.19438
  -4.95273  -0.45449  -1.91264
  -5.19215  -0.45449  -2.39147
  -5.19215  -0.45449  -2.87031
  -4.95273  -0.69391  -3.58857
  -4.95273  -0.69391  -3.82799
  -4.71331  -0.69391  -4.30683
  -4.71331  -0.45449  -4.78566
  -4.47389  -0.69391  -5.26450
  -4.23447  -0.69391  -5.50392
  -3.99505  -0.69391  -5.98276
  -3.75564  -0.45449  -6.46160
  -3.75564  -0.45449  -6.70101
  -3.51622  -0.21507  -6.94043
  -3.27680  -0.21507  -7.17985
  -2.79796  -0.21507  -7.17985
  -2.55854  -0.21507  -7.17985
  -2.07970  -0.21507  -6.94043
  -1.60086  -0.21507  -6.94043
  -1.12203   0.02435  -6.70101
  -0.64319   0.02435  -6.46160
  -0.40377  -0.21507  -5.98276
   0.07507  -0.45449  -5.74334
   0.31449  -0.45449  -5.50392
   0.55391  -0.69391  -5.26450
   0.79332  -0.69391  -5.02508
   1.03274  -0.69391  -4.54624
   1.27216  -0.69391  -4.30683
   1.51158  -0.93333  -4.06741
   1.75100  -0.69391  -3.82799
   2.22984  -0.69391  -3.34915
   2.22984  -0.45449  -2.87031
   2.70868  -0.21507  -2.63089
   2.94810  -0.21507  -2.15205
   3.18751   0.02435  -1.67322
   3.42693   0.50318  -1.19438
   3.66635   0.74260  -0.71554
   3.90577   0.98202  -0.47612
   4.14519   1.22144  -0.23670
   4.14519   1.22144   0.00272
   4.14519   1.22144   0.48155
   4.14519   1.22144   0.72097
   4.14519   1.22144   0.96039
   4.14519   1.46086   1.43923
   4.14519   1.22144   1.67865
   4.38461   0.98202   2.15749
   4.38461   0.98202   2.63632
   4.62403   0.98202   2.87574
   4.62403   0.98202   3.35458
   4.62403   0.74260   3.59400
   4.38461   0.98202   3.83342
   4.14519   0.74260   3.83342
   4.14519   0.74260   3.83342
   3.90577   0.74260   3.83342
   3.66635   0.74260   3.59400
   3.66635   0.74260   3.59400
   3.42693   0.74260   3.35458
   3.42693   0.98202   3.35458
   3.42693   0.74260   3.59400
   3.42693   0.74260   3.59400
   3.42693   0.50318   3.83342
   3.42693   0.50318   3.83342
   3.42693   0.26376   3.83342
   3.42693   0.26376   4.07284
   3.18751  -0.21507   4.07284
   2.94810  -0.45449   3.83342
   2.46926  -0.45449   3.83342
   1.99042  -0.69391   3.59400
   1.51158  -0.69391   3.35458
   0.79332  -0.69391   2.87574
   0.31449  -0.69391   2.63632
   0.07507  -0.93333   2.15749
  -0.16435  -0.69391   1.91807
  -0.64319  -0.69391   1.67865
  -0.64319  -0.69391   1.67865
  -0.88261  -0.69391   1.67865
  -1.12203  -0.69391   1.43923
  -1.36145  -0.45449   1.67865
  -1.60086  -0.45449   1.67865
  -1.84028  -0.45449   1.43923
  -2.07970  -0.45449   1.43923
  -2.55854  -0.45449   1.19981
  -2.79796  -0.45449   0.96039
  -3.27680  -0.21507   0.72097
  -3.27680  -0.21507   0.24213
  -3.51622  -0.21507   0.00272
  -3.75564   0.02435  -0.23670
  -3.99505   0.02435  -0.23670
  -4.23447   0.02435  -0.47612
  -4.23447   0.26376  -0.23670
  -4.47389   0.26376  -0.47612
  -4.47389   0.26376  -0.47612
  -4.47389   0.26376  -0.47612
  -4.71331   0.50318  -0.71554
  -4.71331   0.50318  -0.95496
  -4.71331   0.50318  -1.43380
  -4.47389   0.50318  -1.67322
  -4.47389   0.74260  -1.91264
  -4.23447   0.50318  -1.91264
  -3.75564   0.50318  -2.15205
  -3.51622   0.74260  -1.91264
  -3.03738   0.74260  -1.91264
  -2.79796   0.74260  -1.67322
  -2.31912   0.50318  -1.43380
  -2.07970   0.74260  -1.19438
  -1.60086   0.50318  -1.19438
  -1.36145   0.50318  -0.95496
  -1.36145   0.50318  -1.19438
  -1.12203   0.50318  -1.19438
  -0.88261   0.50318  -1.43380
  -0.64319   0.50318  -1.43380
  -0.40377   0.50318  -1.67322
  -0.16435   0.50318  -1.67322
   0.31449   0.50318  -1.67322
   0.55391   0.50318  -1.43380
   1.03274   0.50318  -1.43380
   1.27216   0.50318  -1.19438
   1.75100   0.50318  -0.95496
   1.99042   0.26376  -0.95496
   1.99042   0.02435  -0.95496
   2.22984   0.02435  -0.95496
   2.22984   0.02435  -1.19438
   1.99042  -0.21507  -1.43380
   1.75100  -0.21507  -1.67322
   1.51158  -0.45449  -1.91264
   1.27216  -0.45449  -2.15205
   1.27216  -0.45449  -2.39147
   1.03274  -0.69391  -2.39147
   0.79332  -0.93333  -2.39147
   0.79332  -0.93333  -2.39147
   0.79332  -1.17275  -2.15205
   0.79332  -1.41217  -1.91264
   0.79332  -1.65159  -1.67322
   0.79332  -1.89101  -1.43380
   0.79332  -1.89101  -1.19438
   0.55391  -1.89101  -0.71554
   0.55391  -1.89101  -0.47612
   0.31449  -1.65159  -0.23670
   0.31449  -1.65159   0.00272
   0.31449  -1.65159   0.24213
   0.07507  -1.65159   0.48155
  -0.16435  -1.65159   0.48155
  -0.16435  -1.65159   0.72097
  -0.40377  -1.41217   0.72097
  -0.40377  -1.17275   0.96039
  -0.64319  -0.93333   0.96039
  -0.64319  -0.93333   1.19981
  -0.64319  -0.69391   1.19981
  -0.64319  -0.45449   1.19981
  -0.64319  -0.21507   1.43923
  -0.64319  -0.21507   1.43923
  -0.64319  -0.21507   1.43923
  -0.64319   0.02435   1.43923
  -0.40377   0.02435   1.43923
  -0.40377   0.26376   1.43923
  -0.16435   0.50318   1.43923
   0.07507   0.50318   1.43923
   0.07507   0.74260   1.19981
   0.31449   0.74260   0.96039
   0.55391   0.74260   0.72097
   0.79332   0.98202   0.48155
   1.03274   0.98202   0.24213
   1.27216   0.98202   0.00272
   1.27216   1.22144   0.00272
   1.27216   1.22144   0.00272
