********************************************************************************
               CENTRO DE INSTRUMENTACION Y REGISTRO SISMICO  A.C.  
                       Coordinacion de Servicios Tecnicos
     Anaxagoras 814, Col. Narvarte, Benito Juarez, C.P. 03020 Mexico, D.F.
            Tels. 687 45 42/ 687 45  82             Fax. 669 25 12
********************************************************************************
ARCHIVO ESTANDAR DE ACELERACION:
VERSION DEL FORMATO                    : 2.0
NOMBRE DEL ARCHIVO                     : AU469602.251
FECHA Y HORA DE CREACION               : 27/MAR/98, 13:06
REF. CATALOGO ACELEROGRAMAS, SMIS 1996 : REGISTRO No.     /PAG.


================================================================================
DATOS DE LA ESTACION:
NOMBRE DE LA ESTACION                  : ANGEL URRAZA
CLAVE DE LA ESTACION                   : AU46
LOCALIZACION DE LA ESTACION            : Esc Sec Tec # 14, 5 de Mayo Av
                                       : Coyoacan y Angel Urraza, Col de
                                       : Valle, Benito Juarez
                                       :
                                       :
COORDENADAS DE LA ESTACION             : 19.383 LAT. N 
                                       : 99.168 LONG. W 
ALTITUD (msnm)                         : 2233
TIPO DE SUELO                          : TRANSICION
                                       : 
                                       : 
INSTITUCION RESPONSABLE                : CIRES
                                       :

================================================================================
DATOS DEL ACELEROGRAFO:
MODELO DEL ACELEROGRAFO                : DCA-333
NUMERO DE SERIE DEL ACELEROGRAFO       : 236
NUMERO DE CANALES                      : 3
ORIENTACION C1-C6 (rumbo;orientacion)  : /N00E/+V/N90W
ORIENTACION C7-C12 (rumbo;orientacion) :
VEL. DE MUESTREO, C1-C6 (muestras/s)   : /100/100/100
VEL. DE MUESTREO, C7-C12 (muestras/s)  :
ESC. COMPLETA DE SENSORES, C1-C6, (g)  : /0.5/0.5/0.5
ESC. COMPLETA DE SENSORES, C7-C12, (g) :
FREC. NAT. DE SENSORES, C1-C6, (Hz)    : /33/30/30
FREC. NAT. DE SENSORES, C7-C12, (Hz)   :
AMORTIGUAMIENTO DE SENSORES, C1-C6     : /0.735/0.733/0.730
AMORTIGUAMIENTO DE SENSORES, C7-C12    :
INTERVALO DE MUESTREO, C1-C6, (s)      : /0.01/0.01/0.01
INTERVALO DE MUESTREO, C7-C12, (s)     :
UMBRAL DE DISPARO, C1-C6, (Gal)        : /1.5/1.5/1.5
UMBRAL DE DISPARO, C7-C12, (Gal)       :
MEMORIA DE PREEVENTO (s)               : 4
TIEMPO DE POSEVENTO (s)                : 15


================================================================================
DATOS DEL SISMO:
FECHA DEL SISMO (GMT)                  : 25/FEB/96
HORA EPICENTRO (GMT)                   : 03:08:13:8
MAGNITUD(ES)                           : /Ms=6.9
COORDENADAS DEL EPICENTRO              : 15.83 LAT. N
                                       : 98.25 LONG. W
PROFUNDIDAD FOCAL (km)                 : 3.0
FUENTE DE LOS DATOS EPICENTRALES       : SSN
                                       : INSTITUTO DE GEOFISICA, UNAM

================================================================================
DATOS DE ESTE REGISTRO:
HORA DE LA PRIMERA MUESTRA (GMT)       : 03:10:16.07
EXACTITUD DEL TIEMPO (s)               : 0.01
DURACION DEL REGISTRO (s), C1-C6       : /49.84/49.84/49.84
DURACION DEL REGISTRO (s), C7-C12      :
NUM. TOTAL DE MUESTRAS, C1-C6          : /4984/4984/4984
NUM. TOTAL DE MUESTRAS, C7-C12         :
ACEL. MAX. (Gal), C1-C6                : /2.30340/0.86588/2.26603
ACEL. MAX., C1-C6, EN LA MUESTRA       :
ACEL. MAX. (Gal), C7-C12               :
ACEL. MAX., C7-C12, EN LA MUESTRA      :
UNIDADES DE LOS DATOS                  : Gal (cm/s/s)
FACTOR DE DECIMACION                   : 1
FORMATO DATOS (FORTRAN,10 campos/dato) : 3F10.5


================================================================================
CALIDAD DEL ACELEROGRAMA:
REGISTRO DIGITAL COMPLETO CON TIEMPO ABSOLUTO CORRECTO.


================================================================================
COMENTARIOS:














================================================================================
DATOS DE ACELERACION:
---------+---------+---------+---------+---------+---------+---------+---------+
   CANAL-1   CANAL-2   CANAL-3   CANAL-4   CANAL-5   CANAL-6   CANAL-7   CANAL-8
      N00E        +V      N90W
---------+---------+---------+---------+---------+---------+---------+---------+
[...]
   0.14863   0.14762  -0.82951
  -0.09079   0.14762  -0.59009
  -0.09079   0.14762  -0.59009
  -0.09079   0.14762  -0.35067
  -0.09079  -0.09180  -0.11125
  -0.09079   0.14762  -0.11125
  -0.33021  -0.09180  -0.11125
  -0.33021  -0.09180   0.12816
  -0.33021  -0.09180   0.12816
  -0.33021  -0.09180   0.12816
  -0.33021  -0.09180   0.12816
  -0.56963  -0.09180   0.36758
  -0.33021  -0.09180   0.36758
  -0.56963  -0.09180   0.36758
  -0.56963  -0.09180   0.36758
  -0.56963  -0.09180   0.60700
  -0.56963  -0.33122   0.60700
  -0.56963  -0.33122   0.60700
  -0.56963  -0.33122   0.60700
  -0.56963  -0.33122   0.60700
  -0.56963  -0.33122   0.60700
  -0.56963  -0.33122   0.60700
  -0.56963  -0.33122   0.60700
  -0.56963  -0.33122   0.60700
  -0.56963  -0.33122   0.60700
  -0.56963  -0.33122   0.60700
  -0.56963  -0.33122   0.60700
  -0.33021  -0.33122   0.60700
  -0.33021  -0.33122   0.60700
  -0.33021  -0.09180   0.36758
  -0.09079  -0.09180   0.36758
  -0.09079  -0.33122   0.36758
  -0.09079  -0.09180   0.36758
  -0.09079  -0.09180   0.36758
  -0.09079  -0.09180   0.36758
  -0.09079  -0.09180   0.36758
  -0.09079  -0.09180   0.12816
   0.14863  -0.09180   0.12816
   0.14863  -0.09180   0.12816
   0.14863  -0.09180   0.12816
   0.14863  -0.09180   0.12816
  -0.09079  -0.09180   0.12816
   0.14863  -0.09180   0.12816
   0.14863   0.14762  -0.11125
   0.14863  -0.09180  -0.11125
   0.14863  -0.09180  -0.11125
   0.14863  -0.09180   0.12816
   0.14863  -0.09180  -0.11125
   0.14863   0.14762  -0.11125
   0.14863  -0.09180  -0.11125
   0.14863  -0.09180  -0.11125
   0.14863  -0.09180   0.12816
   0.14863  -0.09180   0.12816
   0.14863  -0.09180  -0.11125
   0.14863  -0.09180  -0.11125
   0.14863  -0.09180  -0.11125
  -0.09079  -0.33122  -0.11125
  -0.09079  -0.33122  -0.11125
  -0.09079  -0.33122  -0.11125
  -0.09079  -0.09180  -0.11125
  -0.09079  -0.09180  -0.11125
  -0.09079  -0.33122  -0.11125
  -0.09079  -0.33122  -0.11125
  -0.09079  -0.33122  -0.11125
  -0.09079  -0.33122  -0.11125
  -0.09079  -0.33122  -0.11125
  -0.09079  -0.33122  -0.11125
  -0.33021  -0.33122  -0.35067
  -0.33021  -0.33122  -0.35067
  -0.33021  -0.33122  -0.35067
  -0.33021  -0.09180  -0.35067
  -0.33021  -0.33122  -0.35067
  -0.56963  -0.33122  -0.35067
  -0.56963  -0.33122  -0.35067
  -0.56963  -0.09180  -0.35067
  -0.56963  -0.09180  -0.35067
  -0.56963  -0.09180  -0.35067
  -0.80905  -0.09180  -0.35067
  -0.80905  -0.09180  -0.35067
  -0.80905  -0.09180  -0.11125
  -0.80905  -0.09180  -0.11125
  -0.80905  -0.33122  -0.11125
  -0.80905  -0.09180  -0.11125
  -0.80905  -0.09180  -0.11125
  -0.80905  -0.09180  -0.11125
  -0.80905  -0.09180  -0.11125
  -0.80905  -0.09180  -0.11125
  -0.80905  -0.09180  -0.11125
  -0.80905   0.14762  -0.11125
  -0.80905   0.14762  -0.11125
  -0.80905  -0.09180  -0.11125
  -0.80905  -0.09180  -0.11125
  -0.80905  -0.09180  -0.11125
  -0.80905  -0.09180  -0.11125
  -0.56963  -0.09180  -0.11125
  -0.56963   0.14762  -0.11125
  -0.56963   0.14762  -0.11125
  -0.56963   0.14762  -0.11125
  -0.56963   0.14762   0.12816
  -0.33021  -0.09180  -0.11125
  -0.33021   0.14762  -0.11125
  -0.09079   0.14762  -0.11125
  -0.09079   0.14762  -0.11125
  -0.09079   0.14762   0.12816
  -0.09079   0.14762  -0.11125
   0.14863   0.14762   0.12816
   0.14863   0.14762   0.12816
   0.38805   0.14762   0.12816
   0.38805   0.14762  -0.11125
   0.38805   0.14762   0.12816
   0.62747   0.14762  -0.11125
   0.62747   0.14762  -0.11125
   0.62747   0.14762   0.12816
   0.86688   0.14762   0.12816
   0.86688   0.14762   0.12816
   0.86688   0.14762   0.12816
   1.10630   0.38704   0.12816
   1.10630   0.38704   0.12816
   1.10630   0.38704   0.12816
   1.10630   0.38704   0.36758
   1.34572   0.38704   0.36758
   1.34572   0.38704   0.36758
   1.34572   0.38704   0.36758
   1.34572   0.62646   0.36758
   1.34572   0.38704   0.36758
   1.58514   0.38704   0.36758
   1.58514   0.38704   0.36758
   1.58514   0.38704   0.60700
   1.58514   0.14762   0.60700
   1.58514   0.38704   0.60700
   1.58514   0.14762   0.60700
   1.58514   0.14762   0.60700
   1.58514   0.14762   0.60700
   1.58514   0.14762   0.60700
   1.58514   0.14762   0.60700
   1.34572   0.14762   0.60700
   1.34572   0.14762   0.60700
   1.34572   0.14762   0.84642
   1.34572  -0.09180   0.60700
   1.10630  -0.09180   0.60700
   1.10630   0.14762   0.84642
   1.10630   0.14762   0.84642
   0.86688   0.14762   0.84642
   0.86688  -0.09180   0.84642
   0.86688  -0.09180   0.84642
   0.62747  -0.09180   0.84642
   0.62747   0.14762   0.84642
   0.62747   0.14762   0.84642
   0.38805   0.14762   0.84642
   0.38805   0.14762   0.84642
   0.38805   0.14762   0.84642
   0.38805  -0.09180   0.84642
   0.38805   0.14762   0.84642
   0.14863   0.14762   0.84642
   0.14863   0.14762   0.60700
   0.14863   0.14762   0.60700
   0.14863   0.14762   0.60700
  -0.09079   0.14762   0.60700
   0.14863   0.14762   0.60700
  -0.09079   0.38704   0.60700
  -0.09079   0.38704   0.36758
  -0.33021   0.38704   0.36758
  -0.33021   0.14762   0.12816
  -0.33021   0.14762   0.36758
  -0.33021   0.38704   0.12816
  -0.33021   0.38704   0.12816
  -0.33021   0.38704  -0.11125
  -0.33021   0.38704  -0.11125
  -0.33021   0.38704  -0.11125
  -0.56963   0.38704  -0.11125
  -0.33021   0.38704  -0.35067
  -0.33021   0.38704  -0.35067
  -0.33021   0.38704  -0.59009
  -0.33021   0.38704  -0.59009
  -0.33021   0.38704  -0.82951
  -0.09079   0.38704  -0.82951
  -0.09079   0.38704  -0.82951
  -0.09079   0.62646  -0.82951
  -0.09079   0.38704  -0.82951
   0.14863   0.38704  -0.82951
   0.14863   0.38704  -1.06893
   0.14863   0.38704  -1.06893
   0.14863   0.14762  -1.06893
   0.14863   0.38704  -1.06893
   0.14863   0.38704  -1.06893
   0.14863   0.38704  -1.06893
   0.14863   0.62646  -1.06893
   0.14863   0.14762  -1.06893
   0.38805   0.14762  -0.82951
   0.38805   0.14762  -0.82951
   0.38805   0.14762  -0.82951
   0.38805   0.14762  -0.82951
   0.38805   0.14762  -0.82951
   0.38805   0.14762  -0.82951
   0.38805   0.14762  -0.82951
   0.38805   0.14762  -0.59009
   0.38805   0.14762  -0.59009
   0.38805   0.14762  -0.59009
   0.38805   0.38704  -0.59009
   0.38805   0.14762  -0.35067
   0.38805   0.14762  -0.35067
   0.14863   0.14762  -0.11125
   0.14863   0.14762  -0.11125
   0.14863   0.14762  -0.11125
   0.14863   0.38704   0.12816
   0.14863   0.14762   0.12816
   0.14863   0.14762   0.36758
   0.14863   0.14762   0.36758
   0.14863   0.38704   0.36758
   0.14863   0.38704   0.60700
  -0.09079   0.38704   0.60700
  -0.09079   0.38704   0.84642
  -0.09079   0.38704   0.84642
  -0.33021   0.38704   0.84642
  -0.33021   0.38704   1.08584
  -0.33021   0.38704   1.08584
  -0.56963   0.38704   1.08584
  -0.56963   0.38704   1.32526
  -0.56963   0.14762   1.32526
  -0.80905   0.14762   1.32526
  -0.80905   0.38704   1.32526
  -0.80905   0.14762   1.56468
  -1.04847   0.14762   1.56468
  -1.04847   0.14762   1.56468
  -1.04847   0.14762   1.56468
  -1.28789   0.14762   1.56468
  -1.28789  -0.09180   1.32526
  -1.28789  -0.09180   1.32526
  -1.28789  -0.09180   1.32526
  -1.28789  -0.09180   1.32526
  -1.52730  -0.09180   1.32526
  -1.52730  -0.09180   1.32526
  -1.52730  -0.09180   1.32526
  -1.52730  -0.09180   1.08584
  -1.52730  -0.09180   1.08584
  -1.52730  -0.09180   1.08584
  -1.76672  -0.09180   1.08584
  -1.76672  -0.09180   0.84642
  -1.76672  -0.09180   0.84642
  -1.76672  -0.33122   0.84642
  -1.76672  -0.33122   0.60700
  -1.76672  -0.09180   0.60700
  -1.52730  -0.09180   0.60700
  -1.52730  -0.09180   0.60700
  -1.52730  -0.09180   0.60700
  -1.52730  -0.33122   0.36758
  -1.52730  -0.09180   0.36758
  -1.52730  -0.33122   0.12816
  -1.52730  -0.33122   0.12816
  -1.28789  -0.33122   0.12816
  -1.28789  -0.33122  -0.11125
  -1.28789  -0.09180  -0.11125
  -1.04847  -0.33122  -0.11125
  -1.04847  -0.33122  -0.35067
  -0.80905  -0.33122  -0.35067
  -0.80905  -0.33122  -0.59009
  -0.56963  -0.33122  -0.59009
  -0.56963  -0.33122  -0.82951
  -0.33021  -0.33122  -0.82951
  -0.33021  -0.33122  -0.82951
  -0.09079  -0.33122  -1.06893
  -0.09079  -0.33122  -1.06893
   0.14863  -0.33122  -1.06893
   0.14863  -0.33122  -1.30835
   0.14863  -0.33122  -1.30835
   0.14863  -0.33122  -1.30835
   0.38805  -0.33122  -1.30835
   0.38805  -0.33122  -1.30835
   0.62747  -0.33122  -1.30835
   0.62747  -0.33122  -1.30835
   0.62747  -0.33122  -1.30835
   0.86688  -0.09180  -1.30835
   0.86688  -0.33122  -1.30835
   0.86688  -0.33122  -1.30835
   0.86688  -0.09180  -1.06893
   1.10630  -0.09180  -1.06893
   1.10630  -0.09180  -1.06893
   1.10630  -0.09180  -0.82951
   1.10630  -0.09180  -0.82951
   1.10630  -0.09180  -0.82951
   1.34572  -0.09180  -0.82951
   1.34572  -0.09180  -0.82951
   1.10630  -0.09180  -0.59009
   1.10630  -0.09180  -0.59009
   1.34572  -0.09180  -0.35067
   1.10630  -0.09180  -0.35067
   1.10630  -0.09180  -0.35067
   1.10630  -0.09180  -0.11125
   1.10630  -0.09180  -0.11125
   1.10630  -0.09180  -0.11125
   1.10630  -0.09180   0.12816
   0.86688  -0.09180   0.36758
   0.86688  -0.09180   0.36758
   0.62747  -0.09180   0.36758
   0.62747  -0.09180   0.60700
   0.38805  -0.09180   0.60700
   0.38805  -0.09180   0.84642
   0.38805  -0.09180   0.84642
   0.14863  -0.09180   1.08584
   0.14863  -0.33122   1.08584
   0.14863  -0.33122   1.32526
   0.14863  -0.33122   1.32526
  -0.09079  -0.33122   1.32526
  -0.09079  -0.33122   1.56468
  -0.09079  -0.09180   1.56468
  -0.33021  -0.09180   1.80410
  -0.33021  -0.33122   1.80410
  -0.56963  -0.33122   1.80410
  -0.56963  -0.33122   1.80410
  -0.56963  -0.33122   1.80410
  -0.56963  -0.33122   1.80410
  -0.80905  -0.33122   1.80410
  -0.80905  -0.09180   1.80410
  -0.80905  -0.09180   1.80410
  -0.80905  -0.09180   2.04352
  -0.80905  -0.09180   1.80410
  -0.80905  -0.09180   1.80410
  -1.04847   0.14762   1.80410
  -1.04847  -0.09180   1.56468
  -1.04847  -0.09180   1.56468
  -1.04847   0.14762   1.56468
  -1.04847  -0.09180   1.32526
  -1.04847   0.14762   1.08584
  -0.80905   0.14762   1.08584
  -0.80905   0.14762   0.84642
  -0.80905   0.14762   0.84642
  -0.80905   0.14762   0.60700
  -0.80905   0.14762   0.36758
  -0.56963   0.14762   0.36758
  -0.56963   0.14762   0.12816
  -0.56963  -0.09180  -0.11125
  -0.33021   0.14762  -0.11125
  -0.33021   0.14762  -0.11125
  -0.33021   0.14762  -0.35067
  -0.09079  -0.09180  -0.59009
  -0.09079   0.14762  -0.82951
   0.14863  -0.09180  -1.06893
   0.14863  -0.09180  -1.06893
   0.14863  -0.09180  -1.30835
   0.38805  -0.09180  -1.30835
   0.38805  -0.09180  -1.54777
   0.62747  -0.09180  -1.54777
   0.62747  -0.09180  -1.54777
   0.86688  -0.09180  -1.78719
   0.86688  -0.09180  -1.78719
   0.86688  -0.09180  -1.78719
   1.10630  -0.09180  -2.02661
   1.10630  -0.09180  -2.02661
   1.10630  -0.09180  -2.02661
   1.34572  -0.33122  -2.26603
   1.34572  -0.33122  -2.26603
   1.34572  -0.33122  -2.26603
   1.34572  -0.33122  -2.26603
   1.34572  -0.09180  -2.26603
   1.34572  -0.33122  -2.26603
   1.34572  -0.33122  -2.26603
   1.34572  -0.33122  -2.26603
   1.34572  -0.33122  -2.26603
   1.34572  -0.33122  -2.26603
   1.34572  -0.57064  -2.26603
   1.34572  -0.57064  -2.26603
   1.10630  -0.33122  -2.26603
   1.10630  -0.33122  -2.02661
   1.10630  -0.33122  -2.02661
   1.10630  -0.33122  -2.02661
   1.10630  -0.33122  -2.02661
   1.10630  -0.33122  -1.78719
   0.86688  -0.33122  -1.78719
   0.86688  -0.33122  -1.54777
   0.86688  -0.33122  -1.30835
   0.62747  -0.33122  -1.30835
   0.62747  -0.33122  -1.06893
   0.62747  -0.09180  -1.06893
   0.62747  -0.33122  -0.82951
   0.38805  -0.09180  -0.59009
   0.38805  -0.33122  -0.59009
   0.14863  -0.09180  -0.35067
   0.14863  -0.09180  -0.11125
   0.14863  -0.33122  -0.11125
   0.14863  -0.33122   0.12816
  -0.09079  -0.33122   0.36758
  -0.09079  -0.33122   0.36758
  -0.09079  -0.33122   0.60700
  -0.33021  -0.33122   0.84642
  -0.33021  -0.33122   0.84642
  -0.56963  -0.33122   1.08584
  -0.56963  -0.33122   1.08584
  -0.80905  -0.33122   1.32526
  -0.80905  -0.33122   1.32526
  -0.80905  -0.33122   1.56468
  -1.04847  -0.33122   1.56468
  -1.04847  -0.33122   1.80410
  -1.04847  -0.33122   1.80410
  -1.04847  -0.33122   1.80410
  -1.28789  -0.33122   1.80410
  -1.28789  -0.33122   2.04352
  -1.28789  -0.09180   2.04352
  -1.28789  -0.09180   2.04352
  -1.28789  -0.09180   2.04352
  -1.28789  -0.09180   2.04352
  -1.28789  -0.09180   2.04352
  -1.28789  -0.09180   2.04352
  -1.28789  -0.09180   2.04352
  -1.28789  -0.09180   2.04352
  -1.28789   0.14762   1.80410
  -1.28789   0.14762   1.80410
  -1.28789   0.14762   1.80410
  -1.28789   0.14762   1.80410
  -1.28789   0.14762   1.80410
  -1.04847   0.14762   1.80410
  -1.04847   0.14762   1.56468
  -1.04847   0.14762   1.56468
  -1.04847   0.14762   1.32526
  -0.80905   0.14762   1.32526
  -0.80905   0.38704   1.08584
  -0.56963   0.38704   1.08584
  -0.56963   0.38704   1.08584
  -0.56963   0.38704   0.84642
  -0.33021   0.38704   0.84642
  -0.33021   0.38704   0.60700
  -0.09079   0.38704   0.60700
  -0.09079   0.62646   0.36758
   0.14863   0.62646   0.36758
   0.14863   0.62646   0.12816
   0.14863   0.62646   0.12816
   0.38805   0.62646  -0.11125
   0.38805   0.62646  -0.11125
   0.62747   0.62646  -0.11125
   0.62747   0.62646  -0.35067
   0.86688   0.62646  -0.35067
   1.10630   0.62646  -0.35067
   1.10630   0.62646  -0.59009
   1.10630   0.62646  -0.59009
   1.34572   0.62646  -0.82951
   1.34572   0.62646  -0.82951
   1.58514   0.62646  -0.82951
   1.58514   0.62646  -0.82951
   1.58514   0.62646  -0.82951
   1.82456   0.62646  -1.06893
   1.82456   0.62646  -1.06893
   1.82456   0.38704  -1.06893
   1.82456   0.38704  -1.06893
   1.82456   0.38704  -1.06893
   2.06398   0.38704  -1.30835
   2.06398   0.38704  -1.30835
   2.06398   0.38704  -1.30835
   2.06398   0.62646  -1.30835
   1.82456   0.38704  -1.30835
   1.82456   0.38704  -1.30835
   1.82456   0.62646  -1.30835
   1.58514   0.62646  -1.30835
   1.58514   0.62646  -1.30835
   1.58514   0.62646  -1.30835
   1.34572   0.62646  -1.30835
   1.10630   0.62646  -1.06893
   1.10630   0.38704  -1.06893
   0.86688   0.38704  -1.06893
   0.62747   0.62646  -1.06893
   0.62747   0.62646  -1.06893
   0.38805   0.62646  -1.06893
   0.38805   0.62646  -0.82951
   0.14863   0.62646  -0.82951
   0.14863   0.62646  -0.59009
  -0.09079   0.62646  -0.59009
  -0.09079   0.62646  -0.59009
  -0.33021   0.62646  -0.35067
  -0.56963   0.62646  -0.35067
  -0.56963   0.38704  -0.11125
  -0.80905   0.38704  -0.11125
  -1.04847   0.38704  -0.11125
  -1.04847   0.38704  -0.11125
  -1.28789   0.38704   0.12816
  -1.52730   0.62646   0.12816
  -1.52730   0.38704   0.12816
  -1.52730   0.38704   0.36758
  -1.76672   0.38704   0.36758
  -1.76672   0.38704   0.36758
  -1.76672   0.38704   0.60700
  -2.00614   0.38704   0.60700
  -2.00614   0.38704   0.84642
  -2.00614   0.38704   0.84642
  -2.00614   0.38704   0.84642
  -2.00614   0.38704   0.84642
  -2.00614   0.38704   1.08584
  -2.00614   0.38704   1.08584
  -2.00614   0.38704   1.08584
  -2.00614   0.38704   1.32526
  -2.00614   0.38704   1.32526
  -2.00614   0.38704   1.32526
  -1.76672   0.62646   1.32526
  -1.76672   0.14762   1.32526
  -1.76672   0.38704   1.32526
  -1.76672   0.14762   1.32526
  -1.52730   0.38704   1.32526
  -1.52730   0.14762   1.32526
  -1.52730   0.14762   1.32526
  -1.52730   0.14762   1.32526
  -1.28789   0.14762   1.32526
  -1.28789   0.14762   1.32526
  -1.28789   0.14762   1.32526
