********************************************************************************
              CENTRO DE INSTRUMENTACION Y REGISTRO SISMICO  A.C.

    Anaxagoras 814, Col. Narvarte, Benito Juarez, C.P. 03020 Mexico, D.F.
           Tels. 5687 45 42/ 5687 45  82             Fax. 5669 25 12
********************************************************************************
ARCHIVO ESTANDAR DE ACELERACION:
VERSION DEL FORMATO                    : 2.0
NOMBRE DEL ARCHIVO                     : AU4620090522192418
FECHA Y HORA DE CREACION               : 24/JUN/09, 01:39
REF. CATALOGO ACELEROGRAMAS, SMIS 1996 : REGISTRO No.     /PAG.


================================================================================
DATOS DE LA ESTACION:
NOMBRE DE LA ESTACION                  : ESC. SEC. TÉC. NO. 14
CLAVE DE LA ESTACION                   : AU46
LOCALIZACION DE LA ESTACION            : Del. Benito Juárez, Col. del Valle,    
                                       : Entre Angel Urraza y Coyoacán.         
                                       :                                        
                                       :                                        
                                       : 
COORDENADAS DE LA ESTACION             : 19.3832 LAT. N
                                       : 99.1681 LONG. W
ALTITUD (msnm)                         : 2233
TIPO DE SUELO                          : Transición                          
                                       :                           
                                       : 
INSTITUCION RESPONSABLE                : CIRES
                                       : 

================================================================================
DATOS DEL ACELEROGRAFO:
MODELO DEL ACELEROGRAFO                : RADESD
NUMERO DE SERIE DEL ACELEROGRAFO       : 236
NUMERO DE CANALES                      : 3
ORIENTACION C1-C6 (rumbo;orientacion)  : /N00E/+V/N90W
ORIENTACION C7-C12 (rumbo;orientacion) : 
VEL. DE MUESTREO, C1-C6 (muestras/s)   : /100/100/100
VEL. DE MUESTREO, C7-C12 (muestras/s)  : 
ESC. COMPLETA DE SENSORES, C1-C6, (g)  : /0.5/0.5/0.5
ESC. COMPLETA DE SENSORES, C7-C12, (g) : 
FREC. NAT. DE SENSORES, C1-C6, (Hz)    : /33/30/30
FREC. NAT. DE SENSORES, C7-C12, (Hz)   : 
AMORTIGUAMIENTO DE SENSORES, C1-C6     : /0.735/0.733/0.730
AMORTIGUAMIENTO DE SENSORES, C7-C12    : 
INTERVALO DE MUESTREO, C1-C6, (s)      : /0.01/0.01/0.01
INTERVALO DE MUESTREO, C7-C12, (s)     : 
UMBRAL DE DISPARO, C1-C6, (Gal)        : /2.87/5.51/5.27
UMBRAL DE DISPARO, C7-C12, (Gal)       : 
MEMORIA DE PREEVENTO (s)               : 56.0
TIEMPO DE POSEVENTO (s)                : 64.0


================================================================================
DATOS DEL SISMO:
FECHA DEL SISMO (GMT)                  : 22/MAY/09
HORA EPICENTRO (GMT)                   : 19:24:18.0
MAGNITUD(ES)                           : /Mc=5.7
COORDENADAS DEL EPICENTRO              : 18.13 LAT. N
                                       : 98.44 LONG. W
PROFUNDIDAD FOCAL (km)                 : 45
FUENTE DE LOS DATOS EPICENTRALES       : SSN
                                       : INSTITUTO DE GEOFISICA, UNAM

================================================================================
DATOS DE ESTE REGISTRO:
HORA DE LA PRIMERA MUESTRA (GMT)       : 19:25:00.00
EXACTITUD DEL TIEMPO (s)               : 0.01
DURACION DEL REGISTRO (s), C1-C6       : /130.25/130.25/130.25
DURACION DEL REGISTRO (s), C7-C12      : 
NUM. TOTAL DE MUESTRAS, C1-C6          : /13025/13025/13025
NUM. TOTAL DE MUESTRAS, C7-C12         : 
ACEL. MAX. (Gal), C1-C6                : /11.64069/12.49731/23.55665
ACEL. MAX., C1-C6, EN LA MUESTRA       : /5736/5719/5781
ACEL. MAX. (Gal), C7-C12               : 
ACEL. MAX., C7-C12, EN LA MUESTRA      : 
UNIDADES DE LOS DATOS                  : Gal (cm/s/s)
FACTOR DE DECIMACION                   : 1
FORMATO DATOS (FORTRAN,10 campos/dato) : 3F10.5


================================================================================
CALIDAD DEL ACELEROGRAMA:
REGISTRO DIGITAL COMPLETO CON TIEMPO ABSOLUTO CORRECTO.


================================================================================
COMENTARIOS:














================================================================================
DATOS DE ACELERACION:
---------+---------+---------+---------+---------+---------+---------+---------+
   CANAL-1   CANAL-2   CANAL-3   CANAL-4   CANAL-5   CANAL-6   CANAL-7   CANAL-8
      N00E        +V      N90W
---------+---------+---------+---------+---------+---------+---------+---------+
[...]
  -1.04858   1.86790   0.14595
  -0.80916   2.34674   0.14595
  -0.80916   2.10732   0.14595
  -0.80916   1.86790  -0.09347
  -0.56974   1.38906  -0.09347
  -0.56974   1.14964  -0.33289
  -0.56974   1.14964  -0.33289
  -0.33032   1.14964  -0.33289
  -0.33032   0.91022  -0.33289
  -0.33032   0.43138  -0.57231
  -0.33032  -0.04746  -0.33289
  -0.09090  -0.52630  -0.09347
  -0.33032  -0.76572   0.38537
  -0.33032  -0.76572   0.38537
  -0.09090  -0.76572   0.38537
  -0.33032  -0.76572   0.38537
  -0.09090  -0.76572   0.14595
  -0.09090  -0.76572  -0.09347
  -0.33032  -0.52630  -0.09347
  -0.33032   0.19196  -0.09347
  -0.33032   0.67080  -0.33289
  -0.56974   1.14964  -0.33289
  -0.80916   1.62848  -0.33289
  -0.80916   1.86790  -0.09347
  -0.80916   2.10732  -0.09347
  -0.80916   2.34674  -0.09347
  -0.80916   2.58616  -0.33289
  -0.80916   2.34674  -0.81173
  -0.56974   2.10732  -1.05115
  -0.33032   1.38906  -1.29057
   0.14852   0.91022  -0.81173
   0.38794   0.43138  -0.57231
   0.38794  -0.04746  -0.57231
   0.62736  -0.76572  -0.81173
   0.62736  -1.24456  -1.05115
   0.86678  -1.48398  -0.81173
   1.10620  -1.72340  -0.57231
   1.10620  -1.72340  -0.33289
   0.62736  -2.20224  -0.09347
   0.62736  -2.20224  -0.33289
   0.86678  -2.20224  -0.81173
   0.86678  -2.20224  -0.81173
   0.86678  -1.72340  -1.05115
   0.86678  -1.24456  -1.05115
   0.62736  -1.00514  -0.81173
   0.62736  -1.00514  -0.81173
   0.62736  -1.24456  -1.05115
   0.62736  -1.24456  -1.05115
   0.38794  -1.00514  -0.81173
   0.14852  -0.52630  -0.57231
   0.38794   0.19196  -0.57231
   0.14852   0.67080  -0.09347
   0.14852   1.14964   0.38537
  -0.09090   1.14964   0.62479
   0.14852   0.91022   0.62479
   0.14852   0.67080   0.62479
   0.14852   0.67080   0.62479
  -0.09090   0.43138   0.38537
  -0.09090   0.43138   0.38537
  -0.09090   0.43138   0.38537
   0.14852   0.43138   0.38537
   0.38794   0.67080   0.62479
   0.38794   0.43138   0.38537
   0.14852   0.43138   0.38537
  -0.09090   0.19196   0.38537
  -0.09090   0.19196   0.14595
   0.14852   0.19196   0.14595
  -0.33032   0.19196  -0.09347
  -0.33032   0.19196  -0.09347
  -0.56974   0.19196  -0.33289
  -0.56974   0.19196  -0.33289
  -0.33032   0.19196  -0.09347
   0.14852  -0.04746  -0.09347
   0.14852  -0.04746   0.38537
   0.38794  -0.04746   0.62479
   0.38794  -0.04746   0.86421
   0.38794  -0.04746   1.10363
   0.38794  -0.28688   0.86421
   0.62736  -0.04746   0.86421
   0.62736  -0.04746   0.86421
   0.38794  -0.04746   1.10363
  -0.09090  -0.04746   0.62479
  -0.09090   0.19196   0.86421
  -0.33032   0.43138   0.62479
  -0.09090   0.43138   0.62479
  -0.09090  -0.04746   0.14595
   0.14852  -0.52630  -0.09347
   0.14852  -1.00514   0.14595
  -0.09090  -1.00514   0.14595
   0.14852  -1.00514   0.14595
   0.14852  -1.00514   0.38537
   0.14852  -0.52630   0.62479
   0.14852  -0.28688   0.62479
   0.38794  -0.04746   0.38537
   0.38794  -0.04746   0.14595
   0.38794  -0.04746   0.14595
   0.38794  -0.52630   0.14595
   0.38794  -0.76572   0.38537
   0.38794  -1.00514   0.38537
   0.38794  -1.00514   0.14595
   0.38794  -1.00514  -0.09347
   0.38794  -0.76572  -0.09347
   0.14852  -0.52630  -0.09347
   0.14852  -0.52630  -0.33289
  -0.09090  -0.28688  -0.09347
  -0.33032  -0.28688  -0.09347
  -0.56974  -0.04746  -0.09347
  -0.56974   0.19196  -0.33289
  -0.80916   0.67080  -0.57231
  -1.04858   1.38906  -1.05115
  -1.28800   2.10732  -1.29057
  -1.28800   2.82558  -1.05115
  -1.28800   3.30442  -1.05115
  -0.80916   3.30442  -0.81173
  -0.33032   3.30442  -0.81173
   0.38794   3.30442  -0.57231
   0.86678   3.06500  -0.57231
   0.86678   3.06500  -0.81173
   1.10620   2.82558  -0.81173
   1.34562   2.10732  -1.52999
   1.34562   1.38906  -2.00883
   1.34562   0.67080  -2.00883
   1.34562  -0.04746  -2.00883
   1.58504  -0.52630  -1.76941
   1.82446  -1.48398  -1.52999
   2.30330  -2.44166  -1.76941
   2.54272  -2.92050  -2.24825
   2.78215  -3.63876  -2.48767
   2.78215  -3.87818  -2.48767
   3.02157  -3.63876  -2.48767
   3.26099  -2.92050  -2.24825
   3.26099  -1.96282  -2.00883
   3.26099  -1.24456  -1.76941
   3.02157  -0.76572  -1.76941
   2.78215  -0.52630  -1.52999
   2.78215  -0.52630  -1.52999
   2.78215  -0.52630  -1.29057
   2.30330  -0.76572  -0.57231
   2.06388  -0.28688  -0.33289
   1.82446   0.19196  -0.09347
   1.82446   0.67080  -0.09347
   1.82446   1.14964   0.14595
   1.82446   1.86790   0.38537
   1.34562   2.34674   0.86421
   0.86678   2.10732   1.10363
   0.38794   1.62848   1.58247
  -0.33032   1.14964   2.06131
  -0.80916   0.91022   2.54015
  -1.76684   0.91022   3.01899
  -2.48510   1.14964   3.49783
  -3.44278   1.38906   4.21609
  -4.16104   0.91022   4.45551
  -4.40046   0.19196   5.17377
  -5.11872  -0.76572   5.65261
  -5.35814  -1.72340   6.13145
  -5.59756  -2.92050   6.37087
  -5.59756  -3.63876   6.37087
  -5.83698  -3.87818   5.89203
  -5.59756  -2.44166   4.45551
  -5.11872  -1.48398   3.73725
  -4.87930  -0.76572   3.01899
  -4.40046  -0.04746   2.54015
  -3.68220   0.19196   1.82189
  -2.96394   0.67080   1.34305
  -2.24568   1.14964   0.86421
  -1.52742   2.10732   0.14595
  -1.04858   3.06500  -0.57231
  -0.56974   4.26210  -1.29057
  -0.09090   5.45920  -1.76941
   0.38794   6.17746  -2.00883
   0.86678   6.65630  -1.76941
   0.86678   6.41688  -1.52999
   1.10620   5.93804  -1.05115
   0.86678   4.98036  -0.57231
   0.14852   3.78326  -0.33289
  -0.33032   2.58616   0.38537
  -0.80916   1.38906   0.62479
  -1.04858   0.19196   1.10363
  -1.04858  -1.00514   1.58247
  -1.28800  -2.44166   1.34305
  -0.80916  -3.63876   0.86421
   0.14852  -4.83586   0.14595
   1.34562  -5.55413  -1.05115
   2.78215  -6.03297  -2.72709
   3.97925  -5.79355  -4.16361
   5.41577  -5.31470  -5.60013
   6.61287  -4.11760  -6.79724
   7.33113  -2.68108  -7.51550
   8.28881  -1.72340  -7.99434
   8.52823  -0.52630  -7.75492
   8.76765   0.43138  -7.03666
   8.52823   1.14964  -6.07897
   8.76765   1.62848  -5.36071
   8.52823   2.34674  -3.92419
   8.04939   3.30442  -2.48767
   7.33113   4.02268  -1.29057
   6.37345   4.50152  -0.09347
   4.93693   4.98036   1.58247
   3.26099   4.50152   2.77957
   1.58504   3.30442   4.21609
  -0.56974   1.38906   5.65261
  -2.72452  -0.28688   7.32855
  -4.63988  -2.20224   8.76508
  -6.31582  -4.11760  10.20160
  -7.75234  -5.55413  10.68044
  -8.71002  -6.75123  10.91986
  -9.42828  -7.23007  10.68044
  -9.66770  -7.23007   9.96218
  -9.18886  -7.46949   9.00450
  -8.71002  -7.46949   7.56797
  -7.75234  -7.94833   5.89203
  -6.31582  -7.46949   3.73725
  -4.63988  -6.27239   1.82189
  -2.96394  -4.35702  -0.33289
  -1.28800  -2.20224  -2.48767
  -0.09090   0.43138  -3.92419
   1.10620   2.82558  -4.64245
   1.34562   5.21978  -4.64245
   1.10620   7.13514  -3.92419
   0.14852   8.33224  -2.72709
  -0.80916   9.05051  -1.29057
  -2.48510   9.52935   0.38537
  -3.20336   9.52935   1.82189
  -4.40046   9.28993   3.49783
  -5.11872   8.33224   4.69493
  -5.59756   6.89572   5.65261
  -5.11872   4.74094   6.37087
  -4.16104   2.34674   6.37087
  -3.20336  -0.28688   5.17377
  -2.00626  -2.92050   3.49783
  -1.04858  -5.07528   1.10363
  -0.33032  -7.23007  -1.52999
  -0.33032  -8.42717  -4.40303
  -0.80916  -9.14543  -7.27608
  -1.76684  -9.14543  -9.43086
  -2.96394  -8.66659 -10.86738
  -4.16104  -7.70891 -11.82506
  -4.63988  -6.51181 -12.30390
  -4.87930  -4.59644 -12.30390
  -4.40046  -2.44166 -12.06448
  -2.96394  -0.04746 -11.82506
  -1.76684   2.58616 -11.58564
  -0.09090   4.98036 -11.10680
   1.58504   6.65630 -10.14912
   3.50041   7.61398  -9.67028
   4.69751   8.09282  -8.95202
   5.89461   7.85340  -8.71260
   6.61287   6.89572  -8.47318
   6.37345   5.69862  -8.23376
   5.65519   4.26210  -8.47318
   4.45809   2.34674  -8.47318
   3.02157   0.43138  -8.47318
   1.58504  -2.20224  -8.47318
   0.38794  -4.11760  -8.47318
  -0.56974  -5.55413  -8.23376
  -1.28800  -6.27239  -8.47318
  -1.76684  -6.27239  -8.47318
  -2.48510  -5.31470  -7.75492
  -2.96394  -4.35702  -7.03666
  -3.44278  -3.15992  -5.83955
  -4.16104  -1.96282  -5.12129
  -4.87930  -1.48398  -5.12129
  -6.07640  -1.00514  -5.12129
  -6.79466  -0.52630  -5.60013
  -7.75234  -0.28688  -6.31839
  -8.23118   0.43138  -7.51550
  -8.23118   1.38906  -8.71260
  -7.75234   2.82558  -9.19144
  -6.55524   4.50152  -9.19144
  -4.87930   5.69862  -8.23376
  -2.00626   6.65630  -6.31839
   0.62736   7.13514  -3.20593
   3.73983   7.61398  -0.33289
   6.61287   7.37456   2.54015
   9.00707   7.13514   5.41319
  10.20417   6.17746   8.04682
  11.16185   4.98036   9.96218
  10.92243   3.30442  11.63812
  10.20417   1.38906  12.59580
   8.76765  -0.76572  13.07464
   6.61287  -3.39934  12.83522
   4.45809  -6.27239  12.83522
   2.54272  -8.90601  12.83522
   1.34562 -11.06079  12.11696
   0.86678 -12.49731  11.15928
   1.10620 -12.49731  10.44102
   1.34562 -12.01847   9.72276
   2.06388 -10.58195   8.76508
   2.78215  -8.42717   8.52566
   3.50041  -5.79355   8.76508
   4.45809  -3.15992   9.96218
   5.17635  -0.28688  11.15928
   5.89461   2.34674  12.83522
   6.37345   4.50152  14.27174
   6.85229   6.17746  15.70826
   7.33113   7.13514  16.90536
   8.04939   7.61398  17.86304
   8.76765   6.89572  18.58130
   9.48591   6.17746  18.58130
  10.20417   4.74094  18.58130
  11.16185   3.78326  18.10246
  11.64069   2.58616  17.62362
  11.64069   2.10732  17.38420
  10.92243   1.14964  17.62362
   9.72533   0.67080  18.10246
   7.57055  -0.28688  18.34188
   4.69751  -1.24456  18.34188
   1.58504  -2.44166  17.62362
  -1.76684  -3.15992  16.42652
  -4.87930  -3.39934  14.51116
  -7.75234  -3.63876  12.11696
  -9.42828  -4.11760   9.48334
 -10.38596  -4.35702   6.61029
 -10.14654  -4.35702   4.21609
  -8.94944  -4.11760   2.06131
  -6.79466  -3.15992   0.38537
  -4.16104  -2.20224  -0.57231
  -2.00626  -1.00514  -1.05115
  -0.33032   0.43138  -1.29057
   0.86678   1.38906  -1.29057
   1.10620   2.82558  -1.29057
   0.62736   4.02268  -1.52999
  -0.56974   4.74094  -2.00883
  -2.24568   5.21978  -2.48767
  -4.40046   5.21978  -3.44535
  -6.55524   4.50152  -5.12129
  -7.75234   3.78326  -7.27608
  -8.71002   3.06500  -9.90970
  -8.47060   2.58616 -12.78274
  -7.75234   2.58616 -15.65578
  -6.55524   2.58616 -18.28940
  -5.11872   2.82558 -19.72592
  -3.44278   2.82558 -20.92302
  -1.76684   2.58616 -21.16244
  -0.56974   2.10732 -20.92302
   0.62736   1.38906 -20.44418
   1.10620   0.91022 -19.72592
   1.58504   0.67080 -19.48650
   1.82446   0.43138 -19.24708
   1.82446  -0.28688 -19.24708
   1.34562  -1.00514 -19.48650
   0.86678  -1.72340 -20.44418
   0.14852  -2.20224 -21.40187
  -0.09090  -2.68108 -22.12013
  -0.33032  -2.68108 -22.83839
  -0.56974  -2.44166 -23.31723
  -0.80916  -2.92050 -23.55665
  -1.52742  -3.39934 -22.83839
  -2.72452  -3.87818 -21.64129
  -3.68220  -4.11760 -19.24708
  -4.63988  -3.87818 -15.89520
  -5.35814  -3.15992 -12.54332
  -5.83698  -2.44166  -9.43086
  -6.07640  -1.48398  -7.03666
  -5.35814  -0.52630  -5.12129
  -4.63988   0.19196  -3.92419
  -3.44278   0.43138  -3.44535
  -2.24568   0.19196  -3.44535
  -0.80916  -0.52630  -3.44535
  -0.09090  -1.24456  -3.20593
   0.38794  -1.96282  -2.48767
   0.62736  -2.68108  -1.05115
   0.38794  -3.15992   1.10363
  -0.09090  -3.39934   3.73725
  -1.28800  -3.39934   7.08913
  -2.48510  -3.15992  10.44102
  -4.16104  -2.44166  13.55348
  -5.35814  -2.20224  15.94768
  -6.55524  -1.48398  17.62362
  -6.79466  -0.76572  18.82072
  -6.79466   0.19196  19.29956
  -6.31582   1.14964  19.53898
  -5.35814   2.10732  19.29956
  -3.92162   3.30442  19.29956
  -2.00626   4.02268  19.53898
   0.14852   4.02268  19.53898
   2.30330   4.02268  19.77840
   4.21867   3.54384  19.53898
   5.41577   3.06500  19.06014
   5.89461   2.82558  18.34188
   6.37345   3.06500  17.38420
   5.65519   3.30442  16.42652
   4.69751   4.02268  15.22942
   3.50041   4.26210  13.55348
   2.54272   4.26210  11.15928
   1.82446   4.26210   9.48334
   2.06388   3.78326   7.80740
   2.30330   2.82558   6.84971
   3.26099   1.86790   6.37087
   4.69751   1.38906   6.37087
   5.89461   0.91022   6.84971
   7.09171   0.67080   6.84971
   7.80997   0.43138   6.61029
   8.28881   0.43138   6.37087
   7.80997   0.43138   5.65261
   7.09171   0.19196   4.45551
   5.65519  -0.28688   2.54015
   4.21867  -0.76572   0.62479
   3.02157  -1.00514  -1.29057
   2.06388  -0.76572  -3.20593
   1.82446  -1.24456  -4.88187
   2.54272  -1.96282  -6.31839
   3.50041  -2.44166  -7.03666
   4.69751  -2.92050  -7.75492
   5.89461  -3.15992  -7.99434
   6.61287  -3.15992  -7.99434
   6.37345  -3.15992  -8.23376
   5.41577  -2.68108  -8.23376
   3.97925  -2.68108  -8.23376
   2.54272  -2.44166  -8.47318
   1.10620  -2.20224  -8.47318
  -0.09090  -1.72340  -7.99434
  -0.80916  -1.24456  -7.75492
  -1.28800  -1.00514  -7.03666
  -1.04858  -1.00514  -7.03666
  -0.56974  -1.72340  -6.79724
   0.14852  -2.20224  -7.27608
   1.34562  -2.92050  -7.99434
   2.06388  -3.15992  -8.95202
   2.30330  -3.39934  -9.67028
   2.06388  -3.63876 -10.14912
   1.10620  -3.63876 -10.38854
  -0.33032  -3.39934 -10.38854
  -2.00626  -3.15992 -10.14912
  -4.16104  -2.68108 -10.14912
  -6.31582  -1.72340  -9.90970
  -7.75234  -0.28688  -9.43086
  -8.47060   1.38906  -8.71260
  -8.47060   2.82558  -7.51550
  -8.23118   4.26210  -6.55781
  -6.79466   5.45920  -5.60013
  -4.87930   6.41688  -4.16361
  -2.96394   7.13514  -2.96651
  -1.28800   7.61398  -1.52999
   0.38794   7.61398   0.14595
   1.10620   7.37456   1.58247
   1.34562   6.65630   2.30073
   0.86678   5.69862   3.01899
  -0.09090   4.50152   2.77957
  -2.00626   3.78326   2.54015
  -3.68220   3.06500   1.82189
  -5.11872   1.86790   1.10363
  -6.07640   0.43138   0.38537
  -6.55524  -0.76572   0.14595
  -6.31582  -1.48398   0.38537
  -5.35814  -2.20224   1.10363
  -4.40046  -2.44166   1.58247
  -2.96394  -2.68108   2.06131
  -1.52742  -2.68108   2.54015
  -0.56974  -2.20224   3.49783
  -0.09090  -1.96282   4.21609
   0.14852  -1.48398   4.93435
  -0.09090  -1.24456   5.17377
  -0.33032  -1.00514   4.93435
  -0.56974  -0.76572   5.17377
  -1.04858  -0.76572   4.93435
  -1.28800  -0.76572   5.17377
  -1.28800  -0.52630   5.41319
  -1.28800  -0.76572   5.41319
  -1.28800  -1.00514   5.17377
  -0.56974  -1.00514   5.17377
   0.14852  -0.52630   5.17377
   0.86678  -0.04746   5.41319
   1.34562   0.91022   5.65261
   1.58504   1.62848   5.41319
   1.34562   1.62848   5.17377
   1.10620   1.38906   5.17377
  -0.09090   0.67080   4.93435
  -1.28800   0.19196   5.17377
  -2.96394  -0.28688   5.41319
  -4.40046  -0.76572   5.89203
  -5.35814  -1.24456   6.13145
  -5.59756  -1.48398   5.65261
  -5.59756  -1.48398   5.17377
  -4.87930  -1.00514   4.93435
  -4.16104  -0.52630   4.21609
  -3.20336  -0.04746   3.25841
  -2.24568   0.19196   2.06131
  -1.04858   0.19196   1.10363
   0.14852  -0.04746   0.38537
   1.82446  -0.04746  -0.09347
   3.26099  -0.04746  -0.33289
   4.21867   0.19196  -0.81173
   4.93693   0.67080  -1.76941
   5.65519   0.91022  -2.48767
   5.89461   1.38906  -2.96651
   5.89461   2.34674  -3.20593
   6.13403   2.82558  -3.20593
   6.13403   3.30442  -3.68477
   6.13403   2.82558  -4.40303
   6.37345   2.10732  -4.88187
   6.61287   0.91022  -4.88187
   6.85229   0.19196  -4.64245
   6.85229  -0.76572  -4.16361
   6.37345  -1.72340  -3.44535
   5.65519  -2.20224  -2.48767
