********************************************************************************
              CENTRO DE INSTRUMENTACION Y REGISTRO SISMICO  A.C.

    Anaxagoras 814, Col. Narvarte, Benito Juarez, C.P. 03020 Mexico, D.F.
           Tels. 5687 45 42/ 5687 45  82             Fax. 5669 25 12
********************************************************************************
ARCHIVO ESTANDAR DE ACELERACION:
VERSION DEL FORMATO                    : 2.0
NOMBRE DEL ARCHIVO                     : AU4620130422011634
FECHA Y HORA DE CREACION               : 03/MAY/13, 12:56
REF. CATALOGO ACELEROGRAMAS, SMIS 1996 : REGISTRO No.     /PAG.


================================================================================
DATOS DE LA ESTACION:
NOMBRE DE LA ESTACION                  : ESC. SEC. TÉC. NO. 14
CLAVE DE LA ESTACION                   : AU46
LOCALIZACION DE LA ESTACION            : Del. Benito Juárez, Col. del Valle,    
                                       : Entre Angel Urraza y Coyoacán.         
                                       :                                        
                                       :                                        
                                       : 
COORDENADAS DE LA ESTACION             : 19.3832 LAT. N
                                       : 99.1681 LONG. W
ALTITUD (msnm)                         : 2233
TIPO DE SUELO                          : Transición                          
                                       :                           
                                       : 
INSTITUCION RESPONSABLE                : CIRES
                                       : 

================================================================================
DATOS DEL ACELEROGRAFO:
MODELO DEL ACELEROGRAFO                : RADESD
NUMERO DE SERIE DEL ACELEROGRAFO       : 236
NUMERO DE CANALES                      : 3
ORIENTACION C1-C6 (rumbo;orientacion)  : /N00E/+V/N90W
ORIENTACION C7-C12 (rumbo;orientacion) : 
VEL. DE MUESTREO, C1-C6 (muestras/s)   : /100/100/100
VEL. DE MUESTREO, C7-C12 (muestras/s)  : 
ESC. COMPLETA DE SENSORES, C1-C6, (g)  : /0.5/0.5/0.5
ESC. COMPLETA DE SENSORES, C7-C12, (g) : 
FREC. NAT. DE SENSORES, C1-C6, (Hz)    : /33/30/30
FREC. NAT. DE SENSORES, C7-C12, (Hz)   : 
AMORTIGUAMIENTO DE SENSORES, C1-C6     : /0.735/0.733/0.730
AMORTIGUAMIENTO DE SENSORES, C7-C12    : 
INTERVALO DE MUESTREO, C1-C6, (s)      : /0.01/0.01/0.01
INTERVALO DE MUESTREO, C7-C12, (s)     : 
UMBRAL DE DISPARO, C1-C6, (Gal)        : /26.34/71.83/28.73
UMBRAL DE DISPARO, C7-C12, (Gal)       : 
MEMORIA DE PREEVENTO (s)               : 56.0
TIEMPO DE POSEVENTO (s)                : 80.0


================================================================================
DATOS DEL SISMO:
FECHA DEL SISMO (GMT)                  : 22/ABR/13
HORA EPICENTRO (GMT)                   : 01:16:34.0
MAGNITUD(ES)                           : /Mc=5.8
COORDENADAS DEL EPICENTRO              : 17.87 LAT. N
                                       : 102.19 LONG. W
PROFUNDIDAD FOCAL (km)                 : 10
FUENTE DE LOS DATOS EPICENTRALES       : SSN
                                       : INSTITUTO DE GEOFISICA, UNAM

================================================================================
DATOS DE ESTE REGISTRO:
HORA DE LA PRIMERA MUESTRA (GMT)       : 01:18:17.00
EXACTITUD DEL TIEMPO (s)               : 0.01
DURACION DEL REGISTRO (s), C1-C6       : /139.19/139.19/139.19
DURACION DEL REGISTRO (s), C7-C12      : 
NUM. TOTAL DE MUESTRAS, C1-C6          : /13919/13919/13919
NUM. TOTAL DE MUESTRAS, C7-C12         : 
ACEL. MAX. (Gal), C1-C6                : /4.64289/1.25533/3.29926
ACEL. MAX., C1-C6, EN LA MUESTRA       : /4948/4843/4555
ACEL. MAX. (Gal), C7-C12               : 
ACEL. MAX., C7-C12, EN LA MUESTRA      : 
UNIDADES DE LOS DATOS                  : Gal (cm/s/s)
FACTOR DE DECIMACION                   : 1
FORMATO DATOS (FORTRAN,10 campos/dato) : 3F10.5


================================================================================
CALIDAD DEL ACELEROGRAMA:
REGISTRO DIGITAL COMPLETO CON TIEMPO ABSOLUTO CORRECTO.


================================================================================
COMENTARIOS:














================================================================================
DATOS DE ACELERACION:
---------+---------+---------+---------+---------+---------+---------+---------+
   CANAL-1   CANAL-2   CANAL-3   CANAL-4   CANAL-5   CANAL-6   CANAL-7   CANAL-8
      N00E        +V      N90W
---------+---------+---------+---------+---------+---------+---------+---------+
[...]
  -1.53043  -0.22283  -2.91070
  -1.47058  -0.14801  -2.94063
  -1.45561  -0.19290  -3.00048
  -1.41072  -0.23779  -3.06034
  -1.32094  -0.19290  -3.09027
  -1.23116  -0.17794  -3.09027
  -1.21619  -0.23779  -3.10523
  -1.14137  -0.20786  -3.01545
  -1.05159  -0.13305  -2.95559
  -0.99174  -0.20786  -2.89574
  -0.82713  -0.10312  -2.83588
  -0.76728  -0.16297  -2.79099
  -0.69246  -0.08815  -2.65632
  -0.58771  -0.01334  -2.58150
  -0.49793   0.03156  -2.47675
  -0.33333   0.03156  -2.37200
  -0.18369   0.04652  -2.19244
  -0.03405   0.03156  -2.04280
   0.10062  -0.05823  -1.93806
   0.25026  -0.05823  -1.80338
   0.36997  -0.05823  -1.62382
   0.45975  -0.08815  -1.48914
   0.62435  -0.11808  -1.21980
   0.71413  -0.17794  -1.08512
   0.80392  -0.25276  -0.87563
   0.98348  -0.22283  -0.71103
   1.08823  -0.22283  -0.47161
   1.17801  -0.20786  -0.33693
   1.26779  -0.26772  -0.14240
   1.41743  -0.23779   0.12694
   1.50721  -0.32757   0.30651
   1.59700  -0.29765   0.59082
   1.67181  -0.25276   0.77038
   1.71671  -0.23779   0.90506
   1.74663  -0.22283   1.05470
   1.77656  -0.14801   1.18937
   1.80649  -0.19290   1.33901
   1.80649  -0.19290   1.44375
   1.79152  -0.25276   1.57843
   1.76160  -0.26772   1.69814
   1.71671  -0.28268   1.84778
   1.67181  -0.26772   1.95252
   1.55210  -0.31261   2.01238
   1.52218  -0.38743   2.11712
   1.40247  -0.38743   2.23683
   1.25283  -0.34254   2.32662
   1.16305  -0.37247   2.41640
   1.10319  -0.34254   2.46129
   0.96852  -0.37247   2.56604
   0.83384  -0.38743   2.55107
   0.74406  -0.37247   2.62589
   0.66924  -0.28268   2.71567
   0.54953  -0.35750   2.70071
   0.50464  -0.34254   2.77553
   0.44479  -0.35750   2.73064
   0.34004  -0.40239   2.67078
   0.23529  -0.43232   2.56604
   0.22033  -0.37247   2.47625
   0.08566  -0.38743   2.32662
  -0.00413  -0.43232   2.14705
  -0.03405  -0.43232   1.93756
  -0.06398  -0.49218   1.78792
  -0.13880  -0.44728   1.56346
  -0.13880  -0.43232   1.35397
  -0.24355  -0.41736   1.11455
  -0.25851  -0.32757   0.94995
  -0.30340  -0.29765   0.69557
  -0.34829  -0.28268   0.47111
  -0.37822  -0.26772   0.27658
  -0.39318  -0.26772   0.06709
  -0.43808  -0.20786  -0.11248
  -0.54282  -0.22283  -0.35190
  -0.57275  -0.16297  -0.50153
  -0.60268  -0.16297  -0.66614
  -0.69246  -0.16297  -0.81577
  -0.75232  -0.14801  -0.95045
  -0.81217  -0.11808  -1.10009
  -0.88699  -0.11808  -1.15994
  -0.91692  -0.10312  -1.27965
  -0.96181  -0.16297  -1.39936
  -0.97677  -0.17794  -1.44425
  -0.93188  -0.17794  -1.42929
  -0.97677  -0.19290  -1.42929
  -1.02166  -0.19290  -1.44425
  -0.97677  -0.23779  -1.39936
  -0.97677  -0.26772  -1.44425
  -0.96181  -0.28268  -1.47418
  -0.90195  -0.28268  -1.50411
  -0.90195  -0.26772  -1.53403
  -0.88699  -0.29765  -1.47418
  -0.82713  -0.26772  -1.42929
  -0.84210  -0.23779  -1.45922
  -0.81217  -0.20786  -1.41432
  -0.82713  -0.19290  -1.36943
  -0.76728  -0.10312  -1.33951
  -0.75232  -0.04326  -1.30958
  -0.64757   0.00163  -1.21980
  -0.61764   0.07645  -1.18987
  -0.55779   0.10638  -1.08512
  -0.45304   0.22609  -0.99534
  -0.36326   0.25601  -0.98038
  -0.28844   0.31587  -0.90556
  -0.15376   0.42061  -0.81577
  -0.09391   0.42061  -0.65117
   0.01084   0.45054  -0.54643
   0.14551   0.52536  -0.45664
   0.23529   0.61514  -0.29204
   0.29515   0.60018  -0.21722
   0.36997   0.61514  -0.02269
   0.41486   0.66003   0.06709
   0.41486   0.64507   0.17183
   0.47471   0.71989   0.27658
   0.50464   0.82464   0.42622
   0.51960   0.83960   0.44118
   0.53457   0.79471   0.45615
   0.54953   0.80967   0.56089
   0.59442   0.80967   0.60578
   0.63931   0.83960   0.68060
   0.62435   0.80967   0.75542
   0.66924   0.85456   0.80031
   0.69917   0.80967   0.86017
   0.75902   0.80967   0.93499
   0.83384   0.79471   1.08462
   0.80392   0.71989   1.15944
   0.84881   0.63011   1.24923
   0.90866   0.61514   1.35397
   1.01341   0.61514   1.36894
   0.99844   0.51040   1.35397
   1.04334   0.43558   1.35397
   0.99844   0.33083   1.36894
   0.98348   0.34580   1.39886
   0.92363   0.34580   1.36894
   0.93859   0.34580   1.36894
   0.89370   0.36076   1.33901
   0.77399   0.40565   1.27915
   0.68421   0.34580   1.26419
   0.56450   0.31587   1.20433
   0.50464   0.36076   1.26419
   0.38493   0.39069   1.24923
   0.34004   0.39069   1.20433
   0.28018   0.39069   1.18937
   0.20537   0.37572   1.12952
   0.10062   0.33083   1.12952
   0.08566   0.39069   1.14448
   0.01084   0.37572   1.11455
  -0.09391   0.31587   1.08462
  -0.16873   0.31587   1.02477
  -0.31837   0.28594   0.96491
  -0.43808   0.21112   0.94995
  -0.66253   0.18119   0.86017
  -0.79721   0.18119   0.78535
  -0.97677   0.12134   0.65067
  -1.15634   0.07645   0.51600
  -1.32094   0.12134   0.32147
  -1.51547   0.06148   0.05212
  -1.62021   0.00163  -0.20226
  -1.78481  -0.07319  -0.38182
  -1.85963   0.00163  -0.54643
  -1.96438  -0.01334  -0.80081
  -2.03920  -0.01334  -0.96541
  -2.05416   0.04652  -1.11505
  -2.09905   0.01659  -1.33951
  -2.12898   0.01659  -1.41432
  -2.14394   0.06148  -1.54900
  -2.23373   0.07645  -1.62382
  -2.11402   0.10638  -1.66871
  -2.14394   0.12134  -1.77345
  -2.14394   0.13630  -1.90813
  -2.14394   0.12134  -2.02784
  -2.14394   0.10638  -2.13258
  -2.08409   0.07645  -2.23733
  -2.05416  -0.01334  -2.32711
  -1.88956  -0.01334  -2.37200
  -1.81474  -0.05823  -2.47675
  -1.72496  -0.05823  -2.56653
  -1.62021  -0.04326  -2.61143
  -1.50050  -0.05823  -2.64135
  -1.42568  -0.02830  -2.61143
  -1.23116   0.01659  -2.59646
  -1.06655   0.07645  -2.58150
  -0.90195   0.09141  -2.56653
  -0.70742   0.15127  -2.55157
  -0.51290   0.16623  -2.50668
  -0.28844   0.13630  -2.44682
  -0.06398   0.18119  -2.25229
   0.16047   0.18119  -2.10266
   0.31011   0.19616  -1.93806
   0.54953   0.12134  -1.78842
   0.78895   0.10638  -1.59389
   0.95355   0.07645  -1.39936
   1.08823   0.07645  -1.13001
   1.17801   0.07645  -0.89059
   1.29772   0.01659  -0.66614
   1.31268  -0.02830  -0.48657
   1.43239  -0.02830  -0.26211
   1.53714  -0.02830  -0.09751
   1.70174   0.00163   0.02220
   1.80649   0.01659   0.20176
   1.94116   0.01659   0.38133
   2.10576   0.07645   0.53096
   2.19555   0.07645   0.69557
   2.36015   0.12134   0.81528
   2.47986   0.10638   0.96491
   2.56964   0.15127   1.14448
   2.65942   0.18119   1.20433
   2.70431   0.18119   1.38390
   2.77913   0.19616   1.50361
   2.83899   0.21112   1.63828
   2.83899   0.16623   1.75799
   2.86891   0.13630   1.87770
   2.80906   0.07645   1.96749
   2.83899   0.03156   2.05727
   2.85395   0.00163   2.13209
   2.73424  -0.02830   2.17698
   2.71928  -0.07319   2.23683
   2.68935  -0.07319   2.32662
   2.58460  -0.14801   2.35654
   2.55468  -0.14801   2.43136
   2.47986  -0.19290   2.43136
   2.37511  -0.29765   2.47625
   2.27036  -0.29765   2.46129
   2.13569  -0.31261   2.40143
   2.07584  -0.38743   2.40143
   2.01598  -0.38743   2.35654
   1.92620  -0.43232   2.32662
   1.85138  -0.44728   2.23683
   1.76160  -0.47721   2.16201
   1.65685  -0.52210   1.98245
   1.56707  -0.49218   1.86274
   1.41743  -0.56699   1.75799
   1.26779  -0.62685   1.57843
   1.08823  -0.76152   1.53354
   0.99844  -0.74656   1.42879
   0.77399  -0.82138   1.33901
   0.57946  -0.94109   1.23426
   0.39989  -0.92612   1.12952
   0.19040  -1.01591   1.00980
  -0.03405  -1.04583   0.89009
  -0.24355  -1.15058   0.78535
  -0.51290  -1.18051   0.66564
  -0.72239  -1.22540   0.60578
  -0.99174  -1.25533   0.53096
  -1.21619  -1.22540   0.44118
  -1.47058  -1.19547   0.32147
  -1.71000  -1.19547   0.21673
  -1.94942  -1.13562   0.11198
  -2.23373  -1.12065   0.03716
  -2.45818  -1.06080  -0.09751
  -2.66768  -1.00094  -0.21722
  -2.92206  -0.97102  -0.44168
  -3.13155  -0.92612  -0.56139
  -3.31112  -0.88123  -0.75592
  -3.47572  -0.89620  -0.87563
  -3.61039  -0.89620  -0.99534
  -3.73010  -0.86627  -1.13001
  -3.80492  -0.91116  -1.32454
  -3.77499  -0.92612  -1.54900
  -3.78996  -0.89620  -1.72856
  -3.81989  -0.94109  -1.89316
  -3.76003  -0.92612  -2.05777
  -3.70018  -0.95605  -2.19244
  -3.53557  -0.94109  -2.29719
  -3.40090  -0.89620  -2.35704
  -3.19141  -0.82138  -2.46179
  -3.04177  -0.77649  -2.59646
  -2.75746  -0.70167  -2.65632
  -2.53300  -0.58196  -2.74610
  -2.30855  -0.47721  -2.86581
  -2.06913  -0.35750  -2.85085
  -1.82971  -0.19290  -2.94063
  -1.59029  -0.10312  -2.95559
  -1.33590   0.09141  -3.00048
  -1.15634   0.10638  -3.07530
  -0.85706   0.24105  -3.10523
  -0.60268   0.34580  -3.10523
  -0.31837   0.39069  -3.10523
  -0.04902   0.45054  -3.07530
   0.23529   0.52536  -3.03041
   0.57946   0.55529  -3.01545
   0.92363   0.54032  -2.92566
   1.28276   0.52536  -2.86581
   1.61196   0.51040  -2.80595
   1.97109   0.46551  -2.67128
   2.28533   0.48047  -2.56653
   2.55468   0.42061  -2.38697
   2.89884   0.45054  -2.22237
   3.15323   0.40565  -2.04280
   3.37768   0.34580  -1.83331
   3.60214   0.34580  -1.56396
   3.78170   0.33083  -1.32454
   3.90141   0.37572  -1.08512
   4.00616   0.33083  -0.84570
   4.17076   0.31587  -0.56139
   4.27551   0.33083  -0.36686
   4.26054   0.25601  -0.12744
   4.33536   0.33083   0.14191
   4.29047   0.34580   0.32147
   4.20069   0.36076   0.48607
   4.14083   0.36076   0.69557
   4.05105   0.45054   0.89009
   3.90141   0.48047   1.02477
   3.78170   0.46551   1.26419
   3.54228   0.48047   1.42879
   3.28790   0.45054   1.54850
   3.06344   0.46551   1.71310
   2.86891   0.51040   1.90763
   2.61453   0.52536   1.99741
   2.33022   0.48047   2.13209
   2.12073   0.51040   2.26676
   1.80649   0.45054   2.31165
   1.56707   0.52536   2.47625
   1.29772   0.52536   2.52114
   0.99844   0.54032   2.61093
   0.78895   0.54032   2.71567
   0.48968   0.55529   2.77553
   0.22033   0.57025   2.85035
  -0.00413   0.55529   2.91020
  -0.28844   0.58522   2.99999
  -0.48297   0.61514   2.99999
  -0.81217   0.66003   2.97006
  -1.03663   0.66003   2.98502
  -1.33590   0.66003   2.95509
  -1.51547   0.67500   2.97006
  -1.68007   0.68996   2.92517
  -1.94942   0.64507   2.83538
  -2.12898   0.67500   2.76056
  -2.26365   0.68996   2.64085
  -2.44322   0.61514   2.56604
  -2.68264   0.61514   2.47625
  -2.83228   0.58522   2.34158
  -2.98192   0.55529   2.22187
  -3.20637   0.55529   2.04230
  -3.34105   0.52536   1.90763
  -3.46076   0.55529   1.71310
  -3.62536   0.46551   1.51857
  -3.73010   0.43558   1.36894
  -3.87974   0.37572   1.17441
  -3.99945   0.34580   1.02477
  -4.11916   0.36076   0.87513
  -4.29873   0.33083   0.72549
  -4.37355   0.31587   0.63571
  -4.44836   0.31587   0.53096
  -4.50822   0.28594   0.41125
  -4.53815   0.34580   0.32147
  -4.58304   0.30090   0.24665
  -4.59800   0.36076   0.17183
  -4.64289   0.34580   0.06709
  -4.56807   0.36076   0.00723
  -4.52318   0.39069  -0.08255
  -4.41844   0.36076  -0.08255
  -4.34362   0.43558  -0.12744
  -4.25384   0.43558  -0.23219
  -4.13413   0.42061  -0.27708
  -3.92463   0.48047  -0.29204
  -3.71514   0.51040  -0.26211
  -3.47572   0.55529  -0.32197
  -3.25126   0.55529  -0.29204
  -2.99688   0.58522  -0.30701
  -2.80235   0.58522  -0.29204
  -2.50308   0.57025  -0.21722
  -2.24869   0.54032  -0.12744
  -1.94942   0.54032  -0.03766
  -1.62021   0.54032  -0.00773
  -1.30597   0.57025   0.02220
  -0.97677   0.49543   0.06709
  -0.63261   0.54032   0.15687
  -0.34829   0.49543   0.15687
  -0.04902   0.46551   0.14191
   0.23529   0.48047   0.20176
   0.57946   0.54032   0.21673
   0.78895   0.51040   0.18680
   1.08823   0.48047   0.18680
   1.34261   0.58522   0.18680
   1.56707   0.54032   0.18680
   1.77656   0.57025   0.18680
   1.98605   0.58522   0.14191
   2.22547   0.55529   0.15687
   2.39007   0.54032   0.11198
   2.59957   0.48047   0.14191
   2.76417   0.43558   0.08205
   2.89884   0.39069   0.03716
   3.06344   0.36076  -0.02269
   3.10834   0.34580  -0.02269
   3.15323   0.24105  -0.00773
   3.16819   0.18119  -0.05262
   3.16819   0.12134  -0.06759
   3.22805   0.01659  -0.11248
   3.13826  -0.04326  -0.12744
   3.10834  -0.11808  -0.17233
   2.98862  -0.23779  -0.21722
   2.89884  -0.35750  -0.21722
   2.80906  -0.37247  -0.21722
   2.67439  -0.40239  -0.29204
   2.61453  -0.44728  -0.21722
   2.47986  -0.46225  -0.26211
   2.28533  -0.58196  -0.29204
   2.10576  -0.61189  -0.23219
   2.00102  -0.56699  -0.20226
   1.79152  -0.65678  -0.20226
   1.59700  -0.71663  -0.20226
   1.41743  -0.74656  -0.17233
   1.23786  -0.73160  -0.17233
   0.99844  -0.77649  -0.12744
   0.80392  -0.73160  -0.14240
   0.59442  -0.76152  -0.20226
   0.39989  -0.70167  -0.17233
   0.25026  -0.71663  -0.12744
   0.05573  -0.73160  -0.20226
  -0.07895  -0.74656  -0.24715
  -0.21362  -0.73160  -0.26211
  -0.39318  -0.71663  -0.27708
  -0.52786  -0.65678  -0.27708
  -0.63261  -0.67174  -0.26211
  -0.69246  -0.62685  -0.29204
  -0.90195  -0.58196  -0.33693
  -0.97677  -0.55203  -0.32197
  -1.03663  -0.55203  -0.32197
  -1.08152  -0.47721  -0.29204
  -1.09648  -0.49218  -0.26211
  -1.15634  -0.44728  -0.23219
  -1.18626  -0.41736  -0.27708
  -1.21619  -0.40239  -0.32197
  -1.21619  -0.44728  -0.24715
  -1.20123  -0.40239  -0.23219
  -1.21619  -0.37247  -0.27708
  -1.17130  -0.38743  -0.27708
  -1.11145  -0.38743  -0.38182
  -1.08152  -0.38743  -0.45664
  -1.06655  -0.46225  -0.53146
  -0.99174  -0.43232  -0.53146
  -0.91692  -0.37247  -0.54643
  -0.87203  -0.34254  -0.63621
  -0.75232  -0.25276  -0.66614
  -0.67750  -0.13305  -0.80081
  -0.58771  -0.13305  -0.86067
  -0.48297  -0.16297  -0.92052
  -0.39318  -0.05823  -0.95045
  -0.31837   0.01659  -0.99534
  -0.22858   0.04652  -0.98038
  -0.15376   0.07645  -1.05519
  -0.03405   0.03156  -1.11505
   0.08566   0.00163  -1.11505
   0.14551   0.01659  -1.14498
   0.17544   0.12134  -1.14498
   0.26522   0.18119  -1.15994
   0.34004   0.18119  -1.21980
   0.50464   0.07645  -1.27965
   0.57946  -0.01334  -1.29461
   0.72910  -0.04326  -1.23476
   0.80392  -0.01334  -1.20483
   0.89370   0.03156  -1.18987
   0.95355  -0.05823  -1.17490
   1.16305  -0.05823  -1.10009
   1.26779  -0.08815  -1.05519
   1.31268  -0.19290  -0.96541
   1.40247  -0.19290  -0.80081
   1.41743  -0.13305  -0.77088
   1.47729  -0.13305  -0.71103
   1.58203  -0.05823  -0.59132
   1.61196  -0.08815  -0.44168
   1.61196  -0.07319  -0.30701
   1.58203  -0.04326  -0.14240
   1.53714   0.01659  -0.05262
   1.52218   0.09141   0.05212
   1.49225   0.09141   0.14191
   1.49225   0.12134   0.35140
   1.52218   0.16623   0.48607
   1.38750   0.04652   0.59082
   1.32765   0.01659   0.69557
   1.25283  -0.01334   0.72549
   1.19297   0.00163   0.78535
   1.14808   0.04652   0.90506
   1.16305  -0.02830   0.99484
   1.16305  -0.11808   1.06966
   1.10319  -0.16297   1.06966
   0.96852  -0.26772   1.09959
   0.89370  -0.20786   1.09959
   0.78895  -0.22283   1.08462
   0.77399  -0.29765   1.14448
   0.68421  -0.29765   1.08462
   0.56450  -0.34254   1.08462
   0.41486  -0.31261   0.97988
   0.28018  -0.26772   0.94995
   0.14551  -0.28268   0.89009
  -0.01909  -0.25276   0.77038
  -0.12384  -0.26772   0.75542
  -0.28844  -0.17794   0.60578
  -0.48297  -0.19290   0.48607
  -0.57275  -0.20786   0.44118
  -0.64757  -0.16297   0.39629
  -0.79721  -0.17794   0.33644
  -0.91692  -0.20786   0.23169
  -1.03663  -0.23779   0.15687
  -1.15634  -0.20786   0.03716
  -1.21619  -0.20786  -0.06759
  -1.21619  -0.20786  -0.09751
