********************************************************************************
              CENTRO DE INSTRUMENTACION Y REGISTRO SISMICO  A.C.

    Anaxagoras 814, Col. Narvarte, Benito Juarez, C.P. 03020 Mexico, D.F.
           Tels. 5687 45 42/ 5687 45  82             Fax. 5669 25 12
********************************************************************************
ARCHIVO ESTANDAR DE ACELERACION:
VERSION DEL FORMATO                    : 2.0
NOMBRE DEL ARCHIVO                     : AU4620110505132407
FECHA Y HORA DE CREACION               : 01/JUL/11, 12:12
REF. CATALOGO ACELEROGRAMAS, SMIS 1996 : REGISTRO No.     /PAG.


================================================================================
DATOS DE LA ESTACION:
NOMBRE DE LA ESTACION                  : ESC. SEC. TÉC. NO. 14
CLAVE DE LA ESTACION                   : AU46
LOCALIZACION DE LA ESTACION            : Del. Benito Juárez, Col. del Valle,    
                                       : Entre Angel Urraza y Coyoacán.         
                                       :                                        
                                       :                                        
                                       : 
COORDENADAS DE LA ESTACION             : 19.3832 LAT. N
                                       : 99.1681 LONG. W
ALTITUD (msnm)                         : 2233
TIPO DE SUELO                          : Transición                          
                                       :                           
                                       : 
INSTITUCION RESPONSABLE                : CIRES
                                       : 

================================================================================
DATOS DEL ACELEROGRAFO:
MODELO DEL ACELEROGRAFO                : RADESD
NUMERO DE SERIE DEL ACELEROGRAFO       : 236
NUMERO DE CANALES                      : 3
ORIENTACION C1-C6 (rumbo;orientacion)  : /N00E/+V/N90W
ORIENTACION C7-C12 (rumbo;orientacion) : 
VEL. DE MUESTREO, C1-C6 (muestras/s)   : /100/100/100
VEL. DE MUESTREO, C7-C12 (muestras/s)  : 
ESC. COMPLETA DE SENSORES, C1-C6, (g)  : /0.5/0.5/0.5
ESC. COMPLETA DE SENSORES, C7-C12, (g) : 
FREC. NAT. DE SENSORES, C1-C6, (Hz)    : /33/30/30
FREC. NAT. DE SENSORES, C7-C12, (Hz)   : 
AMORTIGUAMIENTO DE SENSORES, C1-C6     : /0.735/0.733/0.730
AMORTIGUAMIENTO DE SENSORES, C7-C12    : 
INTERVALO DE MUESTREO, C1-C6, (s)      : /0.01/0.01/0.01
INTERVALO DE MUESTREO, C7-C12, (s)     : 
UMBRAL DE DISPARO, C1-C6, (Gal)        : /1.92/4.31/1.92
UMBRAL DE DISPARO, C7-C12, (Gal)       : 
MEMORIA DE PREEVENTO (s)               : 32.0
TIEMPO DE POSEVENTO (s)                : 64.0


================================================================================
DATOS DEL SISMO:
FECHA DEL SISMO (GMT)                  : 05/MAY/11
HORA EPICENTRO (GMT)                   : 13:24:07.0
MAGNITUD(ES)                           : /Mc=5.5
COORDENADAS DEL EPICENTRO              : 16.61 LAT. N
                                       : 98.91 LONG. W
PROFUNDIDAD FOCAL (km)                 : 11
FUENTE DE LOS DATOS EPICENTRALES       : SSN
                                       : INSTITUTO DE GEOFISICA, UNAM

================================================================================
DATOS DE ESTE REGISTRO:
HORA DE LA PRIMERA MUESTRA (GMT)       : 13:25:24.00
EXACTITUD DEL TIEMPO (s)               : 0.01
DURACION DEL REGISTRO (s), C1-C6       : /117.0/117.0/117.0
DURACION DEL REGISTRO (s), C7-C12      : 
NUM. TOTAL DE MUESTRAS, C1-C6          : /11700/11700/11700
NUM. TOTAL DE MUESTRAS, C7-C12         : 
ACEL. MAX. (Gal), C1-C6                : /2.41393/1.10158/2.8801
ACEL. MAX., C1-C6, EN LA MUESTRA       : /3795/3564/3182
ACEL. MAX. (Gal), C7-C12               : 
ACEL. MAX., C7-C12, EN LA MUESTRA      : 
UNIDADES DE LOS DATOS                  : Gal (cm/s/s)
FACTOR DE DECIMACION                   : 1
FORMATO DATOS (FORTRAN,10 campos/dato) : 3F10.5


================================================================================
CALIDAD DEL ACELEROGRAMA:
REGISTRO DIGITAL COMPLETO CON TIEMPO ABSOLUTO CORRECTO.


================================================================================
COMENTARIOS:














================================================================================
DATOS DE ACELERACION:
---------+---------+---------+---------+---------+---------+---------+---------+
   CANAL-1   CANAL-2   CANAL-3   CANAL-4   CANAL-5   CANAL-6   CANAL-7   CANAL-8
      N00E        +V      N90W
---------+---------+---------+---------+---------+---------+---------+---------+
[...]
   0.69853  -0.09552  -0.47178
   0.69853  -0.33494  -0.47178
   0.93795  -0.09552  -0.47178
   0.69853   0.14390  -0.47178
   0.69853   0.14390  -0.23236
   0.69853   0.14390  -0.23236
   0.69853   0.38332   0.24648
   0.69853   0.14390   0.00706
   0.69853   0.14390   0.00706
   0.93795   0.38332  -0.23236
   0.93795   0.38332   0.00706
   0.69853   0.38332   0.00706
   0.93795   0.14390   0.24648
   0.93795   0.14390   0.00706
   1.17737   0.14390   0.00706
   1.17737  -0.09552   0.00706
   1.17737  -0.09552  -0.23236
   0.93795   0.14390  -0.23236
   1.17737  -0.09552   0.00706
   0.93795  -0.09552   0.24648
   1.17737  -0.09552   0.00706
   0.69853  -0.09552   0.00706
   0.69853  -0.09552   0.24648
   0.69853  -0.09552   0.24648
   0.69853   0.14390   0.24648
   0.45911   0.38332   0.24648
   0.45911   0.14390   0.48590
   0.45911   0.38332   0.48590
   0.45911   0.38332   0.48590
   0.45911   0.38332   0.48590
   0.21969   0.62274   0.48590
  -0.01973   0.38332   0.24648
  -0.01973   0.38332   0.24648
  -0.01973   0.14390   0.24648
  -0.01973   0.14390   0.24648
  -0.25915   0.14390   0.24648
  -0.25915   0.14390   0.48590
  -0.49857  -0.09552   0.24648
  -0.49857   0.14390   0.24648
  -0.49857  -0.09552   0.00706
  -0.49857  -0.09552   0.00706
  -0.73799  -0.09552   0.00706
  -0.73799  -0.09552   0.00706
  -0.73799  -0.33494   0.00706
  -0.73799  -0.09552   0.00706
  -0.97741  -0.09552  -0.23236
  -1.21683  -0.33494  -0.23236
  -0.97741  -0.09552  -0.23236
  -1.21683  -0.33494  -0.23236
  -1.21683  -0.09552  -0.23236
  -1.21683  -0.09552  -0.23236
  -1.21683  -0.09552  -0.23236
  -1.21683   0.14390  -0.23236
  -1.21683  -0.09552  -0.23236
  -0.97741  -0.09552   0.00706
  -1.21683   0.14390  -0.47178
  -0.97741   0.38332  -0.23236
  -0.73799   0.38332  -0.47178
  -0.97741   0.38332  -0.23236
  -0.97741   0.14390  -0.23236
  -0.97741   0.14390   0.00706
  -0.73799   0.14390  -0.47178
  -0.97741   0.14390  -0.47178
  -0.73799   0.14390  -0.71120
  -0.49857  -0.09552  -0.71120
  -0.73799  -0.09552  -0.47178
  -0.73799  -0.09552  -0.71120
  -0.73799  -0.33494  -0.47178
  -0.49857  -0.33494  -0.71120
  -0.49857  -0.33494  -0.71120
  -0.25915  -0.57436  -0.71120
  -0.25915  -0.33494  -0.71120
  -0.25915  -0.33494  -0.47178
  -0.25915  -0.33494  -0.47178
  -0.01973  -0.33494  -0.71120
  -0.01973  -0.09552  -0.47178
  -0.01973  -0.09552  -0.47178
   0.21969  -0.09552   0.00706
   0.21969  -0.09552   0.00706
   0.69853  -0.09552  -0.23236
   0.45911   0.14390   0.00706
   0.69853  -0.09552   0.00706
   0.69853  -0.09552   0.00706
   0.93795  -0.09552   0.00706
   0.93795  -0.33494   0.24648
   1.41679  -0.09552   0.00706
   0.93795   0.14390   0.00706
   1.17737   0.14390   0.24648
   0.93795   0.14390   0.24648
   1.17737   0.14390   0.24648
   1.17737   0.14390   0.24648
   0.93795   0.38332   0.24648
   0.93795   0.14390   0.24648
   0.93795   0.14390   0.24648
   0.93795   0.14390   0.24648
   0.93795   0.14390   0.24648
   1.17737  -0.09552   0.00706
   0.93795   0.14390  -0.23236
   0.93795  -0.09552  -0.23236
   0.93795  -0.09552   0.00706
   0.93795  -0.09552   0.00706
   0.93795  -0.09552  -0.23236
   0.93795   0.14390  -0.23236
   0.93795   0.14390   0.00706
   0.69853   0.14390   0.24648
   0.69853  -0.09552   0.24648
   0.69853   0.14390   0.24648
   0.69853   0.14390   0.00706
   0.45911   0.38332   0.00706
   0.45911  -0.09552  -0.23236
   0.21969   0.14390   0.00706
  -0.01973  -0.09552  -0.23236
  -0.25915  -0.09552   0.00706
  -0.25915  -0.09552  -0.23236
  -0.01973  -0.09552  -0.23236
  -0.25915   0.14390  -0.23236
  -0.49857   0.14390  -0.23236
  -0.49857   0.14390   0.24648
  -0.49857  -0.09552   0.24648
  -0.97741  -0.09552   0.24648
  -0.73799  -0.09552   0.24648
  -0.97741  -0.09552   0.24648
  -0.97741  -0.09552   0.24648
  -0.97741  -0.33494   0.48590
  -0.73799  -0.33494   0.24648
  -0.97741  -0.33494   0.24648
  -0.97741  -0.33494   0.24648
  -1.21683  -0.33494   0.24648
  -1.21683  -0.33494   0.00706
  -1.45625  -0.57436   0.00706
  -1.21683  -0.33494   0.00706
  -1.45625  -0.33494   0.00706
  -1.45625  -0.33494   0.00706
  -1.45625  -0.33494   0.00706
  -1.45625  -0.33494   0.00706
  -1.21683  -0.33494   0.00706
  -1.21683   0.14390   0.00706
  -0.97741   0.14390   0.00706
  -0.97741   0.38332  -0.23236
  -1.21683   0.38332  -0.23236
  -0.97741   0.14390   0.00706
  -0.97741   0.62274   0.00706
  -0.97741   0.38332   0.00706
  -0.97741   0.38332   0.00706
  -0.97741   0.38332  -0.23236
  -0.73799   0.38332  -0.23236
  -0.73799   0.14390  -0.47178
  -0.73799   0.14390   0.00706
  -0.49857   0.14390  -0.23236
  -0.25915   0.14390  -0.47178
  -0.25915   0.14390  -0.47178
  -0.01973   0.38332  -0.47178
  -0.01973   0.38332  -0.47178
  -0.01973   0.14390  -0.23236
  -0.01973   0.14390  -0.23236
  -0.01973   0.14390  -0.23236
   0.21969   0.14390   0.00706
   0.21969   0.14390  -0.23236
   0.21969   0.38332   0.00706
   0.21969   0.38332   0.00706
   0.21969  -0.09552   0.24648
   0.45911   0.14390   0.24648
   0.69853   0.14390   0.00706
   0.69853   0.14390   0.00706
   0.93795   0.14390   0.00706
   0.93795  -0.09552   0.00706
   1.17737  -0.09552   0.24648
   0.93795  -0.09552   0.48590
   1.17737  -0.33494   0.24648
   0.93795  -0.09552   0.48590
   0.69853  -0.09552   0.48590
   0.69853  -0.33494   0.72532
   0.69853  -0.33494   0.48590
   0.45911  -0.57436   0.48590
   0.69853  -0.57436   0.48590
   0.45911  -0.57436   0.72532
   0.21969  -0.57436   0.72532
   0.45911  -0.81378   0.72532
   0.69853  -0.57436   0.72532
   0.69853  -0.81378   0.48590
   0.69853  -0.57436   0.48590
   0.69853  -0.57436   0.24648
   0.69853  -0.33494   0.48590
   0.93795  -0.33494   0.24648
   0.93795  -0.33494   0.48590
   0.93795   0.14390   0.24648
   0.69853   0.38332   0.00706
   0.45911   0.14390   0.00706
   0.45911   0.14390   0.00706
   0.45911   0.14390   0.00706
   0.45911   0.14390  -0.23236
   0.45911   0.14390  -0.23236
   0.21969   0.14390  -0.47178
   0.21969   0.38332  -0.71120
   0.21969   0.14390  -0.71120
   0.21969  -0.09552  -0.47178
   0.21969  -0.09552  -0.71120
  -0.01973   0.38332  -0.95062
   0.21969  -0.09552  -0.95062
  -0.01973  -0.09552  -0.95062
  -0.01973  -0.09552  -0.71120
  -0.25915  -0.09552  -0.71120
  -0.25915  -0.09552  -0.71120
  -0.25915  -0.33494  -0.95062
  -0.49857  -0.33494  -0.95062
  -0.49857  -0.33494  -0.95062
  -0.49857  -0.09552  -1.19004
  -0.25915  -0.09552  -1.19004
  -0.49857  -0.09552  -1.42946
  -0.25915  -0.09552  -1.42946
  -0.25915  -0.09552  -1.42946
  -0.25915  -0.33494  -1.42946
  -0.01973  -0.09552  -1.42946
   0.21969  -0.09552  -1.42946
  -0.01973   0.14390  -1.42946
   0.21969   0.14390  -1.19004
   0.21969   0.14390  -1.19004
   0.21969  -0.09552  -0.95062
   0.21969   0.14390  -0.95062
   0.21969   0.14390  -0.71120
   0.45911   0.14390  -0.71120
   0.45911   0.14390  -0.47178
   0.69853  -0.09552  -0.47178
   0.45911   0.14390   0.00706
   0.69853   0.14390   0.00706
   0.69853  -0.09552   0.24648
   0.93795  -0.09552   0.48590
   0.93795  -0.09552   0.48590
   0.69853  -0.09552   0.48590
   0.45911   0.14390   0.48590
   0.45911  -0.09552   0.48590
   0.45911  -0.09552   0.48590
   0.21969   0.14390   0.48590
   0.21969  -0.09552   0.48590
  -0.01973   0.14390   0.48590
  -0.01973   0.38332   0.72532
  -0.01973   0.14390   0.96474
  -0.01973   0.38332   0.72532
  -0.01973   0.38332   1.20416
  -0.01973   0.38332   0.96474
  -0.01973   0.38332   1.20416
  -0.01973   0.62274   1.20416
  -0.01973   0.38332   1.20416
  -0.25915   0.38332   1.68300
  -0.25915   0.38332   1.68300
  -0.25915   0.38332   1.68300
  -0.25915   0.14390   1.92242
  -0.25915  -0.09552   1.92242
  -0.73799  -0.09552   1.92242
  -0.49857  -0.33494   1.92242
  -0.73799  -0.33494   1.68300
  -0.73799  -0.33494   1.68300
  -0.73799  -0.33494   1.44358
  -0.97741  -0.57436   1.44358
  -0.73799  -0.33494   1.20416
  -0.97741  -0.33494   1.20416
  -0.73799  -0.09552   1.44358
  -0.73799  -0.09552   1.44358
  -0.97741   0.14390   0.96474
  -0.73799  -0.09552   1.20416
  -0.73799  -0.09552   1.44358
  -0.49857  -0.09552   1.20416
  -0.49857   0.14390   1.44358
  -0.25915   0.38332   1.20416
  -0.25915   0.14390   1.20416
  -0.25915  -0.09552   1.44358
  -0.25915  -0.09552   1.20416
  -0.25915  -0.09552   1.44358
  -0.01973  -0.33494   1.44358
  -0.01973  -0.09552   1.44358
  -0.25915  -0.33494   1.44358
  -0.01973  -0.33494   1.44358
  -0.25915  -0.09552   1.44358
  -0.49857  -0.09552   1.20416
  -0.49857  -0.33494   0.96474
  -0.49857   0.14390   0.72532
  -0.73799   0.62274   0.72532
  -0.73799   0.38332   0.48590
  -0.49857   0.62274   0.00706
  -0.49857   0.38332   0.00706
  -0.49857   0.62274  -0.23236
  -0.25915   0.38332  -0.23236
  -0.25915   0.62274  -0.47178
  -0.25915   0.62274  -0.95062
  -0.25915   0.38332  -0.95062
  -0.25915   0.14390  -1.19004
  -0.01973   0.14390  -1.19004
  -0.01973  -0.09552  -1.42946
  -0.01973  -0.33494  -1.42946
   0.21969  -0.33494  -1.66888
   0.21969  -0.33494  -1.90830
   0.45911  -0.09552  -2.14772
   0.69853  -0.33494  -2.38714
   0.69853  -0.09552  -2.38714
   0.69853  -0.09552  -2.38714
   0.93795  -0.09552  -2.38714
   1.17737  -0.09552  -2.62656
   0.93795   0.14390  -2.38714
   1.41679   0.14390  -2.38714
   1.41679   0.14390  -2.38714
   1.41679   0.14390  -2.38714
   1.65621   0.14390  -1.90830
   1.65621   0.38332  -2.14772
   1.65621   0.38332  -2.14772
   1.41679   0.38332  -1.90830
   1.17737   0.14390  -1.66888
   1.41679   0.14390  -1.66888
   1.41679   0.14390  -1.66888
   1.17737   0.14390  -1.66888
   0.93795   0.14390  -1.42946
   0.69853  -0.09552  -1.42946
   0.69853  -0.33494  -1.42946
   0.69853  -0.33494  -1.42946
   0.69853  -0.33494  -1.42946
   0.45911  -0.33494  -1.42946
   0.45911  -0.09552  -1.19004
   0.69853  -0.33494  -1.19004
   0.69853  -0.09552  -0.95062
   0.21969  -0.09552  -1.19004
   0.45911   0.14390  -0.95062
  -0.01973   0.14390  -0.95062
  -0.25915   0.14390  -0.71120
  -0.25915  -0.09552  -0.47178
  -0.25915  -0.09552  -0.47178
  -0.49857  -0.09552  -0.47178
  -0.73799  -0.09552  -0.23236
  -0.49857  -0.09552  -0.23236
  -0.73799  -0.09552   0.00706
  -0.73799  -0.09552   0.00706
  -0.49857  -0.09552   0.48590
  -0.49857  -0.09552   0.48590
  -0.49857   0.14390   0.48590
  -0.73799   0.14390   0.72532
  -0.73799  -0.09552   0.72532
  -0.73799   0.14390   0.72532
  -0.73799   0.14390   0.96474
  -0.73799   0.14390   1.20416
  -0.73799   0.14390   1.20416
  -0.73799   0.14390   1.44358
  -0.73799  -0.09552   1.68300
  -0.49857  -0.09552   1.92242
  -0.49857   0.14390   2.16184
  -0.49857  -0.09552   2.16184
  -0.73799   0.14390   2.64068
  -0.49857   0.14390   2.40126
  -0.49857   0.14390   2.64068
  -0.49857   0.14390   2.88010
  -0.49857   0.38332   2.88010
  -0.25915   0.38332   2.64068
  -0.73799   0.38332   2.88010
  -0.49857   0.38332   2.64068
  -0.49857   0.62274   2.40126
  -0.49857   0.38332   2.40126
  -0.49857   0.38332   2.40126
  -0.25915   0.14390   2.16184
  -0.01973   0.14390   2.16184
  -0.25915  -0.09552   1.92242
  -0.01973  -0.09552   1.92242
  -0.01973  -0.09552   1.92242
  -0.01973  -0.09552   1.68300
  -0.01973  -0.33494   1.68300
  -0.01973  -0.33494   1.44358
  -0.01973  -0.09552   1.44358
  -0.25915  -0.33494   1.20416
  -0.25915  -0.33494   1.44358
  -0.25915  -0.33494   1.44358
  -0.25915  -0.33494   1.20416
  -0.25915  -0.33494   1.20416
  -0.25915  -0.33494   1.20416
  -0.25915  -0.09552   1.20416
  -0.25915  -0.09552   0.96474
  -0.25915  -0.09552   0.72532
  -0.01973  -0.09552   0.48590
   0.21969  -0.09552   0.24648
   0.21969  -0.09552   0.48590
   0.45911   0.14390   0.00706
   0.45911   0.38332  -0.23236
   0.45911   0.14390  -0.23236
   0.45911   0.14390  -0.23236
   0.69853   0.38332  -0.47178
   0.69853   0.14390  -0.71120
   0.93795   0.38332  -0.95062
   0.69853   0.38332  -0.95062
   0.93795   0.14390  -1.19004
   0.93795   0.14390  -1.19004
   0.93795   0.14390  -1.19004
   0.93795   0.14390  -1.42946
   0.93795   0.14390  -1.66888
   0.93795   0.14390  -1.90830
   0.69853   0.14390  -1.66888
   1.17737   0.14390  -1.90830
   0.69853   0.14390  -1.90830
   0.93795   0.14390  -2.14772
   0.45911   0.38332  -2.14772
   0.45911   0.14390  -2.38714
   0.45911   0.14390  -2.38714
   0.21969   0.14390  -2.14772
   0.21969  -0.09552  -2.38714
  -0.01973   0.14390  -2.62656
  -0.01973  -0.09552  -2.38714
  -0.01973  -0.09552  -2.14772
  -0.01973  -0.09552  -2.38714
  -0.01973  -0.09552  -2.14772
   0.21969  -0.33494  -2.14772
  -0.25915  -0.33494  -2.38714
  -0.25915  -0.33494  -2.14772
  -0.49857  -0.57436  -1.90830
  -0.49857  -0.57436  -1.90830
  -0.49857  -0.57436  -1.90830
  -0.49857  -0.33494  -1.90830
  -0.49857  -0.57436  -1.66888
  -0.49857  -0.57436  -1.66888
  -0.49857  -0.81378  -1.42946
  -0.73799  -0.57436  -1.19004
  -0.49857  -0.57436  -1.19004
  -0.49857  -0.09552  -1.19004
  -0.49857  -0.33494  -1.19004
  -0.25915  -0.33494  -0.95062
  -0.25915  -0.09552  -0.95062
  -0.01973  -0.09552  -0.95062
  -0.01973  -0.09552  -0.95062
  -0.01973  -0.09552  -0.95062
  -0.25915   0.14390  -0.95062
  -0.25915  -0.09552  -0.95062
  -0.25915   0.14390  -0.71120
  -0.01973  -0.09552  -0.71120
  -0.25915   0.14390  -0.47178
  -0.01973   0.14390  -0.47178
  -0.01973   0.14390  -0.47178
  -0.01973   0.14390  -0.47178
  -0.01973   0.14390  -0.23236
   0.21969  -0.09552  -0.23236
   0.21969   0.14390  -0.47178
   0.45911   0.14390  -0.47178
   0.45911   0.14390  -0.47178
   0.45911   0.14390  -0.47178
   0.69853  -0.09552  -0.47178
   0.45911  -0.09552   0.00706
   0.69853  -0.09552   0.00706
   0.45911   0.14390   0.00706
   0.45911  -0.09552   0.00706
   0.45911  -0.09552   0.48590
   0.45911  -0.09552   0.48590
   0.45911   0.14390   0.48590
   0.21969  -0.09552   0.48590
   0.21969   0.14390   0.72532
   0.21969   0.38332   0.96474
   0.21969   0.14390   0.96474
   0.21969   0.38332   1.20416
   0.45911   0.38332   1.20416
   0.45911   0.62274   1.20416
   0.21969   0.38332   1.20416
   0.45911  -0.09552   1.44358
   0.21969   0.38332   1.44358
   0.21969  -0.09552   1.68300
  -0.01973  -0.33494   1.68300
  -0.01973  -0.33494   1.68300
  -0.25915  -0.57436   1.68300
  -0.25915  -0.33494   2.16184
  -0.25915  -0.57436   2.16184
  -0.01973  -0.33494   1.92242
  -0.25915  -0.33494   1.92242
  -0.25915  -0.33494   1.92242
  -0.01973  -0.33494   1.92242
  -0.01973   0.14390   2.16184
  -0.01973  -0.09552   1.92242
  -0.01973  -0.09552   1.92242
  -0.01973   0.14390   1.92242
  -0.01973   0.14390   1.92242
  -0.25915   0.38332   1.92242
  -0.01973   0.38332   1.92242
  -0.25915   0.38332   1.92242
  -0.49857   0.38332   1.92242
  -0.49857   0.38332   1.68300
  -0.49857   0.14390   1.44358
  -0.49857   0.14390   1.44358
  -0.73799  -0.09552   1.20416
  -0.49857  -0.09552   1.20416
  -0.73799  -0.09552   0.96474
  -0.97741  -0.33494   1.20416
  -0.97741  -0.33494   0.96474
  -0.73799  -0.09552   0.72532
  -0.73799  -0.33494   0.48590
  -0.73799  -0.09552   0.48590
  -0.97741  -0.09552   0.48590
  -0.97741  -0.09552   0.24648
  -0.97741  -0.09552   0.48590
  -0.73799  -0.09552   0.24648
  -0.49857  -0.09552  -0.23236
  -0.73799   0.14390  -0.47178
  -0.73799  -0.09552  -0.71120
  -0.73799   0.14390  -0.95062
  -0.73799  -0.09552  -0.95062
  -0.73799  -0.09552  -1.19004
  -0.73799  -0.33494  -1.42946
  -0.73799  -0.09552  -1.66888
