********************************************************************************
              CENTRO DE INSTRUMENTACION Y REGISTRO SISMICO  A.C.

    Anaxagoras 814, Col. Narvarte, Benito Juarez, C.P. 03020 Mexico, D.F.
           Tels. 5687 45 42/ 5687 45  82             Fax. 5669 25 12
********************************************************************************
ARCHIVO ESTANDAR DE ACELERACION:
VERSION DEL FORMATO                    : 2.0
NOMBRE DEL ARCHIVO                     : AU4620170908044918
FECHA Y HORA DE CREACION               : 08/SEP/17, 16:12
REF. CATALOGO ACELEROGRAMAS, SMIS 1996 : REGISTRO No.     /PAG.


================================================================================
DATOS DE LA ESTACION:
NOMBRE DE LA ESTACION                  : ESC. SEC. TÉC. NO. 14
CLAVE DE LA ESTACION                   : AU46
LOCALIZACION DE LA ESTACION            : Del. Benito Juárez, Col. del Valle,    
                                       : Entre Angel Urraza y Coyoacán.         
                                       :                                        
                                       :                                        
                                       : 
COORDENADAS DE LA ESTACION             : 19.3832 LAT. N
                                       : 99.1681 LONG. W
ALTITUD (msnm)                         : 2233
TIPO DE SUELO                          : Transición                          
                                       :                           
                                       : 
INSTITUCION RESPONSABLE                : CIRES
                                       : 

================================================================================
DATOS DEL ACELEROGRAFO:
MODELO DEL ACELEROGRAFO                : RADESD
NUMERO DE SERIE DEL ACELEROGRAFO       : 236
NUMERO DE CANALES                      : 3
ORIENTACION C1-C6 (rumbo;orientacion)  : /N00E/+V/N90W
ORIENTACION C7-C12 (rumbo;orientacion) : 
VEL. DE MUESTREO, C1-C6 (muestras/s)   : /100/100/100
VEL. DE MUESTREO, C7-C12 (muestras/s)  : 
ESC. COMPLETA DE SENSORES, C1-C6, (g)  : /0.5/0.5/0.5
ESC. COMPLETA DE SENSORES, C7-C12, (g) : 
FREC. NAT. DE SENSORES, C1-C6, (Hz)    : /33/30/30
FREC. NAT. DE SENSORES, C7-C12, (Hz)   : 
AMORTIGUAMIENTO DE SENSORES, C1-C6     : /0.735/0.733/0.730
AMORTIGUAMIENTO DE SENSORES, C7-C12    : 
INTERVALO DE MUESTREO, C1-C6, (s)      : /0.01/0.01/0.01
INTERVALO DE MUESTREO, C7-C12, (s)     : 
UMBRAL DE DISPARO, C1-C6, (Gal)        : /1.5/4.94/1.8
UMBRAL DE DISPARO, C7-C12, (Gal)       : 
MEMORIA DE PREEVENTO (s)               : 44.0
TIEMPO DE POSEVENTO (s)                : 79.0


================================================================================
DATOS DEL SISMO:
FECHA DEL SISMO (GMT)                  : 08/SEP/17
HORA EPICENTRO (GMT)                   : 04:49:18.0
MAGNITUD(ES)                           : /Mc=8.2
COORDENADAS DEL EPICENTRO              : 14.85 LAT. N
                                       : 94.11 LONG. W
PROFUNDIDAD FOCAL (km)                 : 58
FUENTE DE LOS DATOS EPICENTRALES       : SSN
                                       : INSTITUTO DE GEOFISICA, UNAM

================================================================================
DATOS DE ESTE REGISTRO:
HORA DE LA PRIMERA MUESTRA (GMT)       : 04:51:43.00
EXACTITUD DEL TIEMPO (s)               : 0.01
DURACION DEL REGISTRO (s), C1-C6       : /308.8/308.8/308.8
DURACION DEL REGISTRO (s), C7-C12      : 
NUM. TOTAL DE MUESTRAS, C1-C6          : /30880/30880/30880
NUM. TOTAL DE MUESTRAS, C7-C12         : 
ACEL. MAX. (Gal), C1-C6                : /16.84573/5.02836/20.18807
ACEL. MAX., C1-C6, EN LA MUESTRA       : /10568/11469/10692
ACEL. MAX. (Gal), C7-C12               : 
ACEL. MAX., C7-C12, EN LA MUESTRA      : 
UNIDADES DE LOS DATOS                  : Gal (cm/s/s)
FACTOR DE DECIMACION                   : 1
FORMATO DATOS (FORTRAN,10 campos/dato) : 3F10.5


================================================================================
CALIDAD DEL ACELEROGRAMA:
REGISTRO DIGITAL COMPLETO CON TIEMPO ABSOLUTO CORRECTO.


================================================================================
COMENTARIOS:














================================================================================
DATOS DE ACELERACION:
---------+---------+---------+---------+---------+---------+---------+---------+
   CANAL-1   CANAL-2   CANAL-3   CANAL-4   CANAL-5   CANAL-6   CANAL-7   CANAL-8
      N00E        +V      N90W
---------+---------+---------+---------+---------+---------+---------+---------+
[...]
  -3.92397   0.31477  -0.92580
  -4.23821   0.61405  -1.32982
  -4.41777   0.88339  -1.79370
  -4.56741   1.04800  -2.10794
  -4.67216   1.27245  -2.55685
  -4.83676   1.25749  -2.96087
  -5.04625   1.27245  -3.39482
  -5.12107   1.19763  -3.72402
  -5.24078   1.30238  -4.17294
  -5.46524   1.22756  -4.53207
  -5.70466   1.25749  -5.04083
  -5.64480   1.21260  -5.39996
  -5.76451   0.88339  -5.48975
  -5.76451   0.85347  -5.65435
  -6.13861   0.59908  -6.23793
  -5.85429   0.65894  -6.31275
  -5.76451   0.50930  -6.65692
  -5.88422   0.15017  -6.86641
  -5.86926   0.22499  -7.27043
  -5.54006   0.18010  -7.34525
  -5.36049   0.10528  -7.33029
  -5.34553   0.07535  -7.67446
  -5.03129  -0.13414  -7.53978
  -4.65719   0.03046  -7.62956
  -4.37288  -0.26881  -7.61460
  -4.07361  -0.10421  -7.67446
  -3.60973  -0.26881  -7.73431
  -3.28053  -0.32867  -7.79417
  -2.69694  -0.25385  -7.52482
  -2.38270  -0.35860  -7.59964
  -1.93379  -0.53816  -7.42007
  -1.66444  -0.49327  -7.39014
  -1.27538  -0.56809  -7.34525
  -1.09582  -0.82247  -7.33029
  -0.64691  -0.73269  -7.16569
  -0.66187  -1.12175  -7.07590
  -0.24288  -1.15168  -6.88138
  -0.19799  -1.09182  -6.85145
   0.23596  -1.18160  -6.62699
   0.50530  -1.19657  -6.61203
   1.04400  -1.15168  -6.26786
   1.37320  -1.04693  -6.46239
   1.77722  -1.28635  -6.11822
   2.54038  -0.83744  -6.11822
   3.03418  -0.77758  -5.90873
   3.75244  -0.58305  -5.84888
   3.94697  -0.50823  -5.75909
   4.27617  -0.62794  -5.59449
   4.66523  -0.16407  -5.47478
   4.81487  -0.10421  -5.28025
   4.96450   0.16513  -5.38500
   4.96450  -0.02939  -5.13062
   5.06925   0.32974  -5.08572
   5.21889   0.35966  -4.77149
   5.27874   0.22499  -4.54703
   5.36853   0.34470  -4.30761
   5.44334   0.25492  -3.91855
   5.42838   0.25492  -3.54446
   5.48824   0.19506  -3.15540
   5.84737   0.07535  -2.55685
   6.07182   0.35966  -2.15283
   6.29628   0.35966  -1.37471
   6.58059   0.52426  -0.76120
   6.50577   0.34470  -0.17761
   7.01454   0.61405   0.60050
   7.01454   0.52426   1.28884
   7.29885   0.59908   1.91732
   7.26892   0.53923   2.53083
   7.35871   0.46441   3.30894
   7.61309   0.65894   4.02721
   7.58316   0.68887   4.70057
   7.53827   0.86843   5.19438
   7.47842   0.86843   6.04731
   7.02950   0.85347   6.55608
   6.71526   0.89836   7.27434
   6.55066   0.91332   8.23202
   6.01197   1.04800   8.65101
   5.38349   1.04800   9.32438
   4.82983   1.09289   9.98278
   4.42581   1.27245  10.49155
   3.58784   1.10785  10.83572
   2.86958   0.97318  11.32952
   2.33088   0.85347  11.70361
   1.61262   0.85347  11.98793
   1.16371   0.83850  12.39195
   0.52027   0.38959  12.58648
   0.14617   0.49434  12.93064
  -0.49727   0.28484  13.00546
  -1.02100   0.25492  13.06532
  -1.49984   0.07535  13.34963
  -1.93379   0.01550  13.36459
  -2.44256   0.23995  13.37956
  -2.90643   0.22499  13.19999
  -3.72944   0.13521  13.03539
  -4.49259   0.19506  12.64633
  -5.15100   0.26988  12.27224
  -6.04882   0.26988  11.67369
  -6.46781   0.37463  11.25470
  -7.24592   0.32974  10.74593
  -7.62002   0.43448  10.11746
  -8.03900   0.53923   9.44409
  -8.50288   0.40455   8.75575
  -8.65252   0.40455   8.39662
  -8.98172   0.19506   7.73822
  -8.92187   0.41952   7.15463
  -8.89194   0.37463   6.73565
  -8.80216   0.34470   6.01739
  -8.78719   0.06039   5.49365
  -8.45799  -0.17903   5.07467
  -8.20360  -0.32867   4.32648
  -7.63498  -0.20896   3.60822
  -7.33571  -0.65787   3.15931
  -6.79701  -0.65787   2.36623
  -6.21342  -0.91226   1.91732
  -5.76451  -1.09182   1.01949
  -5.06122  -1.22650   0.73518
  -4.55245  -1.27139   0.13663
  -3.99879  -1.43599  -0.23747
  -3.47506  -1.36117  -0.62652
  -2.90643  -1.30131  -1.00062
  -2.72687  -1.36117  -1.47946
  -2.42759  -1.52577  -1.76377
  -1.85897  -1.10679  -2.04808
  -1.52977  -0.98708  -2.27254
  -1.24546  -1.09182  -2.63167
  -1.05093  -0.80751  -3.09554
  -0.63194  -0.89729  -3.06562
  -0.28778  -0.91226  -3.30504
   0.20603  -0.80751  -3.33496
   0.44545  -1.04693  -3.51453
   0.74472  -1.19657  -3.34993
   0.69983  -1.30131  -3.61928
   0.99911  -1.33124  -3.61928
   0.89436  -1.64548  -3.48460
   0.61005  -1.61555  -3.55942
   0.58012  -1.61555  -3.55942
   0.32574  -1.88490  -3.42475
  -0.06332  -1.82505  -3.51453
  -0.30274  -1.46592  -3.64920
  -0.51223  -1.37613  -3.45467
  -0.75165  -0.94218  -3.34993
  -1.15567  -0.82247  -3.55942
  -1.29035  -0.80751  -3.57438
  -1.41006  -0.29874  -3.49957
  -1.85897   5.3E-40  -3.88862
  -1.70933   0.26988  -4.02330
  -2.05350   0.22499  -4.09812
  -1.99364   0.92829  -4.17294
  -2.12832   1.06296  -4.69667
  -2.42759   0.85347  -4.68170
  -2.75680   1.00310  -4.92112
  -2.60716   1.46698  -4.83134
  -2.71190   1.43705  -4.99594
  -2.87651   1.30238  -4.95105
  -3.23564   0.95821  -4.96601
  -3.22067   1.37720  -4.69667
  -3.23564   1.51187  -4.62185
  -3.46009   1.28742  -4.18790
  -3.72944   1.57173  -4.08315
  -3.92397   1.40713  -3.54446
  -4.28310   1.48195  -3.26015
  -4.40281   1.66151  -2.84116
  -4.68712   1.54180  -2.25757
  -4.82180   1.94582  -1.95830
  -5.22582   1.70640  -1.46449
  -5.42035   1.97575  -1.26997
  -5.36049   2.30495  -0.88091
  -5.56998   2.27502  -0.67142
  -5.55502   2.42466  -0.34221
  -5.42035   2.42466  -0.05790
  -5.37545   2.58926   0.06181
  -5.16596   2.60423   0.25634
  -5.24078   2.43963   0.06181
  -5.09114   2.33488   0.18152
  -5.25574   2.30495  -0.11776
  -5.18093   2.12539  -0.02797
  -5.39042   1.76626  -0.32725
  -5.52509   1.40713  -0.43200
  -5.65977   1.09289  -0.67142
  -5.82437   0.74872  -0.70134
  -5.79444   0.58412  -0.94076
  -5.73458   0.49434  -0.95573
  -5.65977   0.22499  -1.04551
  -5.42035   0.19506  -1.12033
  -5.15100  -0.16407  -0.97069
  -4.85172  -0.44838  -1.00062
  -4.40281  -0.49327  -0.94076
  -3.84915  -0.47831  -0.67142
  -3.53491  -0.70276  -0.73127
  -2.92140  -0.77758  -0.64149
  -2.15825  -0.68780  -0.35718
  -1.67941  -0.94218  -0.40207
  -1.08085  -0.86737  -0.43200
  -0.43741  -0.95715  -0.05790
   0.28085  -0.98708   0.07677
   0.84947  -1.18160   0.24137
   1.53780  -1.10679   0.43590
   2.40570  -1.13671   0.88482
   3.00425  -1.18160   0.95963
   3.78237  -0.89729   1.06438
   4.51559  -0.76262   1.34869
   5.11414  -0.82247   1.60308
   5.98204  -0.29874   1.79761
   6.59555  -0.19400   1.82753
   7.19410  -0.08925   1.84250
   7.59813  -0.25385   1.69286
   8.43610   0.18010   1.76768
   9.06457   0.07535   1.57315
   9.81276   0.29981   1.33373
  10.65073   0.28484   1.48337
  11.53360   0.25492   1.49833
  12.29675   0.18010   1.57315
  12.98508   0.03046   1.51329
  13.82305   0.12024   1.54322
  14.60117   0.10528   1.67789
  15.19972  -0.23889   1.66293
  15.69352  -0.13414   1.69286
  16.11251  -0.13414   1.66293
  16.53149  -0.26881   1.87242
  16.47164  -0.41845   1.69286
  16.72602  -0.43342   1.75271
  16.45667  -0.61298   1.37862
  16.84573  -0.26881   1.67789
  16.63624  -0.38852   1.51329
  16.51653  -0.32867   1.64797
  16.33696  -0.07429   1.43847
  16.00776  -0.17903   1.51329
  15.76834  -0.04436   1.57315
  15.45410   0.23995   1.69286
  14.93037   0.13521   1.58811
  14.36175   0.23995   1.48337
  13.82305   0.44945   1.40855
  13.11975   0.32974   1.48337
  12.53617   0.55419   1.40855
  11.84783   0.50930   1.36366
  10.96497   0.10528   1.43847
  10.15693   0.10528   1.16913
   9.51349  -0.20896   1.30380
   8.39121  -0.73269   1.12424
   7.79265  -0.62794   1.03445
   6.89483  -0.92722   1.04942
   5.92218  -0.98708   0.94467
   4.93458  -1.09182   0.83992
   3.84222  -1.28635   0.64540
   2.69001  -1.45095   0.75014
   1.32831  -1.70534   0.69029
   0.55019  -1.27139   0.91474
  -0.67683  -1.27139   0.83992
  -1.94875  -1.30131   0.76511
  -3.02614  -0.86737   0.67532
  -4.05864  -0.83744   0.73518
  -5.18093  -0.52320   0.57058
  -6.18350  -0.44838   0.37605
  -7.45542  -0.47831   0.12166
  -8.12879   0.04542  -0.08783
  -9.01165   0.01550  -0.14768
  -9.75984   0.19506  -0.37214
 -10.46313   0.07535  -0.44696
 -10.98686   0.31477  -0.73127
 -11.54052   0.22499  -0.71631
 -12.19893   0.29981  -1.03055
 -12.34857   0.38959  -0.88091
 -12.75259   0.58412  -0.92580
 -12.84237   0.47937  -0.88091
 -12.97704   0.79361  -0.97069
 -13.00697   0.76368  -1.07544
 -13.27632   0.62901  -1.32982
 -13.20150   0.76368  -1.50939
 -13.18654   0.61405  -1.58420
 -13.23143   0.40455  -1.86852
 -13.09675   0.28484  -2.16779
 -12.94712   0.23995  -2.42218
 -12.63288   0.23995  -2.78131
 -12.49820  -0.07429  -3.18533
 -12.01936   0.12024  -3.48460
 -11.75002   0.26988  -4.09812
 -11.13650   0.29981  -4.27768
 -10.56788   0.58412  -4.72659
 -10.23868   0.49434  -5.38500
  -9.41567   0.86843  -5.86384
  -8.89194   1.07792  -6.35764
  -8.29339   0.97318  -7.00109
  -7.69484   0.89836  -7.59964
  -6.87183   1.37720  -8.21315
  -6.45284   1.24253  -9.06608
  -5.52509   1.34727  -9.39529
  -4.95647   1.00310 -10.09858
  -4.17835   1.19763 -10.63728
  -3.49002   1.04800 -11.29569
  -2.86154   0.80858 -12.02891
  -1.79912   0.80858 -12.34315
  -0.94618   0.77865 -12.82199
  -0.21296   0.46441 -13.12126
   0.58012   0.49434 -13.82456
   1.41809   0.28484 -14.01909
   2.48052   0.37463 -14.09391
   3.10900   0.07535 -14.51289
   4.15646   0.58412 -14.66253
   4.91961   0.53923 -14.79721
   5.44334   0.50930 -15.02166
   6.50577   0.80858 -14.73735
   7.05943   0.86843 -14.78224
   7.47842   1.07792 -14.82713
   8.00215   1.07792 -14.39318
   8.25653   1.15274 -14.19865
   8.49595   1.33231 -13.98916
   8.85508   1.45202 -13.25594
   8.92990   1.43705 -12.79206
   9.37881   1.48195 -11.81942
   9.49852   1.30238 -11.02634
   9.52845   1.24253 -10.06866
   9.78284   1.52684  -9.32047
   9.78284   1.25749  -8.24308
   9.94744   1.43705  -7.37518
   9.93247   1.37720  -6.31275
  10.18686   1.48195  -5.28025
  10.17189   1.46698  -4.26272
  10.14197   1.45202  -3.57438
  10.18686   1.28742  -2.34736
  10.15693   1.34727  -1.34478
   9.76787   1.15274  -0.70134
   9.84269   0.91332   0.58554
   9.61823   1.06296   1.48337
   9.88758   1.03303   2.60565
   9.73794   0.88339   3.80275
   9.81276   1.01807   4.88014
   9.63320   0.86843   6.15206
   9.45363   1.00310   6.96010
   9.69305   1.49691   8.30684
   9.52845   1.22756   9.60869
   9.31896   1.60166  10.53644
   9.55838   1.85604  11.91311
   9.45363   1.99071  13.12517
   8.91494   1.93086  13.75365
   8.95983   2.06553  14.80111
   8.76530   2.06553  15.62412
   8.01711   1.51187  16.17778
   7.89740   1.79618  16.82122
   7.62805   1.55676  17.59934
   7.07439   1.19763  18.01832
   6.73023   1.54180  18.43731
   6.41599   1.37720  18.90118
   5.77255   0.92829  19.27528
   5.57802   1.24253  19.57455
   5.06925   1.13778  19.93368
   4.56048   1.13778  20.17310
   3.82726   0.91332  20.18807
   3.10900   0.83850  20.14318
   2.37577   0.97318  19.87383
   1.74730   0.92829  19.76908
   0.95422   0.92829  19.51470
   0.46041   1.30238  19.00593
  -0.13814   1.06296  18.67673
  -0.97611   0.94325  17.97343
  -1.52977   1.27245  17.21028
  -1.84401   1.40713  16.76137
  -2.41263   1.43705  16.01318
  -2.90643   1.49691  15.20513
  -3.40024   1.42209  14.44198
  -4.22324   1.25749  13.51423
  -4.46266   1.46698  12.67626
  -5.12107   1.07792  11.68865
  -5.51013   1.40713  10.53644
  -6.00393   1.04800   9.66854
  -6.31817   1.28742   8.60612
  -6.78205   1.18267   7.06485
  -7.20103   1.00310   5.92760
  -7.39556   1.04800   4.55094
  -7.44045   0.91332   3.53340
  -7.59009   0.92829   2.11184
  -7.60505   0.82354   0.92971
  -7.76966   0.70383  -0.67142
  -7.50031   0.85347  -1.79370
  -7.42549   0.56916  -3.26015
  -7.27585   0.47937  -4.53207
  -6.96161   0.64397  -5.92370
  -6.75212   0.37463  -7.09087
  -6.45284   0.44945  -8.40768
  -6.36306   0.29981  -9.82924
  -5.98897   0.06039 -11.01137
  -5.68969   0.06039 -12.22344
  -4.98640   0.26988 -13.25594
  -4.67216   0.09032 -14.13880
  -4.04368   0.38959 -15.23115
  -3.31046   0.46441 -15.82970
  -2.60716   0.65894 -16.48811
  -1.79912   0.95821 -17.04177
  -1.21553   0.94325 -17.56550
  -0.49727   1.04800 -17.76003
   0.32574   1.25749 -17.98449
   1.04400   1.36224 -18.02938
   1.79219   1.58669 -18.13412
   2.58527   1.66151 -17.96952
   3.03418   1.64655 -18.10420
   3.79733   1.90093 -17.76003
   4.30610   1.84108 -17.52061
   4.72508   1.81115 -17.07170
   5.15903   1.70640 -16.81731
   5.66780   1.70640 -16.02423
   6.02693   1.70640 -15.20123
   6.19153   1.57173 -14.78224
   6.38606   1.43705 -13.68989
   6.79008   1.52684 -12.86688
   7.16418   1.51187 -11.89424
   7.20907   1.33231 -11.16101
   7.49338   1.24253  -9.87413
   7.65798   1.42209  -8.96134
   7.89740   1.42209  -7.82409
   8.00215   1.45202  -6.67188
   7.94229   1.27245  -5.93866
   8.25653   1.24253  -4.66674
   8.34631   1.39216  -3.61928
   8.54084   1.33231  -2.19772
   8.57077   1.07792  -1.25500
   8.42113   1.10785  -0.41703
   8.49595   1.01807   0.73518
   8.27150   0.82354   1.67789
   8.16675   0.82354   2.66550
   7.79265   0.65894   3.56333
   7.73280   0.97318   4.52101
   7.22403   0.88339   5.43380
   6.76016   0.95821   6.07724
   6.13168   0.77865   6.93017
   5.71269   1.19763   7.75318
   5.02436   1.16771   8.41159
   4.41085   1.22756   9.20467
   3.94697   1.45202   9.99775
   3.12396   1.45202  10.59630
   2.49548   1.73633  11.06017
   1.86701   1.73633  11.70361
   1.16371   1.91589  12.16749
   0.35567   1.63158  12.43684
  -0.27281   1.85604  12.72115
  -1.00604   1.72137  13.02043
  -1.76919   1.66151  12.88575
  -2.59219   1.55676  12.87079
  -3.20571   1.49691  12.70619
  -3.83419   1.52684  12.43684
  -4.55245   1.19763  11.94303
  -5.22582   1.21260  11.37441
  -5.56998   0.76368  11.10506
  -6.00393   0.73376  10.52148
  -6.57256   0.74872   9.66854
  -6.90176   0.70383   9.26452
  -7.42549   0.44945   8.54626
  -7.70980   0.62901   7.60354
  -8.38317   0.38959   6.84039
  -8.74230   0.35966   6.13710
  -9.17625   0.15017   5.32905
  -9.68502   0.18010   4.61079
 -10.25364  -0.01443   3.75786
 -10.58284   0.06039   3.05456
 -11.04672   0.03046   2.36623
 -11.40585   0.10528   1.79761
 -11.72009   5.3E-40   1.19905
 -12.24382   0.13521   0.27130
 -12.57302   0.03046  -0.31229
 -12.81244   0.19506  -0.97069
 -12.97704   0.22499  -1.24004
 -13.12668   0.41952  -1.79370
 -13.41099   0.37463  -2.22765
 -13.45588   0.34470  -2.52692
 -13.60552   0.56916  -3.09554
 -13.48581   0.61405  -3.48460
 -13.47085   0.46441  -3.75395
 -13.35114   0.43448  -3.96344
 -13.12668   0.56916  -4.38243
 -12.88726   0.44945  -4.47221
 -12.70770   0.31477  -4.66674
 -12.09418   0.32974  -4.92112
 -11.82483   0.15017  -5.16054
 -11.46570  -0.07429  -5.31018
 -10.98686  -0.04436  -5.47478
 -10.61277  -0.31371  -5.59449
 -10.37335  -0.41845  -5.78902
  -9.92444  -0.49327  -5.84888
  -9.40071  -0.43342  -5.71420
  -9.11639  -0.65787  -5.56457
  -8.54777  -0.56809  -5.37004
  -8.14375  -0.73269  -5.01091
  -7.62002  -0.70276  -4.90616
  -7.12621  -0.85240  -4.66674
  -6.60248  -0.94218  -4.39739
  -6.00393  -0.98708  -4.23279
  -5.37545  -1.28635  -3.88862
  -4.89661  -1.40606  -3.46964
  -4.26814  -1.45095  -3.15540
  -3.75937  -1.54073  -2.85612
  -3.37031  -1.75023  -2.57181
  -3.11593  -1.69037  -2.27254
  -2.92140  -1.98965  -1.85355
  -2.74183  -2.09439  -1.29989
  -2.63709  -2.16921  -0.77616
  -2.38270  -2.19914  -0.04294
  -2.38270  -2.16921   0.55561
  -2.21810  -1.94476   1.28884
