********************************************************************************
              CENTRO DE INSTRUMENTACION Y REGISTRO SISMICO  A.C.

    Anaxagoras 814, Col. Narvarte, Benito Juarez, C.P. 03020 Mexico, D.F.
           Tels. 5687 45 42/ 5687 45  82             Fax. 5669 25 12
********************************************************************************
ARCHIVO ESTANDAR DE ACELERACION:
VERSION DEL FORMATO                    : 2.0
NOMBRE DEL ARCHIVO                     : AU4620090427164627
FECHA Y HORA DE CREACION               : 25/JUN/09, 01:10
REF. CATALOGO ACELEROGRAMAS, SMIS 1996 : REGISTRO No.     /PAG.


================================================================================
DATOS DE LA ESTACION:
NOMBRE DE LA ESTACION                  : ESC. SEC. TÉC. NO. 14
CLAVE DE LA ESTACION                   : AU46
LOCALIZACION DE LA ESTACION            : Del. Benito Juárez, Col. del Valle,    
                                       : Entre Angel Urraza y Coyoacán.         
                                       :                                        
                                       :                                        
                                       : 
COORDENADAS DE LA ESTACION             : 19.3832 LAT. N
                                       : 99.1681 LONG. W
ALTITUD (msnm)                         : 2233
TIPO DE SUELO                          : Transición                          
                                       :                           
                                       : 
INSTITUCION RESPONSABLE                : CIRES
                                       : 

================================================================================
DATOS DEL ACELEROGRAFO:
MODELO DEL ACELEROGRAFO                : RADESD
NUMERO DE SERIE DEL ACELEROGRAFO       : 236
NUMERO DE CANALES                      : 3
ORIENTACION C1-C6 (rumbo;orientacion)  : /N00E/+V/N90W
ORIENTACION C7-C12 (rumbo;orientacion) : 
VEL. DE MUESTREO, C1-C6 (muestras/s)   : /100/100/100
VEL. DE MUESTREO, C7-C12 (muestras/s)  : 
ESC. COMPLETA DE SENSORES, C1-C6, (g)  : /0.5/0.5/0.5
ESC. COMPLETA DE SENSORES, C7-C12, (g) : 
FREC. NAT. DE SENSORES, C1-C6, (Hz)    : /33/30/30
FREC. NAT. DE SENSORES, C7-C12, (Hz)   : 
AMORTIGUAMIENTO DE SENSORES, C1-C6     : /0.735/0.733/0.730
AMORTIGUAMIENTO DE SENSORES, C7-C12    : 
INTERVALO DE MUESTREO, C1-C6, (s)      : /0.01/0.01/0.01
INTERVALO DE MUESTREO, C7-C12, (s)     : 
UMBRAL DE DISPARO, C1-C6, (Gal)        : /2.87/5.51/5.27
UMBRAL DE DISPARO, C7-C12, (Gal)       : 
MEMORIA DE PREEVENTO (s)               : 56.0
TIEMPO DE POSEVENTO (s)                : 64.0


================================================================================
DATOS DEL SISMO:
FECHA DEL SISMO (GMT)                  : 27/ABR/09
HORA EPICENTRO (GMT)                   : 16:46:27.0
MAGNITUD(ES)                           : /Mc=5.7
COORDENADAS DEL EPICENTRO              : 16.90 LAT. N
                                       : 99.58 LONG. W
PROFUNDIDAD FOCAL (km)                 : 7
FUENTE DE LOS DATOS EPICENTRALES       : SSN
                                       : INSTITUTO DE GEOFISICA, UNAM

================================================================================
DATOS DE ESTE REGISTRO:
HORA DE LA PRIMERA MUESTRA (GMT)       : 16:47:49.00
EXACTITUD DEL TIEMPO (s)               : 0.01
DURACION DEL REGISTRO (s), C1-C6       : /130.25/130.25/130.25
DURACION DEL REGISTRO (s), C7-C12      : 
NUM. TOTAL DE MUESTRAS, C1-C6          : /13025/13025/13025
NUM. TOTAL DE MUESTRAS, C7-C12         : 
ACEL. MAX. (Gal), C1-C6                : /4.19999/1.67749/3.90429
ACEL. MAX., C1-C6, EN LA MUESTRA       : /6384/7102/6714
ACEL. MAX. (Gal), C7-C12               : 
ACEL. MAX., C7-C12, EN LA MUESTRA      : 
UNIDADES DE LOS DATOS                  : Gal (cm/s/s)
FACTOR DE DECIMACION                   : 1
FORMATO DATOS (FORTRAN,10 campos/dato) : 3F10.5


================================================================================
CALIDAD DEL ACELEROGRAMA:
REGISTRO DIGITAL COMPLETO CON TIEMPO ABSOLUTO CORRECTO.


================================================================================
COMENTARIOS:














================================================================================
DATOS DE ACELERACION:
---------+---------+---------+---------+---------+---------+---------+---------+
   CANAL-1   CANAL-2   CANAL-3   CANAL-4   CANAL-5   CANAL-6   CANAL-7   CANAL-8
      N00E        +V      N90W
---------+---------+---------+---------+---------+---------+---------+---------+
[...]
  -2.26435   0.47730  -1.60238
  -2.26435   0.71672  -1.60238
  -2.50377   0.71672  -1.60238
  -2.50377   0.71672  -1.36296
  -2.50377   0.71672  -1.36296
  -2.50377   0.71672  -1.12354
  -2.26435   0.71672  -1.12354
  -2.26435   0.47730  -1.12354
  -2.26435   0.47730  -1.12354
  -2.26435  -0.00154  -0.88412
  -2.50377  -0.24096  -0.88412
  -2.50377  -0.24096  -0.88412
  -2.26435  -0.48038  -0.64470
  -2.50377  -0.48038  -0.64470
  -2.74319  -0.71980  -0.64470
  -2.74319  -0.71980  -0.64470
  -2.98261  -0.71980  -0.88412
  -2.98261  -0.71980  -0.88412
  -2.74319  -0.48038  -1.12354
  -2.74319  -0.48038  -1.12354
  -2.50377  -0.24096  -1.36296
  -2.74319  -0.24096  -1.36296
  -2.50377  -0.24096  -1.36296
  -2.26435  -0.00154  -1.36296
  -2.02493  -0.00154  -1.36296
  -1.78551  -0.00154  -1.36296
  -1.54609  -0.00154  -1.36296
  -1.30667  -0.00154  -1.36296
  -0.82783  -0.24096  -1.12354
  -0.58841  -0.00154  -1.12354
  -0.10957  -0.00154  -1.12354
  -0.10957  -0.00154  -0.88412
   0.12985  -0.24096  -0.88412
   0.60869  -0.24096  -0.40528
   1.08753  -0.48038  -0.16586
   1.08753  -0.48038   0.07356
   1.32695  -0.48038   0.55240
   1.56637  -0.48038   0.79182
   1.56637  -0.48038   0.79182
   1.80579  -0.48038   0.79182
   1.80579  -0.48038   1.03124
   1.80579  -0.48038   1.03124
   2.04521  -0.48038   1.27066
   1.80579  -0.48038   1.27066
   1.80579  -0.48038   1.03124
   2.04521  -0.48038   1.27066
   1.80579  -0.48038   1.27066
   2.04521  -0.48038   1.27066
   2.04521  -0.71980   1.27066
   2.28463  -0.71980   1.27066
   2.52405  -0.95922   1.51008
   2.76347  -0.71980   1.27066
   3.00289  -0.71980   1.51008
   3.24231  -0.95922   1.51008
   3.24231  -0.71980   1.74950
   3.24231  -0.71980   1.98892
   3.24231  -0.48038   1.98892
   3.24231  -0.48038   1.74950
   3.24231  -0.24096   1.74950
   3.00289  -0.00154   1.74950
   3.00289  -0.00154   1.74950
   2.76347  -0.00154   1.27066
   2.76347  -0.00154   1.27066
   2.52405   0.23788   1.03124
   2.52405   0.23788   0.79182
   2.52405  -0.00154   0.79182
   2.52405  -0.00154   0.55240
   2.28463  -0.00154   0.31298
   2.28463  -0.00154   0.31298
   2.04521  -0.00154   0.07356
   1.80579  -0.24096   0.07356
   1.56637  -0.00154   0.07356
   1.56637  -0.24096   0.07356
   1.32695  -0.24096   0.31298
   1.08753  -0.24096   0.07356
   0.60869  -0.00154   0.07356
   0.60869  -0.24096  -0.16586
   0.60869  -0.24096   0.07356
   0.36927  -0.24096   0.07356
   0.36927  -0.00154   0.07356
   0.12985  -0.24096   0.31298
   0.12985  -0.00154   0.31298
   0.12985  -0.00154   0.31298
   0.36927  -0.00154   0.31298
   0.12985   0.23788   0.31298
   0.12985   0.23788   0.31298
   0.36927   0.23788   0.31298
  -0.10957   0.23788   0.31298
  -0.34899  -0.00154   0.07356
  -0.58841  -0.00154   0.07356
  -0.58841  -0.00154  -0.16586
  -0.58841  -0.24096  -0.40528
  -0.82783  -0.24096  -0.16586
  -1.30667  -0.24096  -0.16586
  -1.54609  -0.48038   0.07356
  -1.78551  -0.48038   0.07356
  -2.02493  -0.71980   0.07356
  -2.26435  -0.48038  -0.16586
  -2.50377  -0.71980  -0.16586
  -2.74319  -0.48038   0.07356
  -2.74319  -0.48038   0.31298
  -2.98261  -0.48038   0.31298
  -2.98261  -0.48038   0.07356
  -2.98261  -0.24096   0.07356
  -2.98261  -0.24096  -0.16586
  -2.98261  -0.00154  -0.16586
  -2.98261   0.23788   0.07356
  -2.98261   0.23788   0.07356
  -2.74319   0.47730   0.31298
  -2.74319   0.71672   0.31298
  -2.74319   0.71672   0.31298
  -2.74319   0.71672   0.55240
  -2.74319   0.71672   0.55240
  -2.74319   0.71672   0.55240
  -2.50377   0.71672   0.79182
  -2.26435   0.71672   0.79182
  -2.50377   0.47730   0.79182
  -2.26435   0.23788   0.79182
  -2.26435  -0.00154   0.79182
  -1.78551  -0.00154   0.79182
  -1.78551  -0.00154   0.55240
  -1.54609  -0.24096   0.55240
  -1.06725  -0.24096   0.55240
  -0.82783  -0.00154   0.55240
  -0.58841  -0.00154   0.55240
  -0.34899  -0.00154   0.55240
  -0.34899   0.23788   0.55240
  -0.10957   0.23788   0.31298
  -0.10957   0.23788   0.31298
  -0.10957   0.47730   0.07356
   0.36927   0.23788   0.07356
   0.36927   0.23788  -0.16586
   0.60869   0.23788  -0.16586
   0.60869   0.23788  -0.40528
   0.84811  -0.00154  -0.40528
   0.84811   0.23788  -0.40528
   1.08753  -0.00154  -0.40528
   1.08753   0.23788  -0.40528
   1.32695   0.23788  -0.40528
   1.32695   0.23788  -0.40528
   1.08753  -0.00154  -0.40528
   1.08753   0.23788  -0.40528
   1.08753   0.23788  -0.64470
   1.08753   0.23788  -0.40528
   1.08753   0.23788  -0.40528
   1.08753   0.23788  -0.40528
   1.08753   0.23788  -0.40528
   1.08753   0.23788  -0.64470
   1.08753  -0.00154  -0.64470
   1.08753  -0.00154  -0.88412
   0.84811  -0.00154  -0.88412
   0.84811  -0.00154  -0.88412
   0.84811  -0.00154  -1.12354
   0.84811   0.23788  -1.36296
   0.84811   0.23788  -1.36296
   0.84811  -0.00154  -1.36296
   0.84811  -0.00154  -1.36296
   1.08753  -0.00154  -1.36296
   0.84811  -0.00154  -1.60238
   1.32695  -0.00154  -1.84180
   1.56637  -0.00154  -1.84180
   1.32695  -0.00154  -1.84180
   1.56637  -0.24096  -2.08122
   1.80579  -0.24096  -2.08122
   2.28463  -0.24096  -2.08122
   2.28463  -0.24096  -2.08122
   2.28463  -0.24096  -2.08122
   2.28463  -0.24096  -2.32064
   2.28463  -0.24096  -2.08122
   2.28463  -0.00154  -2.08122
   2.28463  -0.24096  -1.84180
   2.28463  -0.00154  -1.84180
   2.04521  -0.00154  -1.60238
   1.80579  -0.00154  -1.60238
   1.80579  -0.00154  -1.36296
   1.80579  -0.00154  -1.36296
   2.04521  -0.00154  -1.36296
   1.80579  -0.00154  -1.12354
   2.04521  -0.00154  -0.88412
   2.04521  -0.00154  -0.64470
   1.80579   0.23788  -0.40528
   1.56637  -0.00154  -0.40528
   1.32695  -0.00154   0.07356
   1.08753  -0.00154   0.31298
   0.84811  -0.00154   0.31298
   0.84811   0.23788   0.55240
   0.36927   0.23788   0.79182
  -0.10957  -0.00154   0.79182
  -0.34899  -0.00154   0.79182
  -0.34899  -0.00154   0.55240
  -0.34899  -0.00154   0.79182
  -0.34899  -0.00154   1.03124
  -0.82783  -0.00154   1.27066
  -1.06725  -0.00154   1.27066
  -1.30667  -0.00154   1.51008
  -1.54609  -0.24096   1.51008
  -1.54609  -0.00154   1.51008
  -1.78551   0.23788   1.51008
  -2.02493   0.47730   1.74950
  -2.50377   0.23788   1.51008
  -2.98261   0.23788   1.74950
  -2.98261   0.23788   1.51008
  -2.98261   0.23788   1.51008
  -3.22203   0.47730   1.27066
  -3.22203   0.47730   1.51008
  -3.46145   0.47730   1.74950
  -3.70088   0.23788   1.74950
  -3.70088   0.23788   1.51008
  -3.70088  -0.48038   1.27066
  -3.70088  -0.48038   1.27066
  -3.46145  -0.71980   1.03124
  -3.46145  -0.71980   1.03124
  -3.46145  -0.71980   0.79182
  -3.46145  -0.71980   0.79182
  -3.22203  -0.71980   0.31298
  -2.98261  -0.95922   0.07356
  -2.74319  -0.95922  -0.16586
  -2.50377  -0.71980  -0.16586
  -2.26435  -0.71980  -0.64470
  -1.78551  -0.48038  -0.64470
  -1.30667  -0.24096  -0.64470
  -0.82783  -0.24096  -0.64470
  -0.58841  -0.24096  -0.40528
  -0.58841  -0.00154  -0.64470
  -0.34899  -0.00154  -0.64470
   0.12985  -0.00154  -0.64470
   0.12985   0.23788  -0.64470
   0.36927   0.47730  -0.64470
   0.36927   0.47730  -0.64470
   0.60869   0.47730  -0.64470
   0.84811   0.71672  -0.64470
   1.08753   0.71672  -0.64470
   1.08753   0.47730  -0.64470
   1.08753   0.71672  -0.64470
   1.56637   0.47730  -0.64470
   1.56637   0.71672  -0.40528
   1.56637   0.71672  -0.16586
   1.80579   0.47730  -0.16586
   1.80579   0.47730  -0.16586
   2.04521   0.47730   0.07356
   2.04521   0.23788   0.31298
   2.04521   0.23788   0.55240
   2.04521   0.23788   0.79182
   2.04521   0.23788   1.03124
   1.80579   0.23788   1.27066
   1.80579  -0.00154   1.51008
   1.80579   0.23788   1.51008
   1.80579   0.47730   1.51008
   1.56637   0.47730   1.51008
   1.56637   0.71672   1.51008
   1.32695   0.71672   1.51008
   1.08753   0.47730   1.74950
   0.84811   0.47730   1.51008
   0.84811   0.71672   1.51008
   0.60869   0.71672   1.51008
   0.60869   0.71672   1.51008
   0.36927   0.71672   1.27066
   0.60869   0.71672   1.27066
   0.36927   0.47730   1.03124
   0.12985   0.47730   1.03124
   0.12985   0.23788   0.79182
  -0.10957   0.23788   0.79182
  -0.10957  -0.00154   0.55240
  -0.34899  -0.24096   0.31298
  -0.58841  -0.24096   0.07356
  -0.82783  -0.48038   0.07356
  -0.82783  -0.71980   0.07356
  -1.06725  -0.71980   0.31298
  -1.30667  -0.71980  -0.16586
  -1.30667  -0.95922  -0.40528
  -1.78551  -0.95922  -0.16586
  -1.78551  -0.71980  -0.40528
  -1.78551  -0.71980  -0.40528
  -2.02493  -0.71980  -0.64470
  -2.26435  -0.71980  -0.40528
  -2.26435  -0.71980  -0.64470
  -2.26435  -0.48038  -0.88412
  -2.50377  -0.71980  -1.12354
  -2.50377  -0.71980  -1.12354
  -2.50377  -0.71980  -1.36296
  -2.74319  -0.71980  -1.36296
  -2.98261  -0.71980  -1.36296
  -3.22203  -0.71980  -1.60238
  -3.46145  -0.71980  -1.60238
  -3.22203  -0.71980  -1.60238
  -3.22203  -0.71980  -1.60238
  -2.98261  -0.71980  -1.60238
  -2.50377  -0.48038  -1.60238
  -2.26435  -0.24096  -1.60238
  -2.02493  -0.00154  -1.60238
  -1.78551  -0.00154  -1.60238
  -1.54609  -0.00154  -1.36296
  -1.06725  -0.00154  -1.36296
  -0.82783   0.23788  -1.12354
  -0.58841   0.23788  -1.36296
  -0.34899   0.23788  -1.12354
  -0.10957   0.23788  -0.88412
   0.12985  -0.00154  -0.40528
   0.36927  -0.00154  -0.16586
   0.60869   0.23788  -0.16586
   1.08753   0.47730  -0.16586
   1.32695   0.47730   0.07356
   1.56637   0.47730   0.31298
   1.80579   0.71672   0.31298
   2.28463   0.71672   0.07356
   2.52405   0.71672   0.31298
   2.76347   0.71672   0.55240
   3.00289   0.95614   0.31298
   3.00289   0.95614   0.31298
   3.24231   0.95614   0.07356
   3.48173   0.95614   0.07356
   3.72115   0.71672   0.07356
   3.72115   0.71672   0.31298
   3.72115   0.71672   0.31298
   3.96057   0.71672   0.31298
   3.96057   0.71672   0.31298
   3.96057   0.23788   0.07356
   3.96057  -0.00154   0.07356
   4.19999  -0.00154   0.07356
   3.96057  -0.00154   0.31298
   3.72115  -0.00154   0.31298
   3.72115  -0.00154   0.07356
   3.48173  -0.24096  -0.16586
   3.24231  -0.24096   0.07356
   2.76347  -0.24096   0.31298
   2.76347  -0.24096   0.55240
   2.52405  -0.00154   0.55240
   2.28463  -0.24096   0.79182
   1.80579  -0.24096   1.03124
   1.56637  -0.24096   1.27066
   1.32695  -0.24096   1.27066
   1.08753  -0.00154   1.51008
   0.60869  -0.00154   1.51008
   0.36927  -0.00154   1.51008
  -0.10957  -0.24096   1.74950
  -0.34899  -0.00154   1.98892
  -0.82783   0.23788   2.22834
  -1.30667  -0.00154   2.22834
  -2.02493  -0.24096   1.98892
  -2.26435  -0.24096   1.98892
  -2.50377  -0.24096   1.98892
  -2.74319  -0.00154   1.98892
  -3.22203  -0.00154   1.74950
  -3.46145  -0.48038   1.51008
  -3.94030  -0.71980   1.27066
  -3.94030  -0.95922   1.03124
  -4.17972  -0.71980   1.27066
  -3.94030  -0.48038   1.03124
  -4.17972  -0.48038   0.55240
  -4.17972  -0.71980   0.55240
  -4.17972  -0.95922   0.31298
  -3.94030  -0.71980   0.31298
  -3.94030  -0.71980   0.31298
  -3.94030  -0.48038   0.07356
  -3.94030  -0.48038  -0.16586
  -3.70088  -0.48038  -0.40528
  -3.70088  -0.71980  -0.64470
  -3.46145  -0.24096  -0.88412
  -3.22203  -0.24096  -1.12354
  -2.74319  -0.00154  -1.12354
  -2.50377  -0.00154  -1.36296
  -2.26435   0.23788  -1.60238
  -1.78551   0.23788  -1.60238
  -1.54609   0.47730  -1.84180
  -1.54609   0.47730  -1.60238
  -1.30667   0.71672  -1.84180
  -1.30667   0.47730  -2.08122
  -0.82783   0.47730  -2.08122
  -0.58841   0.47730  -2.08122
  -0.10957   0.47730  -2.08122
   0.12985   0.23788  -2.32064
   0.36927  -0.00154  -2.56006
   0.84811  -0.00154  -2.56006
   1.32695  -0.00154  -2.32064
   1.32695  -0.00154  -2.32064
   1.80579   0.23788  -2.32064
   2.04521   0.23788  -2.32064
   2.28463  -0.00154  -2.32064
   2.52405  -0.00154  -2.32064
   2.76347  -0.00154  -2.08122
   2.76347  -0.00154  -2.08122
   2.76347  -0.00154  -1.84180
   2.76347  -0.00154  -1.84180
   2.76347  -0.00154  -1.60238
   2.52405  -0.00154  -1.36296
   2.52405  -0.00154  -1.12354
   2.52405  -0.00154  -0.64470
   2.28463  -0.24096  -0.40528
   2.28463  -0.48038  -0.16586
   2.04521  -0.48038   0.07356
   1.80579  -0.48038   0.31298
   1.32695  -0.24096   0.55240
   1.32695  -0.48038   0.79182
   1.32695  -0.48038   1.03124
   1.08753  -0.48038   1.27066
   0.60869  -0.48038   1.51008
   0.36927  -0.48038   1.51008
  -0.10957  -0.48038   1.51008
  -0.10957  -0.48038   1.51008
   0.12985  -0.48038   1.51008
  -0.10957  -0.24096   1.51008
  -0.10957  -0.00154   1.74950
  -0.10957  -0.00154   1.51008
  -0.34899   0.23788   1.51008
  -0.10957   0.23788   1.51008
  -0.10957   0.47730   1.51008
  -0.10957   0.71672   1.27066
  -0.10957   0.95614   1.27066
  -0.10957   0.95614   1.27066
  -0.34899   0.95614   1.27066
  -0.34899   1.19556   1.03124
  -0.34899   1.19556   1.03124
  -0.34899   1.19556   1.03124
  -0.58841   1.19556   0.79182
  -0.58841   1.19556   0.55240
  -0.34899   0.95614   0.07356
  -0.34899   1.19556   0.07356
  -0.34899   0.95614   0.07356
  -0.34899   0.71672   0.07356
   0.12985   0.71672  -0.16586
   0.36927   0.71672  -0.16586
   0.60869   0.71672  -0.16586
   0.60869   0.71672  -0.16586
   0.60869   0.71672   0.07356
   0.60869   0.47730  -0.16586
   0.60869   0.47730  -0.16586
   0.60869   0.47730  -0.40528
   0.60869   0.23788  -0.64470
   0.60869   0.23788  -0.64470
   0.60869  -0.00154  -0.40528
   0.60869  -0.00154  -0.40528
   0.84811  -0.00154  -0.64470
   0.84811  -0.24096  -0.64470
   0.84811  -0.24096  -0.88412
   1.08753  -0.24096  -0.88412
   0.84811  -0.00154  -0.64470
   0.84811  -0.00154  -0.88412
   0.60869  -0.00154  -0.88412
   0.36927  -0.00154  -0.88412
   0.36927  -0.00154  -0.88412
   0.12985  -0.00154  -0.64470
   0.12985  -0.00154  -0.88412
  -0.10957  -0.00154  -1.12354
  -0.10957  -0.00154  -1.36296
  -0.10957  -0.24096  -1.36296
  -0.10957  -0.48038  -1.36296
  -0.34899  -0.48038  -1.36296
  -0.34899  -0.48038  -1.60238
  -0.34899  -0.48038  -1.84180
  -0.10957  -0.48038  -2.08122
  -0.10957  -0.48038  -2.08122
  -0.10957  -0.48038  -2.32064
   0.12985  -0.71980  -2.32064
   0.12985  -0.71980  -2.32064
  -0.10957  -0.71980  -2.08122
  -0.34899  -0.71980  -1.84180
  -0.10957  -0.48038  -1.84180
  -0.10957  -0.71980  -1.60238
   0.12985  -0.71980  -1.36296
   0.60869  -0.71980  -1.36296
   0.60869  -0.71980  -1.12354
   0.60869  -0.71980  -1.12354
   0.60869  -0.71980  -0.88412
   0.84811  -0.48038  -0.88412
   1.08753  -0.24096  -0.40528
   1.08753  -0.48038  -0.40528
   1.32695  -0.24096  -0.16586
   1.32695  -0.24096   0.31298
   1.08753  -0.24096   0.55240
   1.32695  -0.24096   0.55240
   1.32695  -0.24096   0.79182
   1.32695  -0.48038   1.03124
   1.32695  -0.24096   1.27066
   1.08753  -0.48038   1.51008
   1.08753  -0.48038   1.74950
   1.08753  -0.48038   1.98892
   1.32695  -0.71980   1.98892
   1.08753  -0.71980   1.98892
   1.08753  -0.95922   1.98892
   1.08753  -0.48038   2.22834
   1.08753  -0.48038   2.46776
   1.32695  -0.24096   2.70718
   1.32695  -0.24096   2.70718
   1.08753  -0.24096   2.46776
   1.08753  -0.00154   2.46776
   1.32695  -0.24096   2.22834
   1.32695  -0.00154   2.70718
   1.08753  -0.00154   2.94661
   0.84811   0.23788   2.94661
   0.84811   0.23788   2.70718
   0.60869   0.47730   2.46776
   0.36927   0.47730   2.70718
   0.36927   0.47730   2.46776
   0.12985   0.47730   2.46776
  -0.10957   0.47730   2.70718
  -0.34899   0.23788   2.70718
