********************************************************************************
              CENTRO DE INSTRUMENTACION Y REGISTRO SISMICO  A.C.

    Anaxagoras 814, Col. Narvarte, Benito Juarez, C.P. 03020 Mexico, D.F.
           Tels. 5687 45 42/ 5687 45  82             Fax. 5669 25 12
********************************************************************************
ARCHIVO ESTANDAR DE ACELERACION:
VERSION DEL FORMATO                    : 2.0
NOMBRE DEL ARCHIVO                     : AU4620151123204120
FECHA Y HORA DE CREACION               : 17/DIC/15, 11:55
REF. CATALOGO ACELEROGRAMAS, SMIS 1996 : REGISTRO No.     /PAG.


================================================================================
DATOS DE LA ESTACION:
NOMBRE DE LA ESTACION                  : ESC. SEC. TÉC. NO. 14
CLAVE DE LA ESTACION                   : AU46
LOCALIZACION DE LA ESTACION            : Del. Benito Juárez, Col. del Valle,    
                                       : Entre Angel Urraza y Coyoacán.         
                                       :                                        
                                       :                                        
                                       : 
COORDENADAS DE LA ESTACION             : 19.3832 LAT. N
                                       : 99.1681 LONG. W
ALTITUD (msnm)                         : 2233
TIPO DE SUELO                          : Transición                          
                                       :                           
                                       : 
INSTITUCION RESPONSABLE                : CIRES
                                       : 

================================================================================
DATOS DEL ACELEROGRAFO:
MODELO DEL ACELEROGRAFO                : RADESD
NUMERO DE SERIE DEL ACELEROGRAFO       : 236
NUMERO DE CANALES                      : 3
ORIENTACION C1-C6 (rumbo;orientacion)  : /N00E/+V/N90W
ORIENTACION C7-C12 (rumbo;orientacion) : 
VEL. DE MUESTREO, C1-C6 (muestras/s)   : /100/100/100
VEL. DE MUESTREO, C7-C12 (muestras/s)  : 
ESC. COMPLETA DE SENSORES, C1-C6, (g)  : /0.5/0.5/0.5
ESC. COMPLETA DE SENSORES, C7-C12, (g) : 
FREC. NAT. DE SENSORES, C1-C6, (Hz)    : /33/30/30
FREC. NAT. DE SENSORES, C7-C12, (Hz)   : 
AMORTIGUAMIENTO DE SENSORES, C1-C6     : /0.735/0.733/0.730
AMORTIGUAMIENTO DE SENSORES, C7-C12    : 
INTERVALO DE MUESTREO, C1-C6, (s)      : /0.01/0.01/0.01
INTERVALO DE MUESTREO, C7-C12, (s)     : 
UMBRAL DE DISPARO, C1-C6, (Gal)        : /1.95/5.99/2.84
UMBRAL DE DISPARO, C7-C12, (Gal)       : 
MEMORIA DE PREEVENTO (s)               : 44.0
TIEMPO DE POSEVENTO (s)                : 97.0


================================================================================
DATOS DEL SISMO:
FECHA DEL SISMO (GMT)                  : 23/NOV/15
HORA EPICENTRO (GMT)                   : 20:41:20.0
MAGNITUD(ES)                           : /Mc=5.6
COORDENADAS DEL EPICENTRO              : 16.86 LAT. N
                                       : 98.94 LONG. W
PROFUNDIDAD FOCAL (km)                 : 10
FUENTE DE LOS DATOS EPICENTRALES       : SSN
                                       : INSTITUTO DE GEOFISICA, UNAM

================================================================================
DATOS DE ESTE REGISTRO:
HORA DE LA PRIMERA MUESTRA (GMT)       : 20:42:48.00
EXACTITUD DEL TIEMPO (s)               : 0.01
DURACION DEL REGISTRO (s), C1-C6       : /138.0/138.0/138.0
DURACION DEL REGISTRO (s), C7-C12      : 
NUM. TOTAL DE MUESTRAS, C1-C6          : /13800/13800/13800
NUM. TOTAL DE MUESTRAS, C7-C12         : 
ACEL. MAX. (Gal), C1-C6                : /3.07757/1.42131/3.20013
ACEL. MAX., C1-C6, EN LA MUESTRA       : /4771/4190/5047
ACEL. MAX. (Gal), C7-C12               : 
ACEL. MAX., C7-C12, EN LA MUESTRA      : 
UNIDADES DE LOS DATOS                  : Gal (cm/s/s)
FACTOR DE DECIMACION                   : 1
FORMATO DATOS (FORTRAN,10 campos/dato) : 3F10.5


================================================================================
CALIDAD DEL ACELEROGRAMA:
REGISTRO DIGITAL COMPLETO CON TIEMPO ABSOLUTO CORRECTO.


================================================================================
COMENTARIOS:














================================================================================
DATOS DE ACELERACION:
---------+---------+---------+---------+---------+---------+---------+---------+
   CANAL-1   CANAL-2   CANAL-3   CANAL-4   CANAL-5   CANAL-6   CANAL-7   CANAL-8
      N00E        +V      N90W
---------+---------+---------+---------+---------+---------+---------+---------+
[...]
  -1.85054   0.07507   0.11759
  -1.76076   0.17982  -0.04701
  -1.77572   0.31449  -0.09190
  -1.67098   0.19478  -0.45103
  -1.43156   0.03018  -0.61563
  -1.17717  -0.02968  -0.57074
  -0.87790  -0.01471  -0.79520
  -0.63848   0.03018  -0.91491
  -0.54869  -0.02968  -0.97476
  -0.41402   2.5E-40  -1.04958
  -0.09978  -0.05960  -1.15433
   0.01993  -0.28406  -1.10944
   0.28928  -0.22420  -1.10944
   0.46884  -0.29902  -1.39375
   0.57359  -0.25413  -1.58828
   0.66337  -0.19428  -1.72295
   0.99257   0.09003  -1.69302
   1.23199   0.11996  -1.96237
   1.38163   0.17982  -1.82770
   1.62105   0.10500  -1.78281
   2.06996   0.38931  -1.69302
   2.04004   0.40427  -1.72295
   2.05500   0.25464  -1.79777
   2.11486   0.19478  -1.91748
   2.30938   0.07507  -1.85762
   2.57873  -0.07457  -1.48353
   2.57873   0.04514  -1.34886
   2.51888   0.20974  -1.36382
   2.45902   0.19478  -1.45360
   2.51888  -0.11946  -1.57331
   2.50391  -0.32895  -1.54339
   2.63859  -0.13442  -1.28900
   2.56377  -0.11946  -1.43864
   2.68348  -0.16435  -1.34886
   2.47399  -0.25413  -1.36382
   2.29442  -0.10449  -1.36382
   2.38420  -0.02968  -1.16929
   2.41413   0.16485  -0.76527
   2.32435   0.20974  -0.66052
   2.26449   0.43420  -0.64556
   1.86047   0.44916  -0.94483
   1.41156   0.34442  -0.97476
   1.53127   0.26960  -0.64556
   1.38163   0.35938  -0.45103
   1.38163   0.25464  -0.15176
   1.03746   0.10500   0.04277
   0.90279  -0.05960   0.22234
   0.67833  -0.01471   0.02781
   0.51373  -0.17931   0.23730
   0.49877  -0.23917   0.55154
   0.39402  -0.29902   0.77600
   0.15460  -0.14939   0.73111
  -0.27935  -0.07457   0.82089
  -0.42898   0.03018   0.68622
  -0.48884  -0.10449   0.86578
  -0.60855   0.17982   1.13513
  -0.60855   0.37435   1.38951
  -0.78811   0.25464   1.56908
  -0.81804   0.23967   1.65886
  -0.89286   0.53895   1.74864
  -1.28192   0.53895   1.88332
  -1.53630   0.55391   2.24245
  -1.74579   0.43420   2.46690
  -2.06003   0.49406   2.58661
  -2.29945   0.28456   2.54172
  -2.40420   0.09003   2.40705
  -2.70348   0.03018   2.25741
  -2.73340   0.10500   2.28734
  -2.91297   0.03018   2.51179
  -3.03268  -0.16435   2.40705
  -3.07757  -0.31399   2.04792
  -2.91297  -0.46363   2.03295
  -2.73340  -0.26910   1.74864
  -2.58377  -0.13442   1.62893
  -2.32938  -0.04464   1.77857
  -2.10493  -0.08953   1.95813
  -1.92536  -0.10449   1.97310
  -1.73083  -0.04464   1.64390
  -1.43156   0.01522   1.38951
  -1.26695   0.10500   1.26980
  -1.13228   0.20974   1.37455
  -0.83301   0.52398   1.29973
  -0.72826   0.52398   1.00045
  -0.65344   0.70355   0.68622
  -0.56366   0.80829   0.44680
  -0.42898   0.56887   0.29716
   0.06482   0.64369   0.31212
   0.42395   0.86815   0.59643
   0.37906   0.97290   0.44680
   0.16957   0.64369   0.05774
   0.46884   0.37435   0.02781
   0.84294   0.47909  -0.00212
   0.88783   0.52398   0.08766
   1.08236   0.58384   0.08766
   1.38163   0.37435  -0.19665
   1.75573   0.13493  -0.34628
   1.81558   0.03018  -0.49592
   2.18967   0.13493  -0.73534
   2.35428  -0.01471  -0.72038
   2.56377  -0.46363  -0.66052
   2.77326  -0.61326  -0.60067
   2.78822  -0.44866  -0.75031
   2.90793  -0.56837  -0.95980
   3.01268  -0.61326  -0.95980
   2.65355  -0.58334  -1.06454
   2.51888  -0.65815  -1.16929
   2.56377  -0.14939  -0.76527
   2.23457  -0.02968  -0.97476
   2.01011  -0.11946  -1.01965
   1.92033  -0.16435  -0.84009
   1.42652   0.10500  -0.87002
   1.35170   0.10500  -0.72038
   1.29185   0.17982  -0.52585
   1.23199   0.31449  -0.37621
   0.99257   0.04514  -0.51089
   0.97761   0.06011  -0.30139
   0.78308   0.17982  -0.51089
   0.67833   0.16485  -0.52585
   0.48381   0.04514  -0.58570
   0.55862  -0.01471  -0.49592
   0.22942  -0.01471  -0.61563
  -0.29431  -0.23917  -0.75031
  -0.23446  -0.22420  -0.76527
  -0.59359  -0.02968  -1.13936
  -0.95272  -0.32895  -1.07951
  -0.98264  -0.50852  -0.88498
  -1.22206  -0.23917  -1.04958
  -1.56623  -0.28406  -1.16929
  -1.83558  -0.28406  -1.22915
  -2.08996  -0.13442  -1.13936
  -1.92536  -0.04464  -1.00469
  -1.95529   0.11996  -0.87002
  -2.37427   0.29953  -0.94483
  -2.40420   2.5E-40  -0.98973
  -2.37427  -0.07457  -0.66052
  -2.31442   0.31449  -0.55578
  -2.26953   0.31449  -0.51089
  -2.19471   0.16485  -0.49592
  -2.32938  -0.05960  -0.25650
  -2.08996   0.03018  -0.22657
  -2.17974   0.04514  -0.16672
  -2.26953  -0.10449  -0.34628
  -2.23960  -0.28406  -0.48096
  -1.97025  -0.28406  -0.52585
  -2.00018  -0.32895  -0.66052
  -2.14982  -0.26910  -0.51089
  -1.88047  -0.20924  -0.60067
  -1.73083  -0.34391  -0.67549
  -1.64105  -0.32895  -0.60067
  -1.49141  -0.34391  -0.46599
  -1.43156  -0.32895  -0.25650
  -1.26695  -0.25413  -0.15176
  -1.19214  -0.41873  -0.16672
  -0.69833  -0.49355  -0.00212
  -0.54869  -0.37384   0.28219
  -0.47388  -0.23917   0.23730
  -0.27935  -0.37384   0.44680
   0.12468  -0.34391   0.62636
   0.42395  -0.22420   0.77600
   0.60352  -0.22420   0.58147
   0.64841  -0.22420   0.67125
   0.99257  -0.28406   0.91067
   1.21703  -0.17931   0.94060
   1.33674   0.07507   0.92564
   1.36667  -0.02968   0.98549
   1.45645  -0.13442   0.80593
   1.50134  -0.08953   0.62636
   1.69587   0.04514   0.77600
   1.71083   0.03018   0.82089
   1.47141  -0.02968   0.62636
   1.32178  -0.22420   0.55154
   1.48638  -0.35888   0.62636
   1.48638  -0.16435   0.71614
   1.29185  -0.07457   0.52161
   1.09732  -0.23917   0.50665
   1.03746  -0.17931   0.59643
   0.91775  -0.22420   0.50665
   0.85790  -0.17931   0.49169
   0.94768  -0.08953   0.70118
   0.72323  -0.07457   0.62636
   0.58855  -0.31399   0.44680
   0.60352  -0.29902   0.56651
   0.81301   0.03018   0.71614
   0.67833  -0.08953   0.50665
   0.64841  -0.31399   0.52161
   0.63344  -0.31399   0.49169
   0.66337  -0.14939   0.43183
   0.66337  -0.08953   0.35701
   0.73819  -0.10449   0.34205
   0.84294   0.13493   0.25227
   0.82797   0.13493   0.17745
   0.81301   0.03018   0.10263
   0.78308   0.13493   0.17745
   0.82797   0.26960   0.34205
   0.76812   0.16485   0.20737
   0.75315  -0.02968   0.23730
   0.52870   0.10500   0.17745
   0.28928   0.11996   0.16248
   0.21446   0.17982  -0.03205
   0.25935   0.17982  -0.07694
   0.12468  -0.17931  -0.09190
  -0.05489  -0.19428  -0.31636
  -0.14467  -0.16435  -0.39118
  -0.26438  -0.07457  -0.52585
  -0.44395  -0.34391  -0.67549
  -0.38409  -0.47859  -0.81016
  -0.45891  -0.46363  -0.87002
  -0.42898  -0.08953  -0.91491
  -0.44395  -0.10449  -1.12440
  -0.53373  -0.32895  -1.09447
  -0.54869  -0.11946  -1.00469
  -0.42898  -0.07457  -0.98973
  -0.44395   0.09003  -0.88498
  -0.38409   0.17982  -0.69045
  -0.48884   0.35938  -0.63060
  -0.51877   0.29953  -0.60067
  -0.33920   0.37435  -0.42110
  -0.36913   0.61377  -0.10686
  -0.63848   0.68858  -0.04701
  -0.66840   0.52398  -0.01708
  -0.78811   0.38931  -0.07694
  -0.98264   0.43420   0.23730
  -1.14724   0.52398   0.22234
  -1.25199   0.41924   0.25227
  -1.37170   0.37435   0.28219
  -1.34177   0.19478   0.29716
  -1.53630   0.14989   0.31212
  -1.59616   0.04514   0.43183
  -1.62608  -0.05960   0.40190
  -1.46148  -0.31399   0.47672
  -1.23703  -0.38881   0.61140
  -1.19214  -0.38881   0.61140
  -0.93775  -0.46363   0.55154
  -0.83301  -0.44866   0.38694
  -0.68337  -0.50852   0.29716
  -0.54869  -0.37384   0.13256
  -0.48884  -0.35888   0.14752
  -0.41402  -0.20924   0.10263
  -0.32424   0.06011   0.13256
  -0.23446   0.14989  -0.00212
  -0.12971   0.23967  -0.12183
  -0.12971   0.14989  -0.30139
  -0.05489   0.06011  -0.13679
  -0.01000   0.09003  -0.15176
   0.13964   0.16485  -0.04701
   0.12468   0.22471  -0.03205
   0.40899   0.07507   0.01285
   0.51373   0.04514   0.07270
   0.48381  -0.04464  -0.01708
   0.48381   0.31449  -0.12183
   0.66337   0.35938  -0.01708
   0.82797   0.35938   0.02781
   0.84294   0.35938   0.19241
   0.70826   0.49406   0.34205
   0.55862   0.50902   0.53658
   0.66337   0.32945   0.41687
   0.87286   0.46413   0.59643
   0.94768   0.58384   0.71614
   0.88783   0.70355   0.76103
   0.69330   0.67362   0.74607
   0.52870   0.61377   0.80593
   0.73819   0.79333   0.85082
   0.66337   0.89808   0.73111
   0.58855   0.76340   0.68622
   0.52870   0.79333   0.52161
   0.64841   0.61377   0.41687
   0.70826   0.58384   0.26723
   0.87286   0.38931   0.26723
   0.96265   0.19478   0.11759
   0.94768   0.25464  -0.00212
   1.00754   0.06011  -0.13679
   1.26192  -0.10449  -0.18168
   1.33674  -0.07457  -0.19665
   1.32178  -0.19428  -0.13679
   1.32178  -0.31399  -0.12183
   1.38163  -0.40377  -0.24154
   1.45645  -0.31399  -0.21161
   1.35170  -0.23917  -0.22657
   1.26192  -0.40377  -0.30139
   1.18710  -0.49355  -0.33132
   1.18710  -0.46363  -0.19665
   0.84294  -0.37384  -0.36125
   0.72323  -0.40377  -0.28643
   0.66337  -0.22420  -0.27147
   0.45388  -0.14939  -0.36125
   0.19949  -0.25413  -0.28643
   0.25935  -0.32895  -0.24154
   0.12468  -0.13442  -0.33132
   0.01993  -0.02968  -0.33132
  -0.27935   0.06011  -0.40614
  -0.41402   2.5E-40  -0.34628
  -0.39906  -0.16435  -0.24154
  -0.33920  -0.26910  -0.22657
  -0.50380  -0.20924  -0.25650
  -0.63848  -0.13442  -0.55578
  -0.59359  -0.32895  -0.79520
  -0.47388  -0.35888  -0.82512
  -0.47388  -0.34391  -0.81016
  -0.44395  -0.32895  -1.04958
  -0.54869  -0.32895  -1.36382
  -0.47388  -0.34391  -1.42367
  -0.38409  -0.17931  -1.49849
  -0.53373  -0.26910  -1.57331
  -0.51877  -0.34391  -1.66310
  -0.51877  -0.14939  -1.63317
  -0.63848  -0.23917  -1.72295
  -0.38409  -0.37384  -1.75288
  -0.51877  -0.17931  -1.60324
  -0.74322   0.10500  -1.46857
  -0.56366  -0.16435  -1.45360
  -0.60855  -0.49355  -1.42367
  -0.68337  -0.46363  -1.55835
  -0.45891  -0.08953  -1.52842
  -0.35417   0.04514  -1.40871
  -0.33920   0.06011  -1.22915
  -0.48884  -0.20924  -1.15433
  -0.44395  -0.31399  -1.06454
  -0.57862  -0.32895  -0.97476
  -0.56366  -0.32895  -0.84009
  -0.59359  -0.34391  -0.75031
  -0.89286  -0.31399  -0.72038
  -1.01257  -0.53844  -0.60067
  -1.13228  -0.50852  -0.46599
  -0.98264  -0.34391  -0.25650
  -1.01257  -0.22420  -0.15176
  -0.99761  -0.08953   0.02781
  -1.13228  -0.13442   0.07270
  -1.14724  -0.05960   0.34205
  -1.13228   0.04514   0.50665
  -1.14724   0.06011   0.77600
  -1.35674   0.10500   1.00045
  -1.19214   0.23967   1.18002
  -1.11732   0.44916   1.10520
  -1.31185   0.40427   1.35958
  -1.32681   0.44916   1.62893
  -1.26695   0.22471   1.29973
  -1.32681   0.07507   1.74864
  -1.44652   0.52398   2.12274
  -0.90782   0.32945   2.00303
  -0.92279  -0.13442   2.03295
  -0.95272   0.11996   2.33223
  -0.78811   0.44916   2.70632
  -0.57862   0.38931   2.81107
  -0.80308   0.20974   2.94574
  -0.71330   0.11996   3.14027
  -0.27935   0.20974   2.93078
  -0.23446   0.52398   3.20013
  -0.32424   0.50902   3.18516
  -0.30927   0.52398   2.87092
  -0.21949   0.43420   2.43698
   0.01993   0.58384   2.22748
   0.15460   0.59880   2.24245
   0.24439   0.62873   2.07784
   0.30424   0.44916   1.67382
   0.39402   0.70355   1.59900
   0.51373   0.62873   1.22491
   0.51373   0.59880   1.00045
   0.84294   0.49406   0.80593
   1.05243   0.65866   0.86578
   1.03746   0.74844   0.68622
   1.02250   0.37435   0.38694
   1.33674   0.44916   0.28219
   1.66594   0.35938   0.14752
   1.75573   0.46413   0.05774
   1.75573   0.47909  -0.34628
   1.98018   0.29953  -0.54081
   2.11486   0.46413  -0.55578
   2.29442   0.34442  -0.70541
   2.44406   0.06011  -1.24411
   2.54880   0.04514  -1.42367
   2.59370   0.07507  -1.52842
   2.78822   0.04514  -1.61820
   2.87801  -0.23917  -1.46857
   2.69844  -0.50852  -1.66310
   2.87801  -0.50852  -1.70799
   3.02764  -0.32895  -1.61820
   2.81815  -0.55341  -1.79777
   2.48895  -0.85268  -1.66310
   2.36924  -0.91254  -1.37878
   2.53384  -0.83772  -1.36382
   2.27946  -0.82276  -1.45360
   1.83054  -0.68808  -1.46857
   1.54623  -0.79283  -1.63317
   1.42652  -0.56837  -1.48353
   1.05243  -0.31399  -1.21418
   0.79804  -0.31399  -0.92987
   0.51373  -0.46363  -0.88498
   0.37906  -0.37384  -1.04958
   0.34913  -0.26910  -0.73534
   0.24439  -0.25413  -0.40614
  -0.12971   0.03018  -0.09190
  -0.35417  -0.16435   0.04277
  -0.38409  -0.29902  -0.24154
  -0.59359   0.03018  -0.28643
  -0.69833   2.5E-40  -0.31636
  -0.90782   0.04514  -0.09190
  -1.22206  -0.01471   0.08766
  -1.35674  -0.01471  -0.00212
  -1.65601  -0.20924  -0.31636
  -1.79069  -0.37384  -0.15176
  -2.04507  -0.32895   0.02781
  -2.10493  -0.41873   0.13256
  -2.26953  -0.46363   0.40190
  -2.38924  -0.23917   0.43183
  -2.58377  -0.26910   0.14752
  -2.68851  -0.40377   0.01285
  -2.58377  -0.14939   0.11759
  -2.64362   0.19478   0.16248
  -2.82319   0.31449   0.11759
  -2.85311   0.09003   0.16248
  -2.55384   0.23967   0.14752
  -2.44909   0.40427   0.04277
  -2.49398   0.56887   0.16248
  -2.43413   0.31449   0.11759
  -2.43413   0.06011   0.08766
  -2.08996   0.28456   0.32709
  -1.89543   0.41924   0.23730
  -1.71587   0.34442   0.10263
  -1.55127   0.13493   0.04277
  -1.34177  -0.01471  -0.00212
  -1.07243  -0.13442  -0.01708
  -0.74322   0.13493   0.07270
  -0.53373   0.13493  -0.06197
  -0.30927  -0.08953   0.08766
  -0.01000  -0.23917  -0.00212
   0.36410  -0.19428  -0.00212
   0.64841  -0.29902  -0.10686
   1.03746  -0.26910   0.16248
   1.12725  -0.17931  -0.03205
   1.15717  -0.32895   0.10263
   1.47141  -0.29902   0.14752
   1.68091  -0.14939   0.05774
   1.81558  -0.07457  -0.18168
   1.74076  -0.08953  -0.15176
   1.68091  -0.07457  -0.15176
   1.77069  -0.08953  -0.22657
   2.05500  -0.04464  -0.22657
   1.86047  -0.16435  -0.19665
   1.68091  -0.25413  -0.28643
   1.60609  -0.38881  -0.37621
   1.77069  -0.20924  -0.15176
   1.69587  -0.28406  -0.34628
   1.56120  -0.55341  -0.34628
   1.39659  -0.49355  -0.40614
   1.33674  -0.40377  -0.45103
   1.26192  -0.20924  -0.37621
   1.14221  -0.13442  -0.30139
   1.11228  -0.28406  -0.15176
   1.12725  -0.26910  -0.10686
   1.03746  -0.19428   0.01285
   0.91775  -0.16435   0.02781
   1.15717  -0.19428   0.13256
   1.11228   0.20974   0.34205
   1.08236   0.17982   0.41687
   0.88783   0.20974   0.52161
   0.85790   0.25464   0.62636
   0.94768   0.38931   0.58147
   0.87286   0.38931   0.67125
   0.64841   0.34442   0.70118
   0.36410   0.37435   0.68622
   0.12468   0.46413   0.73111
  -0.08482   0.26960   0.61140
  -0.18956   0.14989   0.58147
  -0.38409   0.13493   0.52161
  -0.42898   0.14989   0.49169
  -0.36913   0.09003   0.55154
  -0.48884   0.13493   0.32709
  -0.38409  -0.08953   0.25227
  -0.27935   2.5E-40   0.11759
  -0.26438  -0.02968   0.23730
  -0.02496   0.01522   0.17745
  -0.03993  -0.13442   0.17745
  -0.12971  -0.05960   0.07270
  -0.21949  -0.13442   0.01285
  -0.39906  -0.02968   0.16248
  -0.60855  -0.04464  -0.07694
  -0.63848  -0.10449   0.01285
  -0.62351  -0.08953   0.10263
  -0.75819  -0.13442   0.08766
  -0.93775  -0.05960  -0.06197
  -0.92279   0.03018  -0.12183
  -0.81804   0.11996   0.04277
  -0.86293   0.13493  -0.01708
  -0.83301   0.10500  -0.10686
  -0.80308   0.01522  -0.06197
  -0.84797   0.25464  -0.01708
  -0.87790   0.34442  -0.01708
  -1.11732   0.38931   0.14752
  -1.11732   0.32945   0.11759
  -1.10235   0.16485   0.28219
  -1.07243   0.37435   0.26723
  -1.35674   0.16485   0.01285
  -1.05746   0.07507   0.11759
  -1.23703   0.20974   0.22234
  -1.47645   0.37435   0.02781
  -1.55127   0.06011   0.02781
