********************************************************************************
              CENTRO DE INSTRUMENTACION Y REGISTRO SISMICO  A.C.

    Anaxagoras 814, Col. Narvarte, Benito Juarez, C.P. 03020 Mexico, D.F.
           Tels. 5687 45 42/ 5687 45  82             Fax. 5669 25 12
********************************************************************************
ARCHIVO ESTANDAR DE ACELERACION:
VERSION DEL FORMATO                    : 2.0
NOMBRE DEL ARCHIVO                     : AU4620070413084350
FECHA Y HORA DE CREACION               : 24/ABR/07, 13:34
REF. CATALOGO ACELEROGRAMAS, SMIS 1996 : REGISTRO No.     /PAG.


================================================================================
DATOS DE LA ESTACION:
NOMBRE DE LA ESTACION                  : ESC. SEC. TÉC. NO. 14
CLAVE DE LA ESTACION                   : AU46
LOCALIZACION DE LA ESTACION            : Del. Benito Juárez, Col. del Valle,    
                                       : Entre Angel Urraza y Coyoacán.         
                                       :                                        
                                       :                                        
                                       : 
COORDENADAS DE LA ESTACION             : 19.3832 LAT. N
                                       : 99.1681 LONG. W
ALTITUD (msnm)                         : 2233
TIPO DE SUELO                          : Transición                          
                                       :                           
                                       : 
INSTITUCION RESPONSABLE                : CIRES
                                       : 

================================================================================
DATOS DEL ACELEROGRAFO:
MODELO DEL ACELEROGRAFO                : RADESD
NUMERO DE SERIE DEL ACELEROGRAFO       : 236
NUMERO DE CANALES                      : 3
ORIENTACION C1-C6 (rumbo;orientacion)  : /N00E/+V/N90W
ORIENTACION C7-C12 (rumbo;orientacion) : 
VEL. DE MUESTREO, C1-C6 (muestras/s)   : /100/100/100
VEL. DE MUESTREO, C7-C12 (muestras/s)  : 
ESC. COMPLETA DE SENSORES, C1-C6, (g)  : /0.5/0.5/0.5
ESC. COMPLETA DE SENSORES, C7-C12, (g) : 
FREC. NAT. DE SENSORES, C1-C6, (Hz)    : /33/30/30
FREC. NAT. DE SENSORES, C7-C12, (Hz)   : 
AMORTIGUAMIENTO DE SENSORES, C1-C6     : /0.735/0.733/0.730
AMORTIGUAMIENTO DE SENSORES, C7-C12    : 
INTERVALO DE MUESTREO, C1-C6, (s)      : /0.01/0.01/0.01
INTERVALO DE MUESTREO, C7-C12, (s)     : 
UMBRAL DE DISPARO, C1-C6, (Gal)        : /3.11/5.51/3.35
UMBRAL DE DISPARO, C7-C12, (Gal)       : 
MEMORIA DE PREEVENTO (s)               : 56.0
TIEMPO DE POSEVENTO (s)                : 64.0


================================================================================
DATOS DEL SISMO:
FECHA DEL SISMO (GMT)                  : 13/ABR/07
HORA EPICENTRO (GMT)                   : 08:43:50.0
MAGNITUD(ES)                           : /Me=5.4
COORDENADAS DEL EPICENTRO              : 16.97 LAT. N
                                       : 100.27 LONG. W
PROFUNDIDAD FOCAL (km)                 : 10
FUENTE DE LOS DATOS EPICENTRALES       : SSN
                                       : INSTITUTO DE GEOFISICA, UNAM

================================================================================
DATOS DE ESTE REGISTRO:
HORA DE LA PRIMERA MUESTRA (GMT)       : 08:45:07.00
EXACTITUD DEL TIEMPO (s)               : 0.01
DURACION DEL REGISTRO (s), C1-C6       : /130.25/130.25/130.25
DURACION DEL REGISTRO (s), C7-C12      : 
NUM. TOTAL DE MUESTRAS, C1-C6          : /13025/13025/13025
NUM. TOTAL DE MUESTRAS, C7-C12         : 
ACEL. MAX. (Gal), C1-C6                : /3.83072/0.95768/5.50666
ACEL. MAX., C1-C6, EN LA MUESTRA       : /6229/3136/6141
ACEL. MAX. (Gal), C7-C12               : 
ACEL. MAX., C7-C12, EN LA MUESTRA      : 
UNIDADES DE LOS DATOS                  : Gal (cm/s/s)
FACTOR DE DECIMACION                   : 1
FORMATO DATOS (FORTRAN,10 campos/dato) : 3F10.5


================================================================================
CALIDAD DEL ACELEROGRAMA:
REGISTRO DIGITAL COMPLETO CON TIEMPO ABSOLUTO CORRECTO.


================================================================================
COMENTARIOS:














================================================================================
DATOS DE ACELERACION:
---------+---------+---------+---------+---------+---------+---------+---------+
   CANAL-1   CANAL-2   CANAL-3   CANAL-4   CANAL-5   CANAL-6   CANAL-7   CANAL-8
      N00E        +V      N90W
---------+---------+---------+---------+---------+---------+---------+---------+
[...]
  -0.95768   0.23942   1.91536
  -0.95768   0.23942   1.91536
  -0.95768   0.00000   1.67594
  -0.95768   0.00000   1.43652
  -0.95768   0.00000   1.43652
  -0.71826  -0.23942   1.19710
  -0.71826   0.00000   0.95768
  -0.71826   0.00000   0.95768
  -0.71826   0.00000   0.71826
  -0.71826   0.00000   0.47884
  -0.71826   0.00000   0.47884
  -0.47884   0.00000   0.23942
  -0.47884   0.23942   0.00000
  -0.47884   0.00000   0.00000
  -0.47884   0.00000  -0.23942
  -0.47884   0.00000  -0.23942
  -0.47884   0.00000  -0.23942
  -0.47884   0.00000  -0.47884
  -0.47884   0.00000  -0.71826
  -0.47884   0.00000  -0.71826
  -0.47884   0.00000  -0.95768
  -0.71826  -0.23942  -0.95768
  -0.71826  -0.23942  -0.95768
  -0.95768  -0.23942  -0.95768
  -0.71826  -0.23942  -1.19710
  -0.71826  -0.47884  -1.19710
  -0.71826  -0.71826  -1.19710
  -0.47884  -0.71826  -1.19710
  -0.47884  -0.47884  -1.19710
  -0.47884  -0.71826  -1.19710
  -0.47884  -0.71826  -1.43652
  -0.47884  -0.47884  -1.19710
  -0.23942  -0.71826  -1.19710
   0.00000  -0.71826  -1.43652
   0.00000  -0.47884  -1.43652
   0.23942  -0.71826  -1.43652
   0.23942  -0.71826  -1.43652
   0.47884  -0.71826  -1.67594
   0.23942  -0.47884  -1.67594
   0.47884  -0.47884  -1.67594
   0.47884  -0.47884  -1.67594
   0.47884   0.00000  -1.67594
   0.47884  -0.23942  -1.67594
   0.47884   0.00000  -1.43652
   0.71826   0.23942  -1.43652
   0.71826   0.23942  -1.19710
   0.71826   0.23942  -1.19710
   0.71826   0.23942  -1.19710
   0.95768   0.23942  -1.19710
   1.19710   0.00000  -0.95768
   1.19710   0.23942  -0.95768
   1.43652   0.23942  -0.71826
   1.43652   0.00000  -0.47884
   1.43652   0.00000  -0.23942
   1.67594   0.00000  -0.23942
   1.91536   0.00000   0.00000
   1.91536   0.00000   0.00000
   2.15478   0.00000   0.23942
   2.39420   0.00000   0.00000
   2.39420   0.00000   0.00000
   2.39420   0.00000   0.00000
   2.39420   0.00000   0.00000
   2.63362   0.00000   0.00000
   2.63362  -0.23942   0.00000
   2.63362   0.00000   0.00000
   2.63362   0.00000   0.23942
   2.63362  -0.23942   0.23942
   2.39420  -0.23942   0.47884
   2.39420  -0.23942   0.47884
   2.15478   0.00000   0.71826
   1.91536   0.00000   0.95768
   1.91536  -0.23942   0.95768
   1.67594   0.00000   1.19710
   1.43652   0.00000   1.19710
   1.19710   0.23942   1.19710
   1.19710   0.00000   1.19710
   0.95768   0.23942   1.43652
   0.95768   0.00000   1.43652
   0.71826   0.23942   1.43652
   0.71826   0.23942   1.67594
   0.47884   0.23942   1.91536
   0.23942   0.00000   1.91536
   0.00000   0.23942   2.15478
   0.00000   0.00000   2.15478
  -0.23942   0.00000   2.15478
  -0.47884   0.23942   2.39420
  -0.47884   0.00000   2.63362
  -0.47884   0.00000   2.63362
  -0.95768   0.00000   2.63362
  -0.95768   0.00000   2.63362
  -0.95768   0.00000   2.63362
  -1.19710  -0.23942   2.63362
  -1.19710   0.00000   2.63362
  -1.19710  -0.23942   2.63362
  -1.43652  -0.23942   2.63362
  -1.43652  -0.23942   2.63362
  -1.43652  -0.23942   2.63362
  -1.43652  -0.23942   2.63362
  -1.43652  -0.23942   2.39420
  -1.67594  -0.23942   2.15478
  -1.67594  -0.23942   2.15478
  -1.67594  -0.23942   1.91536
  -1.91536  -0.23942   1.67594
  -2.15478   0.00000   1.19710
  -2.15478  -0.23942   1.19710
  -2.15478   0.00000   1.19710
  -1.91536   0.00000   0.95768
  -1.91536   0.00000   0.71826
  -1.91536   0.00000   0.71826
  -1.91536   0.00000   0.47884
  -1.91536   0.23942   0.47884
  -1.67594   0.00000   0.23942
  -1.91536   0.47884   0.23942
  -1.67594   0.23942   0.00000
  -1.67594   0.23942  -0.23942
  -1.43652   0.00000  -0.47884
  -1.43652   0.00000  -0.47884
  -1.19710   0.00000  -0.95768
  -1.19710   0.00000  -1.19710
  -1.43652   0.00000  -0.95768
  -1.19710   0.00000  -1.19710
  -1.19710   0.00000  -1.43652
  -1.19710  -0.23942  -1.67594
  -1.19710   0.00000  -1.67594
  -1.19710  -0.23942  -2.15478
  -1.19710  -0.23942  -2.15478
  -1.19710  -0.23942  -2.15478
  -0.95768  -0.23942  -2.15478
  -0.95768  -0.47884  -2.39420
  -0.95768  -0.47884  -2.39420
  -0.95768  -0.23942  -2.39420
  -0.95768  -0.23942  -2.63362
  -0.95768  -0.23942  -2.63362
  -0.95768  -0.23942  -2.63362
  -0.95768  -0.23942  -2.87304
  -1.19710  -0.23942  -2.63362
  -0.95768  -0.23942  -2.63362
  -0.95768  -0.23942  -2.87304
  -0.95768  -0.23942  -2.87304
  -1.19710  -0.47884  -2.63362
  -1.19710  -0.47884  -2.39420
  -1.19710  -0.23942  -2.15478
  -1.19710  -0.23942  -1.91536
  -0.95768  -0.47884  -1.91536
  -0.95768  -0.47884  -1.67594
  -0.95768  -0.23942  -1.67594
  -0.71826  -0.47884  -1.43652
  -0.71826  -0.47884  -1.43652
  -0.71826  -0.47884  -1.19710
  -0.47884  -0.23942  -1.19710
  -0.23942  -0.47884  -1.19710
  -0.23942  -0.23942  -1.19710
  -0.23942   0.00000  -0.95768
  -0.23942   0.00000  -0.95768
   0.00000   0.00000  -0.71826
   0.00000   0.00000  -0.71826
   0.00000   0.00000  -0.47884
   0.00000   0.23942  -0.23942
   0.23942   0.23942  -0.23942
   0.47884   0.00000   0.00000
   0.47884   0.23942   0.23942
   0.47884   0.23942   0.23942
   0.71826   0.23942   0.00000
   0.71826   0.23942   0.23942
   0.71826   0.00000   0.23942
   0.95768   0.00000   0.47884
   0.95768   0.00000   0.47884
   1.19710   0.00000   0.47884
   1.43652   0.00000   0.47884
   1.43652   0.00000   0.71826
   1.67594   0.00000   0.71826
   1.91536   0.23942   0.71826
   2.15478   0.00000   0.95768
   2.15478   0.00000   1.19710
   2.39420   0.00000   1.19710
   2.39420   0.00000   1.19710
   2.63362   0.23942   1.43652
   2.63362   0.23942   1.19710
   2.63362   0.23942   1.43652
   2.63362   0.23942   1.43652
   2.63362   0.00000   1.43652
   2.63362   0.23942   1.43652
   2.63362   0.00000   1.43652
   2.63362   0.00000   1.19710
   2.63362   0.00000   1.19710
   2.39420  -0.23942   1.19710
   2.39420   0.00000   1.19710
   2.39420  -0.23942   1.43652
   1.91536  -0.23942   1.43652
   2.15478  -0.47884   1.43652
   1.91536  -0.71826   1.67594
   1.91536  -0.47884   1.67594
   1.67594  -0.71826   1.67594
   1.67594  -0.71826   1.67594
   1.43652  -0.71826   1.91536
   1.43652  -0.71826   1.67594
   1.19710  -0.47884   1.43652
   0.95768  -0.47884   1.67594
   0.71826  -0.47884   1.43652
   0.71826  -0.47884   1.19710
   0.47884  -0.23942   1.19710
   0.47884  -0.47884   0.95768
   0.47884  -0.23942   0.71826
   0.23942  -0.23942   0.47884
   0.23942  -0.23942   0.23942
   0.23942  -0.23942   0.00000
   0.23942   0.00000   0.00000
   0.00000  -0.23942  -0.47884
  -0.23942  -0.23942  -0.47884
  -0.23942  -0.23942  -0.71826
  -0.47884   0.00000  -0.71826
  -0.71826  -0.23942  -0.95768
  -0.95768   0.00000  -1.19710
  -1.19710   0.00000  -1.19710
  -1.19710   0.00000  -1.43652
  -1.19710   0.00000  -1.43652
  -1.43652   0.00000  -1.67594
  -1.43652   0.00000  -1.91536
  -1.43652   0.00000  -1.91536
  -1.43652   0.00000  -1.91536
  -1.43652   0.00000  -1.91536
  -1.43652   0.00000  -2.15478
  -1.67594   0.00000  -2.15478
  -1.91536   0.00000  -2.15478
  -1.91536  -0.23942  -2.15478
  -1.91536  -0.23942  -2.15478
  -1.91536  -0.23942  -2.15478
  -1.91536   0.00000  -2.15478
  -1.91536   0.00000  -1.91536
  -1.91536   0.00000  -1.91536
  -1.91536  -0.23942  -1.91536
  -1.67594  -0.23942  -1.91536
  -1.43652  -0.23942  -1.67594
  -1.43652  -0.47884  -1.67594
  -1.19710  -0.47884  -1.43652
  -1.19710  -0.47884  -1.19710
  -1.19710  -0.23942  -0.95768
  -1.19710  -0.23942  -0.47884
  -0.95768  -0.23942  -0.47884
  -1.19710  -0.23942   0.00000
  -0.95768   0.00000   0.23942
  -0.95768  -0.23942   0.47884
  -1.19710   0.00000   0.95768
  -0.95768   0.00000   0.95768
  -0.95768   0.00000   0.95768
  -0.71826   0.00000   1.43652
  -0.95768   0.00000   1.43652
  -0.71826   0.00000   1.67594
  -0.47884   0.23942   1.67594
  -0.47884   0.00000   1.91536
  -0.23942   0.00000   1.91536
  -0.23942   0.23942   1.91536
   0.00000   0.23942   2.15478
   0.00000   0.00000   2.15478
   0.23942   0.00000   2.15478
   0.23942   0.00000   2.39420
   0.47884  -0.23942   2.63362
   0.47884   0.00000   2.39420
   0.71826   0.00000   2.63362
   0.95768  -0.23942   2.63362
   0.95768  -0.23942   2.63362
   1.19710   0.00000   2.87304
   1.43652  -0.23942   2.87304
   1.43652   0.00000   2.87304
   1.67594  -0.23942   2.87304
   1.67594  -0.23942   2.87304
   1.67594   0.00000   2.87304
   1.67594   0.00000   2.87304
   1.67594   0.00000   2.63362
   1.67594   0.00000   2.63362
   1.43652   0.00000   2.63362
   1.43652   0.23942   2.15478
   1.43652   0.23942   2.15478
   1.43652   0.23942   1.67594
   1.19710   0.23942   1.43652
   1.19710   0.23942   1.43652
   1.19710   0.23942   0.95768
   0.95768   0.23942   0.71826
   0.95768   0.23942   0.23942
   0.71826   0.23942   0.23942
   0.71826   0.23942  -0.23942
   0.47884   0.23942  -0.47884
   0.47884   0.23942  -0.71826
   0.23942   0.00000  -0.95768
   0.00000  -0.23942  -1.43652
  -0.23942  -0.23942  -1.43652
  -0.47884  -0.23942  -1.67594
  -0.71826  -0.47884  -1.91536
  -0.95768  -0.23942  -2.15478
  -0.95768  -0.23942  -2.39420
  -1.19710  -0.23942  -2.63362
  -1.43652  -0.23942  -2.87304
  -1.43652  -0.23942  -2.87304
  -1.67594  -0.23942  -3.11246
  -1.91536   0.00000  -3.11246
  -1.91536   0.00000  -3.35188
  -1.91536   0.00000  -3.35188
  -2.15478   0.23942  -3.35188
  -2.15478   0.23942  -3.59130
  -2.39420   0.00000  -3.83072
  -2.15478   0.00000  -3.59130
  -2.39420   0.00000  -3.83072
  -2.15478   0.00000  -3.83072
  -2.15478   0.00000  -4.07014
  -1.91536  -0.23942  -3.83072
  -1.91536   0.00000  -3.83072
  -1.91536   0.00000  -3.59130
  -1.67594   0.00000  -3.83072
  -1.67594   0.00000  -3.59130
  -1.43652   0.00000  -3.35188
  -1.19710   0.00000  -3.59130
  -0.95768   0.00000  -3.35188
  -0.95768   0.00000  -3.11246
  -0.71826   0.00000  -3.11246
  -0.47884   0.00000  -2.63362
  -0.47884   0.00000  -2.63362
  -0.47884   0.00000  -2.39420
  -0.23942   0.00000  -1.91536
  -0.23942   0.00000  -1.91536
   0.00000   0.00000  -1.67594
   0.00000   0.00000  -1.43652
   0.23942   0.00000  -1.19710
   0.47884   0.00000  -0.71826
   0.47884  -0.23942  -0.47884
   0.47884  -0.23942   0.00000
   0.47884  -0.23942   0.23942
   0.47884  -0.23942   0.71826
   0.71826  -0.23942   0.95768
   0.71826  -0.47884   1.19710
   0.71826  -0.47884   1.43652
   0.71826  -0.47884   1.91536
   0.71826  -0.71826   2.15478
   0.71826  -0.47884   2.63362
   0.95768  -0.71826   2.87304
   0.95768  -0.71826   3.11246
   0.95768  -0.71826   3.35188
   1.19710  -0.71826   3.83072
   1.19710  -0.71826   4.07014
   1.43652  -0.71826   4.30956
   1.67594  -0.71826   4.54898
   1.67594  -0.47884   4.78840
   1.91536  -0.23942   5.02782
   1.91536  -0.23942   5.02782
   1.91536  -0.23942   5.26724
   2.15478  -0.23942   5.26724
   2.15478   0.00000   5.26724
   2.15478   0.00000   5.50666
   2.15478   0.00000   5.26724
   2.15478   0.23942   5.26724
   2.15478   0.23942   5.26724
   2.15478   0.23942   5.02782
   2.15478   0.23942   4.78840
   2.15478   0.00000   4.78840
   2.39420   0.00000   4.54898
   2.15478   0.00000   4.54898
   2.15478   0.00000   4.07014
   2.15478   0.00000   4.07014
   1.91536  -0.23942   3.59130
   1.91536   0.00000   3.11246
   1.67594  -0.23942   2.87304
   1.43652   0.00000   2.63362
   1.43652   0.00000   2.15478
   1.19710   0.23942   1.91536
   0.95768   0.23942   1.67594
   0.95768   0.23942   0.95768
   0.71826   0.47884   0.47884
   0.71826   0.47884   0.00000
   0.47884   0.47884  -0.23942
   0.47884   0.47884  -0.47884
   0.23942   0.47884  -0.95768
   0.00000   0.71826  -1.19710
   0.00000   0.47884  -1.43652
  -0.23942   0.47884  -1.67594
  -0.23942   0.23942  -1.91536
  -0.47884   0.23942  -2.15478
  -0.71826   0.00000  -2.39420
  -0.95768   0.00000  -2.87304
  -1.19710  -0.23942  -3.11246
  -1.19710  -0.23942  -3.11246
  -1.43652  -0.47884  -3.35188
  -1.67594  -0.47884  -3.83072
  -1.91536  -0.47884  -4.07014
  -2.15478  -0.23942  -4.07014
  -2.15478  -0.71826  -4.07014
  -2.39420  -0.71826  -4.30956
  -2.63362  -0.71826  -4.07014
  -2.87304  -0.71826  -4.07014
  -2.63362  -0.71826  -3.83072
  -2.87304  -0.71826  -3.83072
  -3.11246  -0.47884  -3.59130
  -3.11246  -0.47884  -3.59130
  -3.11246  -0.47884  -3.59130
  -3.35188  -0.23942  -3.35188
  -3.35188  -0.47884  -3.35188
  -3.35188  -0.23942  -3.35188
  -3.35188  -0.23942  -3.11246
  -3.35188  -0.23942  -3.11246
  -3.35188  -0.23942  -3.11246
  -3.35188  -0.23942  -2.87304
  -3.35188  -0.23942  -2.63362
  -3.35188  -0.23942  -2.87304
  -3.35188  -0.23942  -2.63362
  -3.35188  -0.23942  -2.63362
  -3.35188  -0.23942  -2.63362
  -3.35188  -0.23942  -2.39420
  -3.11246  -0.23942  -2.39420
  -3.35188  -0.23942  -2.15478
  -2.87304  -0.23942  -1.91536
  -2.63362   0.00000  -1.67594
  -2.39420   0.00000  -1.43652
  -2.15478   0.00000  -1.43652
  -1.91536  -0.23942  -0.95768
  -1.43652  -0.23942  -0.71826
  -1.19710  -0.23942  -0.47884
  -0.95768   0.00000   0.00000
  -0.71826   0.00000   0.23942
  -0.47884   0.00000   0.47884
  -0.23942   0.00000   0.71826
   0.00000   0.00000   0.95768
   0.47884   0.00000   1.19710
   0.71826   0.00000   1.67594
   0.95768   0.00000   1.67594
   1.19710   0.23942   1.91536
   1.43652   0.23942   2.39420
   1.91536   0.23942   2.39420
   2.15478   0.23942   2.63362
   2.39420   0.23942   2.87304
   2.63362   0.23942   3.11246
   2.87304   0.23942   3.35188
   3.11246   0.23942   3.35188
   3.35188   0.23942   3.35188
   3.35188   0.00000   3.59130
   3.59130   0.00000   3.59130
   3.59130   0.00000   3.59130
   3.83072   0.00000   3.59130
   3.83072   0.23942   3.35188
   3.83072   0.00000   3.11246
   3.59130   0.00000   3.11246
   3.83072   0.00000   2.87304
   3.59130   0.23942   2.87304
   3.59130   0.23942   2.63362
   3.35188   0.23942   2.39420
   3.35188   0.47884   2.15478
   3.11246   0.23942   1.91536
   2.87304   0.47884   1.91536
   2.87304   0.47884   1.67594
   2.63362   0.23942   1.43652
   2.39420   0.47884   1.19710
   2.39420   0.00000   0.95768
   2.39420   0.00000   0.71826
   2.15478   0.23942   0.71826
   1.91536   0.00000   0.47884
   1.91536  -0.23942   0.00000
   1.67594  -0.23942  -0.23942
   1.67594  -0.23942  -0.47884
   1.43652  -0.47884  -0.47884
   1.19710  -0.47884  -0.71826
   0.95768  -0.23942  -0.95768
   0.71826  -0.47884  -0.95768
   0.23942  -0.47884  -0.95768
   0.23942  -0.23942  -1.19710
   0.00000  -0.47884  -1.19710
  -0.23942  -0.47884  -1.19710
  -0.47884  -0.23942  -1.19710
  -0.47884  -0.23942  -1.43652
  -0.71826  -0.23942  -1.43652
  -0.95768  -0.23942  -1.19710
  -0.95768  -0.23942  -1.43652
  -1.19710  -0.23942  -1.43652
  -1.43652   0.00000  -1.43652
  -1.43652   0.00000  -1.19710
  -1.67594   0.00000  -1.43652
  -1.91536   0.00000  -1.43652
  -1.91536   0.00000  -1.19710
  -2.15478   0.00000  -1.43652
  -2.15478   0.00000  -1.43652
  -1.91536   0.00000  -1.19710
  -2.15478   0.00000  -1.19710
  -2.15478   0.00000  -1.43652
  -2.15478   0.00000  -1.19710
  -2.15478   0.00000  -1.19710
  -2.15478   0.00000  -0.95768
  -2.39420   0.00000  -0.95768
  -2.15478   0.00000  -0.95768
  -2.39420  -0.23942  -0.71826
  -2.15478  -0.23942  -0.71826
  -2.39420  -0.23942  -0.47884
  -2.39420  -0.23942  -0.47884
  -2.39420  -0.23942  -0.47884
  -2.15478  -0.23942  -0.23942
  -2.15478  -0.23942  -0.23942
  -2.15478  -0.23942   0.00000
  -1.91536  -0.23942   0.00000
  -1.91536   0.00000   0.00000
  -1.91536   0.00000   0.23942
  -1.67594   0.23942   0.23942
