********************************************************************************
              CENTRO DE INSTRUMENTACION Y REGISTRO SISMICO  A.C.

    Anaxagoras 814, Col. Narvarte, Benito Juarez, C.P. 03020 Mexico, D.F.
           Tels. 5687 45 42/ 5687 45  82             Fax. 5669 25 12
********************************************************************************
ARCHIVO ESTANDAR DE ACELERACION:
VERSION DEL FORMATO                    : 2.0
NOMBRE DEL ARCHIVO                     : AU4620170919181440
FECHA Y HORA DE CREACION               : 09/FEB/18, 11:13
REF. CATALOGO ACELEROGRAMAS, SMIS 1996 : REGISTRO No.     /PAG.


================================================================================
DATOS DE LA ESTACION:
NOMBRE DE LA ESTACION                  : ESC. SEC. TÉC. NO. 14
CLAVE DE LA ESTACION                   : AU46
LOCALIZACION DE LA ESTACION            : Del. Benito Juárez, Col. del Valle,    
                                       : Entre Angel Urraza y Coyoacán.         
                                       :                                        
                                       :                                        
                                       : 
COORDENADAS DE LA ESTACION             : 19.3832 LAT. N
                                       : 99.1681 LONG. W
ALTITUD (msnm)                         : 2233
TIPO DE SUELO                          : Transición                          
                                       :                           
                                       : 
INSTITUCION RESPONSABLE                : CIRES
                                       : 

================================================================================
DATOS DEL ACELEROGRAFO:
MODELO DEL ACELEROGRAFO                : RADESD
NUMERO DE SERIE DEL ACELEROGRAFO       : 236
NUMERO DE CANALES                      : 3
ORIENTACION C1-C6 (rumbo;orientacion)  : /N00E/+V/N90W
ORIENTACION C7-C12 (rumbo;orientacion) : 
VEL. DE MUESTREO, C1-C6 (muestras/s)   : /100/100/100
VEL. DE MUESTREO, C7-C12 (muestras/s)  : 
ESC. COMPLETA DE SENSORES, C1-C6, (g)  : /0.5/0.5/0.5
ESC. COMPLETA DE SENSORES, C7-C12, (g) : 
FREC. NAT. DE SENSORES, C1-C6, (Hz)    : /33/30/30
FREC. NAT. DE SENSORES, C7-C12, (Hz)   : 
AMORTIGUAMIENTO DE SENSORES, C1-C6     : /0.735/0.733/0.730
AMORTIGUAMIENTO DE SENSORES, C7-C12    : 
INTERVALO DE MUESTREO, C1-C6, (s)      : /0.01/0.01/0.01
INTERVALO DE MUESTREO, C7-C12, (s)     : 
UMBRAL DE DISPARO, C1-C6, (Gal)        : /1.35/4.49/1.5
UMBRAL DE DISPARO, C7-C12, (Gal)       : 
MEMORIA DE PREEVENTO (s)               : 44.0
TIEMPO DE POSEVENTO (s)                : 288.0


================================================================================
DATOS DEL SISMO:
FECHA DEL SISMO (GMT)                  : 19/SEP/17
HORA EPICENTRO (GMT)                   : 18:14:40.0
MAGNITUD(ES)                           : /Mc=7.1
COORDENADAS DEL EPICENTRO              : 18.40 LAT. N
                                       : 98.72 LONG. W
PROFUNDIDAD FOCAL (km)                 : 57
FUENTE DE LOS DATOS EPICENTRALES       : SSN
                                       : INSTITUTO DE GEOFISICA, UNAM

================================================================================
DATOS DE ESTE REGISTRO:
HORA DE LA PRIMERA MUESTRA (GMT)       : 18:14:14.00
EXACTITUD DEL TIEMPO (s)               : 0.01
DURACION DEL REGISTRO (s), C1-C6       : /278.0/278.0/278.0
DURACION DEL REGISTRO (s), C7-C12      : 
NUM. TOTAL DE MUESTRAS, C1-C6          : /27800/27800/27800
NUM. TOTAL DE MUESTRAS, C7-C12         : 
ACEL. MAX. (Gal), C1-C6                : /77.2866/33.44356/94.89166
ACEL. MAX., C1-C6, EN LA MUESTRA       : /6997/6419/6488
ACEL. MAX. (Gal), C7-C12               : 
ACEL. MAX., C7-C12, EN LA MUESTRA      : 
UNIDADES DE LOS DATOS                  : Gal (cm/s/s)
FACTOR DE DECIMACION                   : 1
FORMATO DATOS (FORTRAN,10 campos/dato) : 3F10.5


================================================================================
CALIDAD DEL ACELEROGRAMA:
REGISTRO DIGITAL COMPLETO CON TIEMPO ABSOLUTO CORRECTO.


================================================================================
COMENTARIOS:














================================================================================
DATOS DE ACELERACION:
---------+---------+---------+---------+---------+---------+---------+---------+
   CANAL-1   CANAL-2   CANAL-3   CANAL-4   CANAL-5   CANAL-6   CANAL-7   CANAL-8
      N00E        +V      N90W
---------+---------+---------+---------+---------+---------+---------+---------+
[...]
 -10.08435   7.94620  -4.27112
 -10.27888   9.77178  -5.33355
 -10.30881  10.50500  -3.89703
  -9.59054  11.10355  -0.64989
  -8.60294  12.31562   3.64471
  -8.28870  13.28826   7.64003
  -8.75257  13.63243  10.90213
  -9.51573  13.57257  13.37115
 -10.17413  13.24337  14.86753
  -9.87486  13.25833  15.78032
  -8.22884  12.30065  15.67557
  -5.64011  10.14587  14.80767
  -2.72218   6.28522  12.50325
   0.67459   0.86834   8.88202
   3.30822  -4.38394   4.63231
   4.55021  -9.11249  -0.15609
   4.47539 -12.09028  -4.58536
   3.41296 -13.69140  -7.87739
   0.91402 -13.70636  -9.38873
  -2.43787 -13.09285  -9.10442
  -5.81968 -12.16510  -7.78761
  -8.30366 -11.19245  -7.12920
  -9.78507 -10.42930  -7.69782
  -9.57558  -9.36687  -8.85003
  -7.77993  -7.21209  -9.70297
  -4.59265  -3.81532  -9.68800
  -0.89660   0.56906  -8.65550
   3.03887   4.38482  -7.27884
   6.92945   6.85384  -7.17409
   9.89227   7.42247  -8.62558
  11.58318   6.70421 -10.98985
  11.44850   5.37243 -13.20449
   9.27876   3.90598 -13.81800
   6.03162   2.90341 -12.14206
   2.27572   1.49682  -8.47594
  -0.94149  -0.80760  -3.82221
  -2.36305  -2.37880   0.77166
  -2.94664  -3.39633   4.40786
  -3.09627  -4.47372   6.20351
  -2.01888  -6.17959   5.24583
   0.03115  -8.16977   1.92387
   2.91916 -10.10010  -2.35576
   6.46557 -10.66872  -6.74014
  10.40104  -9.93550 -10.66065
  13.67810  -7.54129 -14.68590
  15.44383  -4.21934 -18.99546
  15.66828  -0.88242 -21.97325
  14.00731   1.85595 -23.20028
  10.23644   3.59174 -22.48202
   5.37322   4.90855 -19.90825
   0.36036   5.44725 -15.10489
  -4.09884   5.46221  -9.64311
  -7.46569   5.64178  -4.66018
  -8.24381   6.92866  -1.03895
  -6.80729   8.51482   1.90891
  -4.08388   8.63453   3.42025
  -0.29805   6.95859   3.62974
   4.05640   5.05819   3.43521
   8.36597   3.77131   3.55492
  11.89742   2.81363   4.16844
  14.60586   1.91580   5.11115
  16.16209   1.75120   5.50021
  16.44640   3.12787   5.41043
  15.15951   4.50453   5.66481
  12.63064   4.35490   5.11115
   9.51818   1.69135   3.03119
   7.45318  -1.30141   0.29282
   6.57032  -3.36641  -3.13388
   6.94441  -4.15948  -6.72518
   9.15905  -3.66568 -10.61576
  12.24158  -2.03463 -14.80561
  15.38397  -0.01452 -17.57391
  18.61614   1.82602 -18.09764
  21.83335   3.02312 -16.72097
  23.44944   2.82859 -14.59612
  23.04542   1.48185 -13.18952
  21.86328   0.68877 -12.47126
  20.39683   0.67381 -12.20192
  20.38187   1.39207 -12.60594
  21.14502   2.15522 -13.89282
  22.70125   1.99062 -15.94286
  25.27502   1.87091 -18.50166
  28.56704   3.47203 -20.61155
  31.97878   5.47718 -22.01814
  35.28577   6.22537 -23.06561
  37.72487   4.93848 -23.36488
  38.65262   2.20011 -22.33238
  38.14385  -0.50833 -20.46191
  36.57266  -1.88499 -18.68122
  33.90911  -1.88499 -18.06771
  29.58458  -0.91235 -18.54655
  23.73375   0.49424 -19.23488
  16.95517   1.36214 -19.48927
  10.17658   1.01798 -18.84583
   4.65496  -0.02949 -17.99289
   0.77934  -1.43608 -16.88557
  -1.09113  -3.02224 -15.71840
  -0.91156  -5.17702 -14.64101
   1.34796  -7.78071 -13.27931
   4.93927 -10.86325 -11.73804
   9.36854 -14.55930  -9.95735
  14.65075 -18.18053  -9.07449
  20.63625 -20.18567  -8.85003
  26.47212 -21.12839  -8.82011
  31.99375 -21.08350  -8.44601
  35.51023 -20.24553  -8.04199
  35.92921 -20.08093  -8.10185
  34.23831 -19.73676  -8.11681
  31.02110 -18.89879  -8.04199
  26.23270 -17.16299  -7.72775
  20.18734 -15.12792  -7.14416
  13.72299 -12.53919  -5.58793
   7.69260  -9.50155  -2.78971
   1.96148  -6.65843   0.57714
  -4.03899  -4.92264   3.83924
  -9.60551  -4.47372   6.78710
 -14.61837  -4.63832   9.49554
 -19.36188  -3.69561  12.27880
 -23.38713  -2.18427  14.20912
 -26.43974  -1.07695  15.27155
 -29.26789  -1.09191  15.21169
 -31.72195  -1.37623  14.62811
 -33.48767  -1.72039  14.55329
 -35.31325  -2.28901  14.89745
 -37.87205  -3.57590  15.54090
 -41.11919  -4.14452  16.39383
 -43.91741  -3.00727  18.27926
 -46.86527  -0.14920  21.04756
 -49.75328   3.27750  24.51915
 -52.44675   6.52464  28.33491
 -55.09534   8.35022  32.59958
 -57.28005   8.54475  36.96900
 -58.92606   7.57210  40.42563
 -59.73411   5.95602  41.96690
 -60.16805   4.45964  40.76980
 -60.10820   3.66656  37.20842
 -59.16548   3.14283  32.79411
 -57.45961   1.75120  28.79879
 -54.87088  -0.20905  25.73122
 -51.56389  -2.25909  23.27716
 -48.45143  -4.83285  20.65850
 -45.92255  -7.27195  17.97999
 -44.06705  -9.11249  16.21427
 -43.66303  -9.09753  15.91499
 -44.50100  -7.00260  18.21941
 -46.26672  -3.45619  23.41183
 -48.01748   0.40446  30.42984
 -49.16969   3.68153  37.92668
 -50.24708   6.59946  45.39360
 -51.60878   8.64949  51.76816
 -52.92559   8.97870  56.52664
 -54.18255   7.79656  59.44457
 -55.40958   5.02826  60.89605
 -55.12527   1.94573  61.22526
 -53.32962  -0.01452  60.37232
 -49.64853  -0.62804  58.36718
 -44.23165  -0.31380  54.82077
 -37.51292   0.44935  49.64331
 -29.35767   1.03294  44.16657
 -21.71119   0.65885  39.18364
 -15.18699  -0.05941  34.60473
  -9.35112   0.18001  30.54955
  -4.45797   2.34975  27.54183
  -0.46265   6.41989  24.04031
   3.93669  11.52254  19.73075
   8.48568  16.86460  15.45111
  11.61310  19.46829  11.77003
  14.29162  19.04931   8.77728
  16.55114  16.50547   6.30826
  18.24205  13.18351   4.15347
  19.55886  10.28054   1.65453
  21.90817   8.96373  -2.29591
  26.21773   9.27797  -7.60804
  32.27806   9.63710 -14.29684
  38.80226   8.91884 -22.30245
  44.33885   6.24033 -30.81683
  48.10972   2.39464 -38.55310
  49.20207  -0.77767 -44.61342
  48.18453  -2.43865 -48.54889
  46.76298  -3.17188 -50.49418
  45.74544  -3.41130 -51.13762
  46.19435  -3.35144 -50.71864
  48.69330  -2.90253 -49.35693
  52.73352  -1.97478 -47.66603
  57.16279   0.13511 -45.33168
  60.85884   3.50196 -42.32397
  63.43261   7.55714 -38.80748
  65.13847  10.69953 -34.76727
  65.28811  12.34554 -31.49020
  64.58482  12.67475 -30.05368
  63.55232  12.67475 -30.42778
  61.27782  12.83935 -32.58256
  57.14783  13.04884 -35.44064
  51.34189  13.40797 -36.78737
  44.62316  13.84192 -34.97676
  38.54787  13.45286 -29.55988
  33.83429  12.36051 -21.38966
  30.37766  10.19076 -12.38148
  28.82143   7.07830  -3.61272
  29.25538   3.72642   3.74945
  31.33534   0.46432   9.19626
  33.49012  -3.02224  12.60800
  35.09124  -6.08981  14.89745
  36.66244  -9.00774  16.55843
  37.69494 -11.40194  16.61829
  37.75479 -13.15270  14.56825
  37.75479 -13.67644  10.12401
  37.39566 -14.46952   3.95895
  35.40548 -16.69912  -4.09156
  31.70943 -19.93129 -11.63329
  26.17284 -22.50505 -17.30456
  18.33183 -23.59741 -19.10021
   9.78752 -21.93643 -16.66112
   1.18336 -17.25277 -11.42380
  -6.79232 -11.02785  -4.88464
 -13.15192  -4.68322   0.93627
 -18.13485   0.23986   4.45275
 -22.26485   2.79866   5.79949
 -26.36492   4.13044   6.63746
 -31.30296   5.34250   7.90938
 -36.64502   6.22537  10.25869
 -41.37357   7.49728  13.70035
 -45.18933   9.38272  17.65079
 -48.57114  11.40283  21.36180
 -51.27958  12.39043  23.44176
 -53.25480  10.93895  23.71111
 -54.64643   6.74910  22.25962
 -55.25994   0.32964  19.83550
 -54.90081  -6.82303  17.03727
 -53.55407 -13.57169  14.71789
 -51.39929 -17.62687  12.24887
 -48.96020 -17.98600   9.49554
 -46.20687 -15.14288   6.44293
 -43.27397 -10.72858   3.24068
 -40.65531  -7.33180   0.29282
 -38.33593  -6.01499  -2.08641
 -36.63006  -5.26680  -4.12149
 -36.27093  -4.35401  -5.76750
 -37.01912  -2.67807  -6.44087
 -38.68009  -0.07438  -5.81239
 -40.55056   3.71145  -4.16638
 -42.27140   7.34765  -1.32326
 -43.21411   8.38015   2.53739
 -43.85756   6.24033   6.08380
 -44.05208   1.75120   8.41815
 -41.85241  -2.88756  10.40833
 -37.21365  -6.04492  12.20398
 -30.30039  -6.94274  13.58064
 -21.71119  -5.50622  15.00220
 -12.82272  -2.99231  16.13945
  -5.05653  -0.56818  15.03213
   0.25561   0.95812  11.66528
   2.09615   1.75120   6.80206
   1.10854   3.15779   1.05598
  -1.88421   5.71660  -4.82478
  -5.65508   9.03855  -8.92485
  -9.39602  12.62985 -10.13692
 -12.49351  14.85945  -8.55076
 -15.17203  14.93427  -4.34594
 -16.62351  13.76710   1.48992
 -16.42898  13.40797   8.26851
 -14.48369  14.73974  14.73285
 -10.56319  16.44561  20.01506
  -5.84960  17.41826  24.05528
  -0.62725  16.44561  27.85607
   4.84948  14.05141  31.86636
  10.31126  10.95391  36.66973
  15.18944   7.81152  41.32346
  19.08002   5.04323  44.33117
  21.38444   3.42714  44.54066
  22.46183   2.40961  42.38588
  22.23737   0.71870  38.83947
  21.63882  -3.57590  34.42516
  21.17495 -10.38441  29.20281
  21.72861 -18.43491  23.15745
  23.67389 -25.75219  16.64821
  26.17284 -31.13914   9.55539
  28.65683 -33.44356   3.43521
  31.29045 -31.66288  -0.56011
  33.57990 -27.27849  -1.38312
  36.04892 -21.68205   1.66949
  38.71247 -16.02575   8.14880
  41.07675 -10.74354  17.02231
  42.45341  -5.47630  26.34473
  41.76508  -1.25652  33.88647
  37.85954   1.33222  38.01646
  30.37766   2.72385  38.67487
  20.44172   4.13044  37.44784
  10.38608   6.89873  35.41277
   1.73702  10.89406  33.84157
  -4.39812  14.84449  33.51237
  -7.04671  17.82228  34.32042
  -6.77736  18.42083  34.93393
  -4.00906  16.47554  35.11349
   0.07604  12.28569  34.70947
   4.34072   7.16808  34.44013
   7.67763   3.59174  34.94889
   9.69774   3.62167  36.83433
   9.69774   6.85384  39.45299
   7.94698  11.28312  42.13150
   4.72977  13.94667  43.37349
   1.04869  14.29083  42.90961
  -3.27584  13.22841  40.84461
  -7.69015  11.32801  37.53762
 -12.05957   9.05352  32.76418
 -15.42641   7.36261  27.64658
 -16.86293   6.65931  23.03774
 -16.95271   7.13815  19.68586
 -16.09978   7.58707  17.29166
 -14.13953   7.46736  15.45111
 -11.32634   6.95859  12.74267
  -8.45330   5.85127   8.14880
  -6.08902   4.35490   2.49250
  -4.45797   3.02312  -3.31344
  -3.42548   2.94830  -8.70040
  -3.54519   4.48957 -14.02749
  -5.81968   6.58450 -18.89072
 -10.17413   9.29294 -23.14042
 -15.09721  12.30065 -26.16310
 -20.05021  14.91931 -27.91386
 -24.65905  15.51786 -28.54234
 -28.84890  12.98898 -29.12593
 -32.48510   8.45497 -30.26317
 -35.31325   3.74138 -32.35810
 -36.09136   0.31468 -34.64756
 -34.46031  -1.04702 -37.49067
 -31.21318  -1.18170 -40.73781
 -28.13064  -0.85249 -43.32654
 -26.75398  -0.73278 -44.91270
 -27.51713  -1.33133 -45.78059
 -30.56974  -1.87003 -45.48132
 -35.32821  -2.33391 -45.03241
 -40.84984  -1.72039 -44.58349
 -45.77292   0.89827 -43.61085
 -48.93027   5.10308 -42.65317
 -49.12480   9.38272 -42.86266
 -44.90502  12.27072 -43.99991
 -36.22604  12.19591 -46.34922
 -23.50684   8.94877 -49.43175
  -9.14163   2.82859 -53.21758
   4.63999  -5.28177 -58.14066
  16.05734 -13.79615 -65.30830
  24.55676 -20.08093 -73.76283
  30.25795 -23.71712 -81.48413
  32.11346 -24.07625 -87.79883
  30.15320 -21.95140 -92.31789
  25.26005 -18.65937 -94.89166
  17.47890 -16.28013 -94.75698
   7.09405 -15.32245 -92.18322
  -4.05395 -14.90346 -88.96601
 -13.24170 -14.27499 -85.56923
 -19.97539 -12.97314 -81.85822
 -22.87836 -10.36945 -77.47384
 -21.44184  -6.94274 -72.92486
 -16.09978  -3.89014 -68.51055
  -7.48065  -2.37880 -64.48529
   2.75456  -2.90253 -62.03124
  13.18430  -4.86278 -61.19327
  21.84832  -7.45151 -61.82175
  26.98089  -9.74097 -63.64732
  27.87871 -11.92568 -65.68240
  24.43705 -13.60162 -66.61015
  17.89788 -14.42462 -65.03895
  10.20651 -13.54176 -60.98377
   2.45528 -11.17749 -54.92345
  -5.44558  -8.52890 -47.68099
 -13.10703  -7.67597 -40.25897
 -18.65858  -7.88546 -31.37049
 -20.43927  -7.45151 -20.64148
 -17.89543  -6.40405  -8.61061
  -9.82996  -4.17445   3.85420
   2.44032  -0.34373  15.40622
  16.46136   5.17790  25.17756
  29.37509  11.41779  31.85139
  38.99679  16.37079  33.79668
  43.66548  18.39090  30.34005
  42.49831  16.58029  22.51401
  37.24603  12.62985  12.15909
  29.41998   8.20058   2.74688
  20.63625   4.50453  -3.89703
  12.46604   2.20011  -7.60804
   6.18126   0.64388  -8.77521
   2.47025  -0.49336  -7.15913
   2.30564  -1.10688  -4.42076
   5.68745  -1.85507  -0.94917
  12.13684  -2.06456   3.43521
  21.23480  -0.65796   7.78967
  30.12328   3.18772  12.18901
  36.82704   8.94877  19.05738
  40.67273  14.42551  27.51190
  41.31617  18.60039  35.09853
  38.41320  21.33876  40.57527
  32.15835  21.99717  43.46327
  22.58154  20.94971  43.56802
  11.34376  19.21391  42.13150
   0.59978  18.21134  40.91943
  -7.97446  17.85221  41.66762
 -13.81033  17.11898  45.82755
 -15.81547  15.32333  52.02254
 -14.18442  13.01891  58.51682
  -9.44091   9.78674  64.50232
  -2.21341   5.10308  70.36811
   7.39332   0.44935  75.30615
  17.92781  -2.91749  79.16681
  27.42980  -5.55111  83.19206
  34.22335  -8.30445  86.87314
  37.96429 -10.42930  87.35198
  37.96429 -10.44426  85.25706
  33.90911  -9.90557  81.89021
  27.84878  -9.26213  76.21894
  21.30962  -8.99278  67.27062
  13.61825  -9.92053  57.91827
   4.95423 -11.97057  51.18457
  -2.60247 -12.77861  44.55563
  -7.77993 -11.55158  38.37559
  -9.54565  -9.48658  35.38284
  -7.83978  -8.02013  34.15581
  -3.17109  -6.55369  32.22549
   4.07137  -4.20438  30.83386
  11.05944  -0.53825  29.06814
  14.97995   1.75120  25.65640
  17.25444   1.37711  21.63115
  18.40665  -0.40358  18.00992
  16.23691  -2.12441  14.04452
  10.96966  -2.60325  10.33351
   3.81698  -2.33391   7.26594
  -4.11381  -1.48097   3.74945
 -11.40116   0.10519  -1.38312
 -15.99503   2.06544  -6.57554
 -17.08739   2.09537  -9.49348
 -14.55851   0.64388 -10.76539
  -8.33359  -2.31894 -10.73547
   1.90162  -5.35659  -8.83507
  14.12702  -7.33180  -5.79743
  24.70639  -7.28691  -2.61015
  31.49994  -5.26680   0.77166
  33.77443  -1.81017   3.64471
  31.90396   3.30743   4.97648
  26.24766   9.26301   5.18597
  18.03256  13.78206   3.56989
   9.39847  16.64014  -0.93420
   0.80927  19.03434  -6.82993
  -7.85475  20.47087 -13.75815
 -15.42641  21.69789 -22.09296
 -21.41192  21.99717 -31.20589
 -24.74883  21.69789 -39.16661
 -22.39952  21.21905 -46.07987
 -15.66583  19.54311 -51.19748
  -6.76239  14.70982 -51.99055
   5.86702   7.25786 -50.38943
  19.85814  -0.31380 -48.57882
  29.12070  -5.82046 -44.82291
  32.14338 -11.02785 -38.85237
  29.82400 -14.09542 -34.79719
  22.89578 -13.87097 -33.16614
  12.66057 -11.55158 -30.99640
   1.75199  -8.33437 -28.37774
  -8.00439  -4.44380 -27.68941
 -16.51877  -1.98974 -27.25546
 -22.02543  -2.90253 -25.57952
 -23.89590  -5.44637 -25.60945
 -22.26485  -8.84314 -26.37260
 -18.25456 -12.73372 -25.92368
 -12.22417 -15.03814 -25.83390
  -5.11638 -13.18263 -28.60220
   0.67459  -9.72600 -31.65480
   4.53525  -5.04235 -34.13879
   6.16629   0.01540 -37.62534
   4.93927   4.10051 -40.64802
   0.27057   7.45239 -41.90498
  -6.71750  10.54989 -42.90755
 -14.39391  14.73974 -42.66813
 -20.94804  18.34601 -38.10419
 -26.11054  19.19895 -31.75955
 -31.81173  17.80732 -24.92111
 -34.75959  16.31094 -17.52901
 -33.57745  13.34812  -9.97232
 -28.26532   9.87652  -2.87949
 -18.46405   7.10823   1.90891
  -6.22370   5.64178   5.09619
   6.07651   6.80895   8.83713
  17.01502   8.57468  11.38097
  26.08306   9.96631  13.16166
  31.18570   9.95134  16.55843
  32.24813   8.82906  18.11466
  28.83639   7.45239  18.12963
  20.21727   6.65931  18.74314
   8.23129   5.82134  18.05481
  -3.45540   3.54685  17.35151
 -13.07710   0.28475  21.30194
 -19.07757  -1.33133  26.18013
 -21.80097  -0.89738  30.11560
 -22.81851  -0.59811  37.17849
 -22.72873  -1.04702  45.28885
 -21.54659  -1.69046  51.52874
 -19.76590  -1.52586  58.96573
