********************************************************************************
              CENTRO DE INSTRUMENTACION Y REGISTRO SISMICO  A.C.

    Anaxagoras 814, Col. Narvarte, Benito Juarez, C.P. 03020 Mexico, D.F.
           Tels. 5687 45 42/ 5687 45  82             Fax. 5669 25 12
********************************************************************************
ARCHIVO ESTANDAR DE ACELERACION:
VERSION DEL FORMATO                    : 2.0
NOMBRE DEL ARCHIVO                     : AU4620130616051902
FECHA Y HORA DE CREACION               : 20/OCT/17, 13:29
REF. CATALOGO ACELEROGRAMAS, SMIS 1996 : REGISTRO No.     /PAG.


================================================================================
DATOS DE LA ESTACION:
NOMBRE DE LA ESTACION                  : ESC. SEC. TÉC. NO. 14
CLAVE DE LA ESTACION                   : AU46
LOCALIZACION DE LA ESTACION            : Del. Benito Juárez, Col. del Valle,    
                                       : Entre Angel Urraza y Coyoacán.         
                                       :                                        
                                       :                                        
                                       : 
COORDENADAS DE LA ESTACION             : 19.3832 LAT. N
                                       : 99.1681 LONG. W
ALTITUD (msnm)                         : 2233
TIPO DE SUELO                          : Transición                          
                                       :                           
                                       : 
INSTITUCION RESPONSABLE                : CIRES
                                       : 

================================================================================
DATOS DEL ACELEROGRAFO:
MODELO DEL ACELEROGRAFO                : RADESD
NUMERO DE SERIE DEL ACELEROGRAFO       : 236
NUMERO DE CANALES                      : 3
ORIENTACION C1-C6 (rumbo;orientacion)  : /N00E/+V/N90W
ORIENTACION C7-C12 (rumbo;orientacion) : 
VEL. DE MUESTREO, C1-C6 (muestras/s)   : /100/100/100
VEL. DE MUESTREO, C7-C12 (muestras/s)  : 
ESC. COMPLETA DE SENSORES, C1-C6, (g)  : /0.5/0.5/0.5
ESC. COMPLETA DE SENSORES, C7-C12, (g) : 
FREC. NAT. DE SENSORES, C1-C6, (Hz)    : /33/30/30
FREC. NAT. DE SENSORES, C7-C12, (Hz)   : 
AMORTIGUAMIENTO DE SENSORES, C1-C6     : /0.735/0.733/0.730
AMORTIGUAMIENTO DE SENSORES, C7-C12    : 
INTERVALO DE MUESTREO, C1-C6, (s)      : /0.01/0.01/0.01
INTERVALO DE MUESTREO, C7-C12, (s)     : 
UMBRAL DE DISPARO, C1-C6, (Gal)        : /1.65/4.49/1.8
UMBRAL DE DISPARO, C7-C12, (Gal)       : 
MEMORIA DE PREEVENTO (s)               : 44.0
TIEMPO DE POSEVENTO (s)                : 137.0


================================================================================
DATOS DEL SISMO:
FECHA DEL SISMO (GMT)                  : 16/JUN/13
HORA EPICENTRO (GMT)                   : 05:19:02.0
MAGNITUD(ES)                           : /Mc=5.8
COORDENADAS DEL EPICENTRO              : 18.11 LAT. N
                                       : 99.22 LONG. W
PROFUNDIDAD FOCAL (km)                 : 55
FUENTE DE LOS DATOS EPICENTRALES       : SSN
                                       : INSTITUTO DE GEOFISICA, UNAM

================================================================================
DATOS DE ESTE REGISTRO:
HORA DE LA PRIMERA MUESTRA (GMT)       : 05:19:24.00
EXACTITUD DEL TIEMPO (s)               : 0.01
DURACION DEL REGISTRO (s), C1-C6       : /193.2/193.2/193.2
DURACION DEL REGISTRO (s), C7-C12      : 
NUM. TOTAL DE MUESTRAS, C1-C6          : /19320/19320/19320
NUM. TOTAL DE MUESTRAS, C7-C12         : 
ACEL. MAX. (Gal), C1-C6                : /19.65974/9.19755/17.59426
ACEL. MAX., C1-C6, EN LA MUESTRA       : /6023/4370/7041
ACEL. MAX. (Gal), C7-C12               : 
ACEL. MAX., C7-C12, EN LA MUESTRA      : 
UNIDADES DE LOS DATOS                  : Gal (cm/s/s)
FACTOR DE DECIMACION                   : 1
FORMATO DATOS (FORTRAN,10 campos/dato) : 3F10.5


================================================================================
CALIDAD DEL ACELEROGRAMA:
REGISTRO DIGITAL COMPLETO CON TIEMPO ABSOLUTO CORRECTO.


================================================================================
COMENTARIOS:














================================================================================
DATOS DE ACELERACION:
---------+---------+---------+---------+---------+---------+---------+---------+
   CANAL-1   CANAL-2   CANAL-3   CANAL-4   CANAL-5   CANAL-6   CANAL-7   CANAL-8
      N00E        +V      N90W
---------+---------+---------+---------+---------+---------+---------+---------+
[...]
  -0.04753   0.02477  -0.29615
  -0.07746  -0.28947  -0.28119
  -0.21213  -0.60371  -0.19140
  -0.31688  -0.94788   0.01809
  -0.55630  -1.15737   0.25751
  -0.79572  -1.26212   0.52686
  -1.06507  -1.20226   0.67649
  -1.30449  -1.15737   0.81117
  -1.46909  -0.97781   0.97577
  -1.57383  -0.78328   1.14037
  -1.39427  -0.43911   1.20023
  -1.10996  -0.05005   1.18526
  -0.73586   0.29411   1.17030
  -0.27199   0.57843   1.20023
  -0.00264   0.80288   1.17030
   0.17693   0.98245   1.18526
   0.35649   1.25179   1.06555
   0.41635   1.38647   0.88599
   0.43131   1.31165   0.73635
   0.38642   1.13208   0.69146
   0.37146   0.74303   0.85606
   0.29664   0.36893   0.94584
   0.08714   0.02477   0.99073
  -0.03257  -0.16976   1.00570
  -0.31688  -0.28947   1.05059
  -0.54133  -0.36429   1.12541
  -0.70593  -0.34933   1.09548
  -0.79572  -0.22962   1.05059
  -0.73586  -0.07998   0.96081
  -0.64608   0.12951   0.82613
  -0.57126   0.23426   0.78124
  -0.43659   0.36893   0.67649
  -0.34680   0.39886   0.46700
  -0.24206   0.27915   0.21262
  -0.18220  -0.02013   0.00312
  -0.06249  -0.21465  -0.07169
   0.01233  -0.36429  -0.19140
   0.01233  -0.49897  -0.35601
   0.04225  -0.64860  -0.62535
   0.14700  -0.84313  -0.84981
   0.29664  -0.96284  -1.02938
   0.40138  -0.91795  -1.16405
   0.44627  -0.78328  -1.50822
   0.35649  -0.57378  -1.73267
   0.16196  -0.34933  -1.83742
  -0.03257  -0.27451  -1.79253
  -0.19717  -0.31940  -1.79253
  -0.31688  -0.52889  -1.80749
  -0.31688  -0.64860  -1.80749
  -0.31688  -0.58875  -1.77756
  -0.37673  -0.52889  -1.59800
  -0.42162  -0.43911  -1.32865
  -0.43659  -0.36429  -0.99945
  -0.37673  -0.28947  -0.76003
  -0.34680  -0.18473  -0.73010
  -0.31688  -0.12487  -0.89470
  -0.28695  -0.02013  -0.99945
  -0.33184   0.12951  -1.02938
  -0.42162   0.33901  -1.01441
  -0.55630   0.51857  -0.92463
  -0.70593   0.60835  -0.78995
  -0.76579   0.63828  -0.62535
  -0.82564   0.51857  -0.44579
  -0.85557   0.27915  -0.40090
  -0.88550   0.03973  -0.43082
  -0.97528  -0.19969  -0.35601
  -1.06507  -0.36429  -0.26622
  -1.10996  -0.51393  -0.02680
  -1.15485  -0.67853   0.09291
  -1.06507  -0.78328   0.19765
  -0.88550  -0.75335   0.25751
  -0.67601  -0.75335   0.33233
  -0.48148  -0.79824   0.57175
  -0.36177  -0.79824   0.87102
  -0.28695  -0.73839   1.23015
  -0.24206  -0.48400   1.49950
  -0.12235  -0.16976   1.64914
  -0.03257   0.24922   1.72396
  -0.06249   0.59339   1.66410
  -0.09242   0.78792   1.55936
  -0.22709   0.80288   1.45461
  -0.34680   0.68317   1.37979
  -0.43659   0.63828   1.40972
  -0.45155   0.68317   1.45461
  -0.39170   0.75799   1.45461
  -0.15228   0.96748   1.33490
   0.13204   1.22187   1.26008
   0.52109   1.41640   1.30497
   0.88022   1.58100   1.43965
   1.25432   1.49121   1.67907
   1.53863   1.23683   1.73892
   1.77805   1.01237   1.93345
   2.01747   0.92259   1.91849
   2.03243   0.95252   1.72396
   2.06236   0.90763   1.40972
   2.06236   0.77295   1.02066
   1.97258   0.53353   0.78124
   1.86783   0.29411   0.64657
   1.73316   0.15944   0.52686
   1.64338   0.03973   0.51189
   1.50870  -0.03509   0.42211
   1.38899  -0.21465   0.34729
   1.29921  -0.28947   0.18269
   1.11964  -0.28947  -0.07169
   0.88022  -0.31940  -0.28119
   0.64080  -0.22962  -0.40090
   0.44627  -0.13984  -0.41586
   0.38642  -0.02013  -0.38593
   0.43131   0.09958  -0.35601
   0.53606   0.29411  -0.34104
   0.62584   0.45872  -0.46075
   0.73059   0.42879  -0.64032
   0.83533   0.27915  -0.86477
   0.86526   0.02477  -1.04434
   0.83533  -0.22962  -1.19398
   0.80541  -0.36429  -1.22390
   0.83533  -0.37926  -1.13412
   0.88022  -0.27451  -0.99945
   0.92512  -0.25955  -0.90966
   0.95504  -0.22962  -0.83485
   0.73059  -0.24458  -0.77499
   0.41635  -0.22962  -0.68521
   0.04225  -0.13984  -0.52061
  -0.30191  -0.03509  -0.44579
  -0.55630   0.11455  -0.44579
  -0.73586   0.30908  -0.61039
  -0.87054   0.38390  -0.77499
  -1.00521   0.48864  -1.01441
  -1.16981   0.44375  -1.19398
  -1.27456   0.23426  -1.20894
  -1.28952  -0.05005  -1.17901
  -1.19974  -0.39422  -0.96952
  -1.09499  -0.69349  -0.77499
  -0.93039  -0.96284  -0.62535
  -0.85557  -1.09752  -0.49068
  -0.88550  -1.20226  -0.49068
  -0.97528  -1.24715  -0.44579
  -1.15485  -1.30701  -0.41586
  -1.27456  -1.48657  -0.34104
  -1.30449  -1.53146  -0.31111
  -1.28952  -1.44168  -0.29615
  -1.18478  -1.20226  -0.31111
  -1.05010  -0.85810  -0.26622
  -0.85557  -0.43911  -0.32608
  -0.76579  -0.10991  -0.43082
  -0.79572   0.18937  -0.47572
  -0.84061   0.39886  -0.50564
  -0.93039   0.59339  -0.38593
  -0.97528   0.75799  -0.16148
  -1.09499   0.84777   0.13780
  -1.22967   0.77295   0.43707
  -1.31945   0.57843   0.64657
  -1.36434   0.33901   0.79620
  -1.37930   0.20433   0.76628
  -1.37930   0.20433   0.66153
  -1.28952   0.23426   0.54182
  -1.18478   0.23426   0.42211
  -0.99025   0.24922   0.36225
  -0.66104   0.32404   0.31736
  -0.28695   0.38390   0.25751
  -0.03257   0.60835   0.12283
   0.08714   0.84777  -0.04177
   0.05722   1.07223  -0.11659
  -0.07746   1.19194  -0.13155
  -0.19717   1.16201  -0.11659
  -0.19717   1.04230  -0.07169
  -0.13731   0.98245  -0.05673
  -0.01760   1.05727  -0.10162
   0.08714   1.14705  -0.22133
   0.29664   1.19194  -0.37097
   0.52109   1.05727  -0.46075
   0.82037   0.65324  -0.49068
   1.08972   0.12951  -0.49068
   1.38899  -0.34933  -0.59543
   1.67330  -0.63364  -0.70017
   1.91272  -0.61868  -0.76003
   2.01747  -0.52889  -0.67024
   2.09229  -0.48400  -0.52061
   1.95761  -0.55882  -0.29615
   1.82294  -0.66357  -0.04177
   1.65834  -0.72342   0.15276
   1.58352  -0.82817   0.28744
   1.67330  -0.90299   0.30240
   1.70323  -1.00773   0.34729
   1.80798  -1.08255   0.46700
   1.86783  -1.02270   0.61664
   1.83790  -0.93291   0.72138
   1.77805  -0.87306   0.88599
   1.62841  -0.85810   1.09548
   1.38899  -0.94788   1.29001
   1.08972  -1.21723   1.42468
   0.80541  -1.68110   1.51446
   0.62584  -2.08512   1.51446
   0.40138  -2.36944   1.49950
   0.28167  -2.41433   1.42468
   0.08714  -2.29462   1.21519
  -0.03257  -2.14498   0.97577
  -0.13731  -1.96541   0.78124
  -0.10738  -1.86067   0.69146
  -0.06249  -1.68110   0.60167
   0.04225  -1.38183   0.46700
   0.19189  -0.85810   0.33233
   0.31160  -0.13984   0.16773
   0.38642   0.57843   0.12283
   0.52109   1.23683   0.10787
   0.64080   1.61092   0.21262
   0.64080   1.80545   0.30240
   0.44627   1.76056   0.42211
   0.17693   1.89524   0.52686
  -0.21213   2.28429   0.55678
  -0.61615   2.79306   0.43707
  -0.93039   3.30183   0.19765
  -1.15485   3.66096  -0.04177
  -1.31945   3.93031  -0.25126
  -1.42420   4.10987  -0.47572
  -1.61872   4.24455  -0.74506
  -1.82822   4.27447  -0.93959
  -2.00778   4.19966  -0.92463
  -2.02275   4.00513  -0.83485
  -1.85814   3.69089  -0.71514
  -1.57383   3.30183  -0.73010
  -1.21470   2.92774  -0.76003
  -0.96032   2.59853  -0.80492
  -0.78075   2.23940  -0.84981
  -0.63112   1.88027  -0.86477
  -0.37673   1.40143  -0.76003
  -0.09242   1.07223  -0.65528
   0.34153   0.74303  -0.55053
   0.71562   0.51857  -0.56550
   0.99993   0.14448  -0.64032
   1.14957  -0.27451  -0.62535
   1.04483  -0.58875  -0.46075
   0.88022  -0.78328  -0.32608
   0.71562  -0.87306  -0.17644
   0.58095  -0.88802  -0.05673
   0.58095  -0.88802  -0.05673
   0.62584  -0.87306  -0.17644
   0.61088  -1.06759  -0.40090
   0.56598  -1.29204  -0.67024
   0.49117  -1.48657  -1.04434
   0.44627  -1.62125  -1.22390
   0.41635  -1.72599  -1.35858
   0.49117  -1.83074  -1.43340
   0.73059  -1.78585  -1.55311
   1.07475  -1.62125  -1.67282
   1.37403  -1.39679  -1.77756
   1.68827  -1.17233  -1.86735
   2.07732  -1.17233  -1.80749
   2.46638  -1.38183  -1.59800
   2.79559  -1.74096  -1.17901
   3.00508  -2.08512  -0.78995
   3.00508  -2.18987  -0.56550
   2.88537  -2.04023  -0.43082
   2.66091  -1.65118  -0.43082
   2.33171  -1.14241  -0.40090
   2.06236  -0.57378  -0.34104
   1.77805  -0.28947  -0.11659
   1.56856  -0.34933   0.25751
   1.43388  -0.57378   0.69146
   1.31417  -0.81320   1.09548
   1.20943  -0.78328   1.46957
   1.08972  -0.52889   1.90352
   1.05979  -0.15480   2.24769
   1.19446   0.02477   2.47214
   1.44885   0.06966   2.53200
   1.67330   0.02477   2.45718
   1.88280  -0.03509   2.24769
   2.06236   0.18937   1.90352
   2.21200   0.47368   1.37979
   2.42149   0.83281   0.66153
   2.66091   1.11712  -0.31111
   2.84048   1.16201  -1.43340
   2.84048   0.95252  -2.64546
   2.67588   0.42879  -3.69292
   2.52624  -0.36429  -4.54586
   2.27185  -1.30701  -5.05463
   1.98754  -2.04023  -5.17434
   1.71819  -2.48915  -4.96484
   1.35906  -2.56396  -4.45608
   1.01490  -2.26469  -3.75278
   0.82037  -1.84570  -2.91481
   0.77548  -1.50154  -1.91224
   0.83533  -1.15737  -0.80492
   0.98497  -0.88802   0.42211
   1.26928  -0.57378   1.64914
   1.73316  -0.24458   2.57689
   2.19703   0.06966   3.35501
   2.55617   0.36893   3.99845
   2.64595   0.84777   4.56707
   2.42149   1.14705   5.25540
   1.76309   1.14705   5.97366
   0.86526   0.74303   6.66200
  -0.18220   0.29411   7.47004
  -1.52894  -0.22962   8.12845
  -3.26474  -0.76831   8.56240
  -5.18010  -1.29204   8.68211
  -7.27503  -1.71103   8.69707
  -9.32506  -1.92052   8.63721
 -11.15064  -1.84570   8.50254
 -12.63205  -1.62125   8.12845
 -13.78426  -1.53146   7.48500
 -14.51749  -1.65118   6.69193
 -14.98136  -1.87563   5.86892
 -15.17589  -2.13002   4.94117
 -15.32553  -2.42929   3.95356
 -15.54999  -2.68367   2.66667
 -15.65473  -2.86324   1.34986
 -15.65473  -2.89317   0.06298
 -15.59488  -2.72857  -1.07427
 -15.56495  -2.36944  -2.04691
 -15.52006  -1.80081  -2.75021
 -15.53502  -1.08255  -3.19912
 -15.60984  -0.34933  -3.51336
 -15.75948   0.36893  -3.78271
 -15.92408   0.96748  -3.94731
 -15.99890   1.50618  -4.00716
 -15.95401   1.89524  -4.02213
 -15.62480   2.17955  -4.03709
 -15.01129   2.25437  -3.99220
 -14.12843   2.28429  -4.18673
 -12.91636   2.32919  -4.47104
 -11.47984   2.59853  -5.05463
  -9.77397   3.03248  -5.92252
  -7.90350   3.52629  -6.89517
  -6.01807   3.82556  -7.82292
  -4.17753   3.87045  -8.75068
  -2.45669   3.52629  -9.76821
  -0.76579   2.88284 -10.93538
   0.89519   2.34415 -12.11752
   2.51127   1.98502 -13.25477
   4.03758   1.94013 -13.89821
   5.39928   1.83538 -14.16756
   6.65624   1.79049 -14.03288
   7.89823   1.79049 -13.40440
   9.12526   1.94013 -12.58140
  10.42710   2.35911 -11.74343
  11.71399   2.76313 -10.81567
  12.91109   2.95766  -9.78317
  14.00344   2.86788  -8.82549
  14.96112   2.50875  -7.76307
  15.94873   2.19451  -6.86524
  16.83159   1.91020  -6.28165
  17.71445   1.74560  -5.90756
  18.50753   1.50618  -5.60829
  19.15098   1.01237  -5.03966
  19.52507   0.18937  -4.15680
  19.65974  -0.90299  -2.89985
  19.59989  -2.11505  -1.41843
  19.21083  -3.34208   0.07794
  18.43271  -4.43443   1.61921
  17.31043  -5.33226   2.99588
  15.97866  -6.33483   4.28276
  14.57206  -7.05309   5.43497
  13.10562  -7.42719   6.52732
  11.62420  -7.29251   7.44011
  10.21761  -6.58922   8.15837
   8.99058  -5.61657   8.57736
   8.07779  -4.41947   8.71203
   7.44931  -3.40194   8.51750
   7.23982  -2.36944   8.12845
   7.20989  -1.23219   7.73939
   7.25479   0.05469   7.51493
   7.26975   1.43136   7.42515
   7.09018   2.85292   7.78428
   6.56645   4.10987   8.60729
   5.69855   4.90295   9.69964
   4.59124   5.15734  10.95660
   3.21457   4.97777  12.21355
   1.74812   4.61864  13.44058
   0.19189   4.18469  14.53294
  -1.33441   3.55621  15.41580
  -2.68115   2.80803  16.22384
  -3.86329   1.74560  16.68772
  -4.85090   0.47368  16.88225
  -5.67390  -0.82817  16.58297
  -6.51187  -1.92052  15.84975
  -7.27503  -2.50411  14.66761
  -8.15789  -2.57893  13.27598
  -8.95097  -2.26469  11.73471
  -9.53455  -1.63621  10.10366
  -9.89368  -0.82817   8.33794
  -9.98347  -0.05005   6.55725
  -9.89368   0.65324   4.68678
  -9.75901   1.20690   2.89113
  -9.44477   1.59596   1.26008
  -9.16046   1.91020   0.06298
  -8.60680   2.05984  -0.64032
  -7.81372   2.05984  -0.99945
  -6.75129   1.70071  -1.04434
  -5.62901   1.14705  -0.89470
  -4.71622   0.48864  -0.41586
  -4.14760  -0.21465   0.27247
  -4.19249  -0.85810   0.91591
  -4.71622  -1.39679   1.57432
  -5.70383  -1.68110   1.88856
  -6.67648  -1.89060   1.81374
  -7.45459  -1.89060   1.26008
  -7.84365  -1.71103   0.16773
  -7.87358  -1.47161  -1.05930
  -7.55934  -1.18730  -2.46590
  -6.91590  -1.09752  -3.81263
  -5.91332  -1.06759  -5.12945
  -4.74615  -1.06759  -6.28165
  -3.53409  -0.97781  -7.07473
  -2.45669  -0.63364  -7.59847
  -1.58880  -0.13984  -7.62839
  -0.99025   0.39886  -7.17948
  -0.72090   0.75799  -6.26669
  -0.70593   0.92259  -5.06959
  -0.87054   0.95252  -3.87249
  -1.10996   0.95252  -2.78014
  -1.28952   1.02734  -2.16662
  -1.30449   1.13208  -2.13669
  -0.88550   1.31165  -2.58561
  -0.03257   1.53611  -3.30387
   1.16454   1.94013  -4.06702
   2.58609   2.58357  -4.87506
   4.14232   3.34672  -5.45865
   5.71352   3.93031  -5.93749
   7.09018   4.30440  -5.99734
   8.16758   4.57375  -5.62325
   8.87087   4.67850  -4.86010
   9.33475   4.69346  -3.94731
   9.57417   4.43908  -2.97466
   9.69388   3.81060  -2.00202
   9.78366   2.88284  -1.19398
   9.93330   1.82042  -0.59543
  10.15776   0.68317  -0.31111
  10.51689  -0.39422  -0.25126
  11.10047  -1.35190  -0.34104
  11.77384  -2.14498  -0.53557
  12.53699  -2.90813  -0.81988
  13.06072  -3.68625  -1.35858
  13.27022  -4.68882  -1.97209
  13.18043  -5.70635  -2.61553
  12.70159  -6.49943  -3.16919
  11.83370  -7.02317  -3.57321
  10.62163  -7.27755  -3.87249
   9.09533  -7.39726  -3.81263
   7.62888  -7.24762  -3.51336
   6.40185  -6.81367  -3.21408
   5.66863  -6.11038  -3.12430
   5.45913  -5.15269  -3.39365
   5.72848  -4.09027  -3.84256
   6.29711  -2.89317  -4.15680
   7.01537  -1.69607  -4.09695
   7.64384  -0.79824  -3.67796
   7.97305   0.00980  -2.89985
   7.80844   0.62332  -1.76260
   6.92558   1.13208  -0.67024
   5.27957   1.37150   0.10787
   3.09486   1.34158   0.64657
   0.41635   1.01237   0.91591
  -2.63626   0.59339   1.00570
  -5.82354   0.21929   1.05059
  -8.86118  -0.07998   0.94584
 -11.43495  -0.22962   0.72138
 -13.20067  -0.00516   0.45204
 -14.23317   0.35397   0.31736
 -14.71201   0.48864   0.40715
 -14.65216   0.20433   0.72138
 -14.39778  -0.31940   1.37979
 -14.06857  -1.06759   2.21776
 -13.55980  -1.77089   2.84624
 -13.06600  -2.42929   3.11559
 -12.57220  -2.86324   3.11559
 -12.25796  -2.99791   2.81631
 -12.06343  -2.69864   2.42725
 -12.16818  -2.02527   1.97834
 -12.51234  -1.29204   1.42468
 -13.03607  -0.46904   0.78124
 -13.57477   0.51857   0.06298
 -13.94886   1.65582  -0.87974
 -14.03865   2.91277  -2.01698
 -13.75433   4.31937  -3.25898
 -13.09593   5.80078  -4.44111
 -12.16818   7.13255  -5.30901
 -10.92618   7.89570  -5.77289
  -9.62434   7.97052  -5.87763
  -8.29256   7.38694  -5.63821
  -7.03561   6.45918  -5.02470
  -5.86843   5.62121  -4.08198
  -4.65637   4.91792  -2.98963
  -3.32459   4.22958  -1.79253
  -1.75340   3.40658  -0.68521
   0.23678   2.58357   0.24254
   2.57113   1.70071   0.84110
   5.20475   0.87770   1.00570
   7.91319   0.06966   0.76628
  10.47199  -0.51393   0.28744
  12.68663  -0.91795  -0.28119
  14.54214  -1.17233  -0.62535
  16.06844  -1.39679  -0.53557
  17.04109  -1.66614  -0.02680
  17.46007  -2.01031   0.88599
  17.35532  -2.41433   1.96338
