********************************************************************************
               CENTRO DE INSTRUMENTACION Y REGISTRO SISMICO  A.C.  
                       Coordinacion de Servicios Tecnicos
     Anaxagoras 814, Col. Narvarte, Benito Juarez, C.P. 03020 Mexico, D.F.
            Tels. 687 45 42/ 687 45  82             Fax. 669 25 12
********************************************************************************
ARCHIVO ESTANDAR DE ACELERACION:
VERSION DEL FORMATO                    : 2.0
NOMBRE DEL ARCHIVO                     : AU469701.111
FECHA Y HORA DE CREACION               : 19/MAR/98, 11:29
REF. CATALOGO ACELEROGRAMAS, SMIS 1996 : REGISTRO No.     /PAG.


================================================================================
DATOS DE LA ESTACION:
NOMBRE DE LA ESTACION                  : ANGEL URRAZA
CLAVE DE LA ESTACION                   : AU46
LOCALIZACION DE LA ESTACION            : Esc Sec Tec # 14, 5 de Mayo Av
                                       : Coyoacan y Angel Urraza, Col de
                                       : Valle, Benito Juarez
                                       :
                                       :
COORDENADAS DE LA ESTACION             : 19.383 LAT. N 
                                       : 99.168 LONG. W 
ALTITUD (msnm)                         : 2233
TIPO DE SUELO                          : TRANSICION
                                       : 
                                       : 
INSTITUCION RESPONSABLE                : CIRES
                                       :

================================================================================
DATOS DEL ACELEROGRAFO:
MODELO DEL ACELEROGRAFO                : RAD-851
NUMERO DE SERIE DEL ACELEROGRAFO       : 236
NUMERO DE CANALES                      : 3
ORIENTACION C1-C6 (rumbo;orientacion)  : /N00E/+V/N90W
ORIENTACION C7-C12 (rumbo;orientacion) :
VEL. DE MUESTREO, C1-C6 (muestras/s)   : /100/100/100
VEL. DE MUESTREO, C7-C12 (muestras/s)  :
ESC. COMPLETA DE SENSORES, C1-C6, (g)  : /0.5/0.5/0.5
ESC. COMPLETA DE SENSORES, C7-C12, (g) :
FREC. NAT. DE SENSORES, C1-C6, (Hz)    : /33/30/30
FREC. NAT. DE SENSORES, C7-C12, (Hz)   :
AMORTIGUAMIENTO DE SENSORES, C1-C6     : /0.735/0.733/0.730
AMORTIGUAMIENTO DE SENSORES, C7-C12    :
INTERVALO DE MUESTREO, C1-C6, (s)      : /0.01/0.01/0.01
INTERVALO DE MUESTREO, C7-C12, (s)     :
UMBRAL DE DISPARO, C1-C6, (Gal)        : /1.45/2.44/1.45
UMBRAL DE DISPARO, C7-C12, (Gal)       :
MEMORIA DE PREEVENTO (s)               : 8
TIEMPO DE POSEVENTO (s)                : 8


================================================================================
DATOS DEL SISMO:
FECHA DEL SISMO (GMT)                  : 11/ENE/97
HORA EPICENTRO (GMT)                   : 20:28:27:2
MAGNITUD(ES)                           : /Ms=6.9
COORDENADAS DEL EPICENTRO              : 17.9 LAT. N
                                       : 103.0 LONG. W
PROFUNDIDAD FOCAL (km)                 : 16.0
FUENTE DE LOS DATOS EPICENTRALES       : SSN
                                       : INSTITUTO DE GEOFISICA, UNAM

================================================================================
DATOS DE ESTE REGISTRO:
HORA DE LA PRIMERA MUESTRA (GMT)       : 20:29:59.00
EXACTITUD DEL TIEMPO (s)               : 0.01
DURACION DEL REGISTRO (s), C1-C6       : /97.74/97.74/97.74
DURACION DEL REGISTRO (s), C7-C12      :
NUM. TOTAL DE MUESTRAS, C1-C6          : /9774/9774/9774
NUM. TOTAL DE MUESTRAS, C7-C12         :
ACEL. MAX. (Gal), C1-C6                : /10.62121 /2.64003/8.87778
ACEL. MAX., C1-C6, EN LA MUESTRA       :
ACEL. MAX. (Gal), C7-C12               :
ACEL. MAX., C7-C12, EN LA MUESTRA      :
UNIDADES DE LOS DATOS                  : Gal (cm/s/s)
FACTOR DE DECIMACION                   : 1
FORMATO DATOS (FORTRAN,10 campos/dato) : 3F10.5


================================================================================
CALIDAD DEL ACELEROGRAMA:
REGISTRO DIGITAL COMPLETO CON TIEMPO ABSOLUTO CORRECTO.


================================================================================
COMENTARIOS:














================================================================================
DATOS DE ACELERACION:
---------+---------+---------+---------+---------+---------+---------+---------+
   CANAL-1   CANAL-2   CANAL-3   CANAL-4   CANAL-5   CANAL-6   CANAL-7   CANAL-8
      N00E        +V      N90W
---------+---------+---------+---------+---------+---------+---------+---------+
[...]
  -2.00213  -0.00642   0.69898
  -2.24155  -0.24584   0.22014
  -2.48097  -0.00642  -0.25869
  -2.72039  -0.24584  -0.49811
  -2.95981  -0.24584  -0.97695
  -2.95981  -0.24584  -1.45579
  -3.19922  -0.24584  -1.69521
  -2.95981  -0.24584  -2.41347
  -3.19922  -0.24584  -2.89230
  -3.19922  -0.00642  -3.13172
  -2.95981  -0.48526  -3.37114
  -2.72039  -0.48526  -3.84998
  -2.48097  -0.48526  -3.84998
  -2.24155  -0.48526  -4.32882
  -2.00213  -0.48526  -4.32882
  -1.52329  -0.48526  -4.32882
  -1.52329  -0.48526  -4.32882
  -1.28387  -0.48526  -4.32882
  -1.28387  -0.48526  -4.32882
  -0.80504  -0.48526  -4.32882
  -0.56562  -0.48526  -4.08940
  -0.56562  -0.24584  -4.08940
  -0.56562  -0.24584  -3.84998
  -0.56562  -0.24584  -3.61056
  -0.32620  -0.24584  -3.61056
  -0.32620  -0.24584  -3.13172
  -0.32620  -0.00642  -2.89230
  -0.32620  -0.24584  -2.65288
  -0.32620  -0.00642  -2.17405
  -0.32620  -0.24584  -2.17405
  -0.32620  -0.24584  -1.69521
  -0.08678  -0.48526  -1.45579
   0.15264  -0.48526  -1.21637
  -0.08678  -0.96409  -1.21637
   0.15264  -0.96409  -0.97695
   0.15264  -0.96409  -0.73753
   0.15264  -1.20351  -0.49811
   0.15264  -1.20351  -0.25869
   0.15264  -1.20351  -0.25869
  -0.08678  -1.20351  -0.01928
   0.15264  -1.68235  -0.01928
  -0.08678  -1.92177   0.22014
  -0.32620  -1.92177   0.22014
  -0.32620  -2.16119   0.69898
  -0.32620  -2.16119   0.69898
  -0.32620  -2.40061   0.93840
  -0.56562  -2.40061   1.17782
  -0.56562  -2.40061   1.41724
  -0.80504  -2.64003   1.89608
  -0.80504  -2.40061   2.37491
  -1.04445  -2.16119   2.85375
  -1.04445  -2.16119   3.33259
  -1.28387  -2.16119   3.81143
  -1.52329  -2.16119   4.29027
  -1.52329  -2.16119   4.52968
  -1.52329  -1.92177   4.76910
  -2.00213  -1.92177   5.24794
  -2.00213  -1.92177   5.48736
  -2.24155  -1.92177   5.72678
  -2.48097  -2.16119   5.96620
  -2.48097  -2.16119   6.44504
  -2.48097  -2.40061   6.20562
  -2.72039  -2.40061   6.20562
  -2.95981  -2.16119   6.20562
  -2.95981  -2.16119   6.44504
  -3.19922  -2.40061   6.44504
  -3.19922  -2.40061   6.44504
  -3.43864  -2.16119   6.44504
  -3.43864  -2.16119   6.44504
  -3.67806  -1.92177   6.20562
  -3.67806  -1.68235   5.96620
  -3.43864  -1.68235   5.72678
  -3.67806  -1.44293   5.48736
  -3.67806  -1.20351   5.24794
  -3.43864  -1.20351   4.76910
  -3.43864  -1.20351   4.29027
  -3.43864  -0.96409   4.05085
  -3.19922  -0.96409   3.57201
  -3.19922  -0.96409   3.33259
  -2.95981  -0.96409   2.85375
  -2.95981  -0.96409   2.61433
  -2.95981  -0.96409   2.37491
  -2.95981  -0.72467   1.89608
  -2.95981  -0.72467   1.41724
  -2.95981  -0.72467   0.93840
  -2.95981  -0.48526   0.93840
  -2.72039  -0.48526   0.45956
  -2.48097  -0.48526   0.22014
  -2.48097  -0.24584  -0.01928
  -2.24155  -0.48526  -0.25869
  -1.76271  -0.48526  -0.49811
  -1.52329  -0.24584  -0.97695
  -1.04445  -0.00642  -1.21637
  -0.56562  -0.24584  -1.45579
  -0.08678  -0.00642  -1.69521
   0.15264  -0.00642  -1.93463
   0.63148   0.23300  -2.17405
   1.11032   0.23300  -2.41347
   1.58915   0.47242  -2.41347
   1.82857   0.71184  -2.65288
   2.30741   0.47242  -2.65288
   2.54683   0.47242  -2.89230
   2.78625   0.71184  -2.89230
   3.02567   0.47242  -2.89230
   3.50451   0.71184  -2.89230
   3.74392   0.95126  -2.89230
   3.74392   0.95126  -2.65288
   3.74392   0.95126  -2.41347
   3.98334   0.95126  -2.17405
   3.98334   0.95126  -1.93463
   4.22276   0.95126  -1.45579
   4.46218   0.95126  -1.45579
   4.46218   0.71184  -0.97695
   4.46218   0.71184  -0.73753
   4.70160   0.71184  -0.49811
   4.94102   0.71184  -0.01928
   5.41986   0.71184   0.22014
   5.65928   0.71184   0.69898
   5.89869   0.47242   1.17782
   5.89869   0.47242   1.41724
   5.89869   0.47242   1.89608
   5.89869   0.47242   2.13549
   5.89869   0.47242   2.37491
   6.13811   0.23300   2.85375
   6.13811   0.47242   2.85375
   5.89869   0.47242   3.33259
   5.89869   0.47242   3.57201
   5.65928   0.71184   3.81143
   5.41986   0.71184   4.05085
   5.18044   0.95126   4.29027
   4.94102   0.95126   4.52968
   4.70160   0.95126   4.52968
   4.70160   0.95126   4.76910
   4.46218   0.95126   4.76910
   3.98334   0.95126   5.00852
   3.74392   0.71184   5.24794
   3.50451   0.71184   5.24794
   3.26509   0.47242   5.24794
   3.26509   0.47242   5.24794
   2.78625   0.47242   5.24794
   2.54683   0.23300   5.00852
   2.06799   0.23300   5.00852
   1.58915  -0.00642   4.76910
   1.34974  -0.00642   4.76910
   0.87090  -0.00642   4.52968
   0.87090  -0.00642   4.52968
   0.63148  -0.00642   4.29027
   0.39206   0.23300   4.05085
   0.15264   0.47242   3.81143
  -0.08678   0.47242   3.57201
  -0.32620   0.71184   3.09317
  -0.32620   0.95126   3.09317
  -0.32620   1.19068   2.61433
  -0.32620   1.19068   2.37491
  -0.80504   1.43010   1.89608
  -0.80504   1.66952   1.65666
  -1.04445   1.90893   1.17782
  -1.04445   1.90893   0.69898
  -1.04445   1.90893  -0.01928
  -1.04445   2.14835  -0.49811
  -1.04445   2.14835  -0.97695
  -0.80504   1.90893  -1.45579
  -0.80504   1.90893  -1.69521
  -1.04445   1.90893  -1.93463
  -1.04445   1.66952  -2.41347
  -0.80504   1.43010  -2.89230
  -0.80504   1.43010  -3.13172
  -0.80504   0.95126  -3.61056
  -0.80504   0.95126  -3.84998
  -0.80504   0.71184  -4.08940
  -0.80504   0.47242  -4.32882
  -0.80504   0.47242  -4.80765
  -0.80504   0.47242  -5.04707
  -0.56562   0.23300  -5.28649
  -0.56562  -0.00642  -5.52591
  -0.56562  -0.00642  -5.76533
  -0.56562  -0.24584  -5.76533
  -0.56562  -0.24584  -6.00475
  -0.56562  -0.00642  -6.24417
  -0.56562  -0.00642  -6.00475
  -0.32620  -0.24584  -6.00475
  -0.32620  -0.24584  -6.00475
  -0.32620  -0.24584  -6.24417
  -0.32620  -0.24584  -6.00475
  -0.32620  -0.24584  -6.00475
  -0.08678  -0.24584  -6.00475
  -0.08678  -0.24584  -5.76533
  -0.08678  -0.24584  -5.52591
  -0.08678  -0.24584  -5.28649
  -0.08678  -0.24584  -4.80765
   0.15264  -0.48526  -4.56824
   0.15264  -0.24584  -4.32882
   0.39206  -0.48526  -3.84998
   0.39206  -0.24584  -3.37114
   0.39206  -0.48526  -2.89230
   0.39206  -0.48526  -2.17405
   0.39206  -0.24584  -1.93463
   0.39206  -0.24584  -1.21637
   0.39206  -0.24584  -0.73753
   0.39206  -0.24584  -0.25869
   0.39206  -0.00642   0.45956
   0.39206  -0.00642   0.69898
   0.39206  -0.00642   1.41724
   0.39206  -0.00642   1.89608
   0.39206  -0.00642   2.37491
   0.63148  -0.00642   2.85375
   0.63148   0.23300   3.33259
   0.63148   0.23300   3.81143
   0.87090   0.23300   4.05085
   0.87090   0.23300   4.52968
   1.11032  -0.00642   4.52968
   1.11032   0.23300   4.76910
   1.34974   0.23300   4.76910
   1.34974   0.23300   4.76910
   1.58915   0.23300   4.76910
   1.58915   0.23300   4.76910
   1.82857   0.47242   4.76910
   1.82857   0.47242   4.52968
   1.82857   0.23300   4.05085
   2.06799   0.47242   3.57201
   2.06799   0.47242   3.57201
   2.06799   0.47242   3.09317
   2.30741   0.47242   2.61433
   2.30741   0.71184   2.37491
   2.30741   0.71184   1.65666
   2.54683   0.71184   1.17782
   2.54683   0.71184   0.69898
   2.54683   0.71184   0.22014
   2.78625   0.95126  -0.01928
   2.78625   0.95126  -0.73753
   3.26509   0.95126  -0.97695
   3.26509   0.95126  -1.21637
   3.50451   0.71184  -1.69521
   3.50451   0.95126  -1.93463
   3.50451   0.71184  -2.41347
   3.50451   0.47242  -2.89230
   3.50451   0.23300  -3.13172
   3.74392   0.23300  -3.61056
   3.50451  -0.24584  -3.84998
   3.50451  -0.48526  -4.32882
   3.26509  -0.72467  -4.56824
   3.02567  -0.72467  -4.80765
   2.78625  -0.96409  -5.04707
   2.54683  -0.96409  -5.04707
   2.30741  -1.20351  -5.28649
   1.82857  -1.44293  -5.04707
   1.58915  -1.44293  -5.04707
   1.11032  -1.44293  -5.04707
   0.87090  -1.20351  -4.80765
   0.63148  -1.20351  -4.80765
   0.15264  -0.96409  -4.56824
  -0.08678  -0.96409  -4.32882
  -0.56562  -0.72467  -4.08940
  -1.04445  -0.72467  -3.84998
  -1.52329  -0.48526  -3.61056
  -2.00213  -0.48526  -3.61056
  -2.48097  -0.24584  -3.13172
  -2.95981  -0.24584  -2.89230
  -3.43864  -0.24584  -2.65288
  -3.67806  -0.24584  -2.41347
  -4.15690  -0.00642  -2.17405
  -4.63574  -0.00642  -1.93463
  -4.87516  -0.00642  -1.69521
  -4.87516  -0.00642  -1.69521
  -5.11458  -0.00642  -1.21637
  -5.11458  -0.00642  -1.21637
  -5.11458   0.23300  -0.97695
  -5.35400   0.23300  -0.97695
  -5.35400   0.23300  -0.73753
  -5.35400   0.23300  -0.73753
  -5.11458   0.23300  -0.73753
  -5.11458   0.23300  -0.49811
  -4.87516   0.47242  -0.73753
  -4.87516   0.47242  -0.49811
  -4.87516   0.47242  -0.49811
  -4.87516   0.71184  -0.73753
  -4.63574   0.71184  -0.73753
  -4.39632   0.95126  -0.73753
  -3.91748   0.95126  -0.73753
  -3.67806   0.71184  -0.97695
  -3.43864   0.71184  -1.21637
  -2.95981   0.47242  -1.21637
  -2.48097   0.47242  -1.21637
  -2.00213   0.47242  -1.45579
  -1.76271   0.47242  -1.69521
  -1.52329   0.47242  -1.69521
  -1.28387   0.23300  -2.17405
  -1.04445   0.23300  -2.17405
  -0.56562  -0.00642  -2.41347
  -0.32620  -0.24584  -2.17405
   0.15264  -0.00642  -2.41347
   0.39206  -0.24584  -2.41347
   0.63148  -0.24584  -2.65288
   1.34974  -0.24584  -2.65288
   1.58915  -0.24584  -2.65288
   2.30741  -0.24584  -2.41347
   2.78625  -0.24584  -2.41347
   3.26509  -0.00642  -2.17405
   3.74392  -0.24584  -1.69521
   4.22276  -0.00642  -1.69521
   4.46218  -0.24584  -1.21637
   4.70160  -0.00642  -0.97695
   4.70160  -0.24584  -0.49811
   4.94102  -0.24584  -0.25869
   5.18044  -0.48526  -0.01928
   5.18044  -0.48526   0.22014
   5.18044  -0.72467   0.22014
   4.94102  -0.72467   0.69898
   4.94102  -0.96409   0.69898
   4.94102  -1.20351   0.93840
   4.94102  -1.20351   1.17782
   4.70160  -1.44293   1.17782
   4.70160  -1.44293   1.65666
   4.46218  -1.44293   1.65666
   4.22276  -1.68235   2.13549
   3.98334  -1.68235   2.13549
   3.74392  -1.44293   2.37491
   3.26509  -1.44293   2.37491
   2.78625  -1.44293   2.37491
   2.30741  -1.20351   2.61433
   1.82857  -1.20351   2.37491
   1.34974  -0.96409   2.37491
   0.87090  -0.96409   2.37491
   0.39206  -0.96409   2.13549
  -0.08678  -0.72467   2.13549
  -0.32620  -0.96409   2.13549
  -1.04445  -0.96409   1.89608
  -1.28387  -0.96409   1.65666
  -1.76271  -0.96409   1.65666
  -2.48097  -0.96409   1.41724
  -3.19922  -0.96409   1.17782
  -3.91748  -0.96409   0.93840
  -4.63574  -0.96409   0.69898
  -5.35400  -0.96409   0.22014
  -6.07225  -0.96409  -0.01928
  -6.55109  -0.72467  -0.49811
  -7.26935  -0.96409  -0.97695
  -7.50877  -0.72467  -1.21637
  -7.98760  -0.72467  -1.45579
  -8.22702  -0.72467  -1.93463
  -8.46644  -0.48526  -2.41347
  -8.94528  -0.48526  -2.41347
  -8.94528  -0.24584  -2.65288
  -9.18470  -0.00642  -2.89230
  -9.18470   0.23300  -3.13172
  -9.66354   0.23300  -3.13172
  -9.90296   0.47242  -3.37114
 -10.14237   0.47242  -3.61056
 -10.38179   0.71184  -3.84998
 -10.62121   0.71184  -3.84998
 -10.62121   0.71184  -4.08940
 -10.62121   0.71184  -4.32882
 -10.62121   0.71184  -4.56824
 -10.62121   0.71184  -4.32882
 -10.62121   0.47242  -4.56824
 -10.38179   0.47242  -4.56824
 -10.14237   0.23300  -4.32882
  -9.90296   0.23300  -4.08940
  -9.66354   0.23300  -4.32882
  -9.18470  -0.00642  -3.84998
  -9.18470  -0.00642  -3.61056
  -8.46644   0.23300  -3.61056
  -7.98760  -0.00642  -3.37114
  -7.50877   0.23300  -3.13172
  -6.79051  -0.00642  -2.65288
  -6.31167   0.47242  -2.41347
  -5.83283   0.23300  -2.17405
  -4.87516   0.23300  -1.69521
  -4.15690   0.23300  -1.45579
  -3.67806   0.47242  -0.97695
  -2.72039   0.23300  -0.49811
  -1.76271   0.47242  -0.01928
  -1.04445   0.47242   0.45956
  -0.08678   0.47242   0.69898
   0.63148   0.71184   1.17782
   1.58915   0.47242   1.41724
   2.30741   0.71184   1.89608
   3.02567   0.95126   1.89608
   3.74392   0.95126   2.37491
   4.70160   1.19068   2.61433
   5.41986   1.19068   2.85375
   5.89869   1.19068   3.09317
   6.61695   0.95126   3.33259
   7.33521   0.95126   3.57201
   8.05347   0.95126   3.57201
   8.29288   0.95126   3.81143
   8.77172   0.71184   4.05085
   9.25056   0.47242   4.05085
   9.48998   0.47242   4.29027
   9.96882   0.47242   4.29027
   9.96882   0.47242   4.52968
  10.20824   0.23300   4.52968
  10.20824   0.47242   4.76910
  10.44765   0.23300   4.76910
  10.44765   0.23300   4.76910
  10.20824   0.23300   4.76910
  10.20824   0.23300   4.76910
   9.96882   0.23300   4.76910
   9.96882   0.47242   5.00852
   9.72940   0.47242   5.00852
   9.25056   0.47242   4.76910
   9.01114   0.47242   4.76910
   8.77172   0.47242   4.76910
   8.77172   0.23300   4.29027
   8.53230   0.23300   4.05085
   7.81405  -0.00642   4.05085
   7.81405  -0.24584   4.05085
   7.33521  -0.24584   3.81143
   6.61695  -0.48526   3.57201
   6.13811  -0.48526   3.33259
   5.65928  -0.72467   3.09317
   5.18044  -0.72467   2.85375
   4.46218  -0.72467   2.61433
   3.98334  -0.72467   2.37491
   3.26509  -0.72467   2.13549
   2.54683  -0.96409   1.89608
   2.30741  -0.96409   1.65666
   1.82857  -0.96409   1.41724
   1.34974  -0.96409   0.93840
   0.63148  -0.96409   0.69898
  -0.08678  -0.96409   0.45956
  -0.56562  -0.96409  -0.01928
  -1.28387  -0.96409  -0.25869
  -1.76271  -0.96409  -0.73753
  -2.48097  -0.72467  -1.21637
  -2.95981  -0.72467  -1.45579
  -3.67806  -0.48526  -1.93463
  -4.15690  -0.48526  -2.41347
  -4.63574  -0.72467  -2.65288
  -4.87516  -0.48526  -3.13172
  -5.11458  -0.72467  -3.37114
  -5.11458  -0.48526  -3.84998
  -5.35400  -0.48526  -3.84998
  -5.59341  -0.48526  -3.84998
  -5.83283  -0.48526  -4.08940
  -5.83283  -0.48526  -4.08940
  -6.07225  -0.24584  -4.08940
  -6.07225  -0.72467  -4.08940
  -6.31167  -0.48526  -3.84998
  -6.55109  -0.24584  -3.84998
  -7.02993  -0.48526  -3.61056
  -7.02993  -0.48526  -3.37114
  -7.02993  -0.48526  -3.13172
  -7.50877  -0.72467  -2.89230
  -7.26935  -0.72467  -2.89230
  -7.26935  -0.48526  -2.41347
  -7.26935  -0.48526  -2.41347
  -7.50877  -0.48526  -1.93463
  -7.26935  -0.48526  -1.69521
  -6.79051  -0.48526  -1.69521
  -6.79051  -0.24584  -1.45579
  -6.31167  -0.48526  -0.97695
  -6.07225  -0.24584  -0.97695
  -5.83283  -0.24584  -0.73753
  -5.59341  -0.24584  -0.49811
  -5.11458  -0.24584  -0.25869
  -4.87516  -0.24584  -0.01928
  -4.39632  -0.24584  -0.01928
  -3.91748  -0.24584  -0.01928
  -3.67806  -0.24584   0.22014
  -3.19922  -0.24584  -0.01928
  -2.95981  -0.24584   0.22014
  -2.24155  -0.24584  -0.01928
  -2.24155  -0.24584  -0.01928
  -1.76271  -0.24584  -0.01928
  -1.28387  -0.24584  -0.01928
  -1.04445  -0.00642   0.22014
  -0.80504  -0.24584   0.22014
  -0.56562  -0.24584   0.22014
  -0.08678  -0.00642   0.45956
   0.15264  -0.00642   0.45956
   0.39206  -0.00642   0.45956
   0.87090  -0.00642   0.69898
   1.58915  -0.00642   0.45956
   1.82857  -0.00642   0.45956
   2.30741  -0.00642   0.45956
   3.02567  -0.00642   0.22014
   3.26509  -0.00642   0.22014
   3.74392  -0.24584  -0.01928
   3.98334  -0.24584  -0.01928
   4.22276  -0.48526  -0.25869
   4.46218  -0.24584  -0.25869
   4.70160  -0.24584  -0.49811
   5.18044  -0.24584  -0.49811
   5.18044  -0.00642  -0.49811
   5.65928  -0.24584  -0.49811
   5.65928  -0.00642  -0.49811
   6.13811  -0.00642  -0.49811
   6.13811   0.23300  -0.49811
   6.37753   0.23300  -0.25869
   6.61695  -0.00642  -0.25869
   6.61695   0.23300  -0.25869
   6.61695   0.23300  -0.25869
   6.61695   0.23300  -0.01928
   6.61695   0.23300   0.22014
   6.37753   0.47242   0.22014
   6.13811  -0.00642   0.22014
   5.89869  -0.00642   0.45956
   5.89869  -0.00642   0.45956
   5.65928  -0.24584   0.45956
